{
"type": "FeatureCollection",
"name": "luminarias_ruta_7_3",
"crs": { "type": "name", "properties": { "name": "urn:ogc:def:crs:OGC:1.3:CRS84" } },
"features": [
{ "type": "Feature", "properties": { "id": 4189, "Departamen": "Guaymallen", "Luminaria": "Sodio", "Ruta/calle": "RN 7", "Soporte": "Metalico", "Alimentaci": "Aerea", "Estado": "Presente", "Ubicacion": "Este", "Observacio": null, "Jurisdicci": "DNV", "Clasificac": "RUTA NACIONAL", "Operador": "0", "feature": "0", "Zona": "Urbano", "Potencia": 400, "Latitud": -32.9427293, "Longitud": -68.7351395, "ID": 4189, "Potencia2": "400", "ruta_id": 4703, "nombre_ruta": "RN 7", "categoria": "Ruta Nacional", "distancia_m": 0.008629387747910354 }, "geometry": { "type": "Point", "coordinates": [ -68.735139500000102, -32.942729300000252 ] } },
{ "type": "Feature", "properties": { "id": 4190, "Departamen": "Guaymallen", "Luminaria": "Sodio", "Ruta/calle": "RN 7", "Soporte": "Metalico", "Alimentaci": "Aerea", "Estado": "Presente", "Ubicacion": "Este", "Observacio": null, "Jurisdicci": "DNV", "Clasificac": "RUTA NACIONAL", "Operador": "0", "feature": "0", "Zona": "Urbano", "Potencia": 400, "Latitud": -32.9429468, "Longitud": -68.7352352, "ID": 4190, "Potencia2": "400", "ruta_id": 564, "nombre_ruta": "RN 7", "categoria": "Ruta Nacional", "distancia_m": 0.0060622423790794248 }, "geometry": { "type": "Point", "coordinates": [ -68.735235200000105, -32.942946800000264 ] } },
{ "type": "Feature", "properties": { "id": 19470, "Departamen": "Maipu", "Luminaria": "Sodio", "Ruta/calle": "RN 7", "Soporte": "Madera", "Alimentaci": "Aerea", "Estado": "Presente", "Ubicacion": "Sur", "Observacio": null, "Jurisdicci": "DNV", "Clasificac": "RUTA NACIONAL", "Operador": "0", "feature": "0", "Zona": "Urbano", "Potencia": 400, "Latitud": -32.9494491, "Longitud": -68.7262247, "ID": 19506, "Potencia2": "400", "ruta_id": 1398, "nombre_ruta": "RP 4", "categoria": "Ruta Provincial", "distancia_m": 0.0079158068788275551 }, "geometry": { "type": "Point", "coordinates": [ -68.726224700000117, -32.949449100000244 ] } },
{ "type": "Feature", "properties": { "id": 19739, "Departamen": "Maipu", "Luminaria": "Sodio", "Ruta/calle": "RN 7", "Soporte": "Madera", "Alimentaci": "Aerea", "Estado": "Presente", "Ubicacion": "Sur", "Observacio": null, "Jurisdicci": "DNV", "Clasificac": "RUTA NACIONAL", "Operador": "0", "feature": "0", "Zona": "Urbano", "Potencia": 400, "Latitud": -32.9494491, "Longitud": -68.7262247, "ID": 19775, "Potencia2": "400", "ruta_id": 1398, "nombre_ruta": "RP 4", "categoria": "Ruta Provincial", "distancia_m": 0.0079158068788275551 }, "geometry": { "type": "Point", "coordinates": [ -68.726224700000117, -32.949449100000244 ] } },
{ "type": "Feature", "properties": { "id": 25517, "Departamen": "Maipu", "Luminaria": "Sodio", "Ruta/calle": "RN 7", "Soporte": "Metalico", "Alimentaci": "Subterranea", "Estado": "Presente", "Ubicacion": null, "Observacio": "R7 (Acceso Este)", "Jurisdicci": "DNV", "Clasificac": "RUTA NACIONAL", "Operador": "0", "feature": "0", "Zona": "Urbano", "Potencia": 400, "Latitud": -32.953188, "Longitud": -68.7204753, "ID": 25553, "Potencia2": "400", "ruta_id": 567, "nombre_ruta": "RN 7", "categoria": "Ruta Nacional", "distancia_m": 0.010383058538319894 }, "geometry": { "type": "Point", "coordinates": [ -68.720475300000103, -32.953188000000253 ] } },
{ "type": "Feature", "properties": { "id": 25518, "Departamen": "Maipu", "Luminaria": "Sodio", "Ruta/calle": "RN 7", "Soporte": "Metalico", "Alimentaci": "Subterranea", "Estado": "Presente", "Ubicacion": null, "Observacio": "R7 (Acceso Este)", "Jurisdicci": "DNV", "Clasificac": "RUTA NACIONAL", "Operador": "0", "feature": "0", "Zona": "Urbano", "Potencia": 400, "Latitud": -32.9534053, "Longitud": -68.7206538, "ID": 25554, "Potencia2": "400", "ruta_id": 566, "nombre_ruta": "RN 7", "categoria": "Ruta Nacional", "distancia_m": 0.0086450977894207866 }, "geometry": { "type": "Point", "coordinates": [ -68.720653800000093, -32.953405300000277 ] } },
{ "type": "Feature", "properties": { "id": 25519, "Departamen": "Maipu", "Luminaria": "Sodio", "Ruta/calle": "RN 7", "Soporte": "Metalico", "Alimentaci": "Subterranea", "Estado": "Presente", "Ubicacion": null, "Observacio": "R7 (Acceso Este)", "Jurisdicci": "DNV", "Clasificac": "RUTA NACIONAL", "Operador": "0", "feature": "0", "Zona": "Urbano", "Potencia": 400, "Latitud": -32.9530149, "Longitud": -68.7207152, "ID": 25555, "Potencia2": "400", "ruta_id": 567, "nombre_ruta": "RN 7", "categoria": "Ruta Nacional", "distancia_m": 0.0094822064909255727 }, "geometry": { "type": "Point", "coordinates": [ -68.7207152000001, -32.953014900000255 ] } },
{ "type": "Feature", "properties": { "id": 25520, "Departamen": "Maipu", "Luminaria": "Sodio", "Ruta/calle": "RN 7", "Soporte": "Metalico", "Alimentaci": "Subterranea", "Estado": "Presente", "Ubicacion": null, "Observacio": "R7 (Acceso Este)", "Jurisdicci": "DNV", "Clasificac": "RUTA NACIONAL", "Operador": "0", "feature": "0", "Zona": "Urbano", "Potencia": 400, "Latitud": -32.9532331, "Longitud": -68.7208945, "ID": 25556, "Potencia2": "400", "ruta_id": 566, "nombre_ruta": "RN 7", "categoria": "Ruta Nacional", "distancia_m": 0.0038806227146591906 }, "geometry": { "type": "Point", "coordinates": [ -68.720894500000099, -32.953233100000254 ] } },
{ "type": "Feature", "properties": { "id": 25521, "Departamen": "Maipu", "Luminaria": "Sodio", "Ruta/calle": "RN 7", "Soporte": "Metalico", "Alimentaci": "Subterranea", "Estado": "Presente", "Ubicacion": null, "Observacio": "R7 (Acceso Este)", "Jurisdicci": "DNV", "Clasificac": "RUTA NACIONAL", "Operador": "0", "feature": "0", "Zona": "Urbano", "Potencia": 400, "Latitud": -32.9528035, "Longitud": -68.7210097, "ID": 25557, "Potencia2": "400", "ruta_id": 565, "nombre_ruta": "RN 7", "categoria": "Ruta Nacional", "distancia_m": 0.01172126926763719 }, "geometry": { "type": "Point", "coordinates": [ -68.72100970000011, -32.95280350000025 ] } },
{ "type": "Feature", "properties": { "id": 25522, "Departamen": "Maipu", "Luminaria": "Sodio", "Ruta/calle": "RN 7", "Soporte": "Metalico", "Alimentaci": "Subterranea", "Estado": "Presente", "Ubicacion": null, "Observacio": "R7 (Acceso Este)", "Jurisdicci": "DNV", "Clasificac": "RUTA NACIONAL", "Operador": "0", "feature": "0", "Zona": "Urbano", "Potencia": 400, "Latitud": -32.9530331, "Longitud": -68.7211736, "ID": 25558, "Potencia2": "400", "ruta_id": 566, "nombre_ruta": "RN 7", "categoria": "Ruta Nacional", "distancia_m": 0.0071072961392899111 }, "geometry": { "type": "Point", "coordinates": [ -68.721173600000114, -32.953033100000255 ] } },
{ "type": "Feature", "properties": { "id": 25523, "Departamen": "Maipu", "Luminaria": "Sodio", "Ruta/calle": "RN 7", "Soporte": "Metalico", "Alimentaci": "Subterranea", "Estado": "Presente", "Ubicacion": null, "Observacio": "R7 (Acceso Este)", "Jurisdicci": "DNV", "Clasificac": "RUTA NACIONAL", "Operador": "0", "feature": "0", "Zona": "Urbano", "Potencia": 400, "Latitud": -32.9525485, "Longitud": -68.7213657, "ID": 25559, "Potencia2": "400", "ruta_id": 565, "nombre_ruta": "RN 7", "categoria": "Ruta Nacional", "distancia_m": 0.013113381310587332 }, "geometry": { "type": "Point", "coordinates": [ -68.721365700000135, -32.952548500000269 ] } },
{ "type": "Feature", "properties": { "id": 25524, "Departamen": "Maipu", "Luminaria": "Sodio", "Ruta/calle": "RN 7", "Soporte": "Metalico", "Alimentaci": "Subterranea", "Estado": "Presente", "Ubicacion": null, "Observacio": "R7 (Acceso Este)", "Jurisdicci": "DNV", "Clasificac": "RUTA NACIONAL", "Operador": "0", "feature": "0", "Zona": "Urbano", "Potencia": 400, "Latitud": -32.9527617, "Longitud": -68.7215524, "ID": 25560, "Potencia2": "400", "ruta_id": 566, "nombre_ruta": "RN 7", "categoria": "Ruta Nacional", "distancia_m": 0.007566590653598786 }, "geometry": { "type": "Point", "coordinates": [ -68.721552400000093, -32.952761700000252 ] } },
{ "type": "Feature", "properties": { "id": 25525, "Departamen": "Maipu", "Luminaria": "Sodio", "Ruta/calle": "RN 7", "Soporte": "Metalico", "Alimentaci": "Subterranea", "Estado": "Presente", "Ubicacion": null, "Observacio": "R7 (Acceso Este)", "Jurisdicci": "DNV", "Clasificac": "RUTA NACIONAL", "Operador": "0", "feature": "0", "Zona": "Urbano", "Potencia": 400, "Latitud": -32.9523727, "Longitud": -68.7216112, "ID": 25561, "Potencia2": "400", "ruta_id": 565, "nombre_ruta": "RN 7", "categoria": "Ruta Nacional", "distancia_m": 0.0097480265349009203 }, "geometry": { "type": "Point", "coordinates": [ -68.721611200000126, -32.952372700000254 ] } },
{ "type": "Feature", "properties": { "id": 25526, "Departamen": "Maipu", "Luminaria": "Sodio", "Ruta/calle": "RN 7", "Soporte": "Metalico", "Alimentaci": "Subterranea", "Estado": "Presente", "Ubicacion": null, "Observacio": "R7 (Acceso Este)", "Jurisdicci": "DNV", "Clasificac": "RUTA NACIONAL", "Operador": "0", "feature": "0", "Zona": "Urbano", "Potencia": 400, "Latitud": -32.9525805, "Longitud": -68.7218053, "ID": 25562, "Potencia2": "400", "ruta_id": 566, "nombre_ruta": "RN 7", "categoria": "Ruta Nacional", "distancia_m": 0.0080747540580668221 }, "geometry": { "type": "Point", "coordinates": [ -68.721805300000113, -32.952580500000273 ] } },
{ "type": "Feature", "properties": { "id": 25527, "Departamen": "Maipu", "Luminaria": "Sodio", "Ruta/calle": "RN 7", "Soporte": "Metalico", "Alimentaci": "Subterranea", "Estado": "Presente", "Ubicacion": null, "Observacio": "R7 (Acceso Este)", "Jurisdicci": "DNV", "Clasificac": "RUTA NACIONAL", "Operador": "0", "feature": "0", "Zona": "Urbano", "Potencia": 400, "Latitud": -32.9521839, "Longitud": -68.7218749, "ID": 25563, "Potencia2": "400", "ruta_id": 565, "nombre_ruta": "RN 7", "categoria": "Ruta Nacional", "distancia_m": 0.0032464087835644912 }, "geometry": { "type": "Point", "coordinates": [ -68.721874900000103, -32.952183900000264 ] } },
{ "type": "Feature", "properties": { "id": 25528, "Departamen": "Maipu", "Luminaria": "Sodio", "Ruta/calle": "RN 7", "Soporte": "Metalico", "Alimentaci": "Subterranea", "Estado": "Presente", "Ubicacion": null, "Observacio": "R7 (Acceso Este)", "Jurisdicci": "DNV", "Clasificac": "RUTA NACIONAL", "Operador": "0", "feature": "0", "Zona": "Urbano", "Potencia": 400, "Latitud": -32.9523962, "Longitud": -68.7220625, "ID": 25564, "Potencia2": "400", "ruta_id": 566, "nombre_ruta": "RN 7", "categoria": "Ruta Nacional", "distancia_m": 0.010096248877476392 }, "geometry": { "type": "Point", "coordinates": [ -68.722062500000121, -32.95239620000028 ] } },
{ "type": "Feature", "properties": { "id": 25529, "Departamen": "Maipu", "Luminaria": "Sodio", "Ruta/calle": "RN 7", "Soporte": "Metalico", "Alimentaci": "Subterranea", "Estado": "Presente", "Ubicacion": null, "Observacio": "R7 (Acceso Este)", "Jurisdicci": "DNV", "Clasificac": "RUTA NACIONAL", "Operador": "0", "feature": "0", "Zona": "Urbano", "Potencia": 400, "Latitud": -32.9519427, "Longitud": -68.7222115, "ID": 25565, "Potencia2": "400", "ruta_id": 565, "nombre_ruta": "RN 7", "categoria": "Ruta Nacional", "distancia_m": 0.012202587626341443 }, "geometry": { "type": "Point", "coordinates": [ -68.722211500000114, -32.951942700000245 ] } },
{ "type": "Feature", "properties": { "id": 25530, "Departamen": "Maipu", "Luminaria": "Sodio", "Ruta/calle": "RN 7", "Soporte": "Metalico", "Alimentaci": "Subterranea", "Estado": "Presente", "Ubicacion": null, "Observacio": "R7 (Acceso Este)", "Jurisdicci": "DNV", "Clasificac": "RUTA NACIONAL", "Operador": "0", "feature": "0", "Zona": "Urbano", "Potencia": 400, "Latitud": -32.952166, "Longitud": -68.7223839, "ID": 25566, "Potencia2": "400", "ruta_id": 566, "nombre_ruta": "RN 7", "categoria": "Ruta Nacional", "distancia_m": 0.0037337259625924235 }, "geometry": { "type": "Point", "coordinates": [ -68.722383900000111, -32.952166000000261 ] } },
{ "type": "Feature", "properties": { "id": 25531, "Departamen": "Maipu", "Luminaria": "Sodio", "Ruta/calle": "RN 7", "Soporte": "Metalico", "Alimentaci": "Subterranea", "Estado": "Presente", "Ubicacion": null, "Observacio": "R7 (Acceso Este)", "Jurisdicci": "DNV", "Clasificac": "RUTA NACIONAL", "Operador": "0", "feature": "0", "Zona": "Urbano", "Potencia": 400, "Latitud": -32.9517823, "Longitud": -68.7224355, "ID": 25567, "Potencia2": "400", "ruta_id": 565, "nombre_ruta": "RN 7", "categoria": "Ruta Nacional", "distancia_m": 0.0084760246119002063 }, "geometry": { "type": "Point", "coordinates": [ -68.722435500000103, -32.951782300000261 ] } },
{ "type": "Feature", "properties": { "id": 25532, "Departamen": "Maipu", "Luminaria": "Sodio", "Ruta/calle": "RN 7", "Soporte": "Metalico", "Alimentaci": "Subterranea", "Estado": "Presente", "Ubicacion": null, "Observacio": "R7 (Acceso Este)", "Jurisdicci": "DNV", "Clasificac": "RUTA NACIONAL", "Operador": "0", "feature": "0", "Zona": "Urbano", "Potencia": 400, "Latitud": -32.9519997, "Longitud": -68.7226159, "ID": 25568, "Potencia2": "400", "ruta_id": 566, "nombre_ruta": "RN 7", "categoria": "Ruta Nacional", "distancia_m": 0.010188131451526106 }, "geometry": { "type": "Point", "coordinates": [ -68.722615900000093, -32.951999700000258 ] } },
{ "type": "Feature", "properties": { "id": 25533, "Departamen": "Maipu", "Luminaria": "Sodio", "Ruta/calle": "RN 7", "Soporte": "Metalico", "Alimentaci": "Subterranea", "Estado": "Presente", "Ubicacion": null, "Observacio": "R7 (Acceso Este)", "Jurisdicci": "DNV", "Clasificac": "RUTA NACIONAL", "Operador": "0", "feature": "0", "Zona": "Urbano", "Potencia": 400, "Latitud": -32.9516058, "Longitud": -68.7226819, "ID": 25569, "Potencia2": "400", "ruta_id": 565, "nombre_ruta": "RN 7", "categoria": "Ruta Nacional", "distancia_m": 0.0093515069662327907 }, "geometry": { "type": "Point", "coordinates": [ -68.722681900000097, -32.951605800000259 ] } },
{ "type": "Feature", "properties": { "id": 25534, "Departamen": "Maipu", "Luminaria": "Sodio", "Ruta/calle": "RN 7", "Soporte": "Metalico", "Alimentaci": "Subterranea", "Estado": "Presente", "Ubicacion": null, "Observacio": "R7 (Acceso Este)", "Jurisdicci": "DNV", "Clasificac": "RUTA NACIONAL", "Operador": "0", "feature": "0", "Zona": "Urbano", "Potencia": 400, "Latitud": -32.9518236, "Longitud": -68.7228617, "ID": 25570, "Potencia2": "400", "ruta_id": 566, "nombre_ruta": "RN 7", "categoria": "Ruta Nacional", "distancia_m": 0.0091550819237265386 }, "geometry": { "type": "Point", "coordinates": [ -68.722861700000109, -32.951823600000267 ] } },
{ "type": "Feature", "properties": { "id": 25535, "Departamen": "Maipu", "Luminaria": "Sodio", "Ruta/calle": "RN 7", "Soporte": "Metalico", "Alimentaci": "Subterranea", "Estado": "Presente", "Ubicacion": null, "Observacio": "R7 (Acceso Este)", "Jurisdicci": "DNV", "Clasificac": "RUTA NACIONAL", "Operador": "0", "feature": "0", "Zona": "Urbano", "Potencia": 400, "Latitud": -32.9514297, "Longitud": -68.7229277, "ID": 25571, "Potencia2": "400", "ruta_id": 565, "nombre_ruta": "RN 7", "categoria": "Ruta Nacional", "distancia_m": 0.012641841575347585 }, "geometry": { "type": "Point", "coordinates": [ -68.722927700000113, -32.951429700000268 ] } },
{ "type": "Feature", "properties": { "id": 25536, "Departamen": "Maipu", "Luminaria": "Sodio", "Ruta/calle": "RN 7", "Soporte": "Metalico", "Alimentaci": "Subterranea", "Estado": "Presente", "Ubicacion": null, "Observacio": "R7 (Acceso Este)", "Jurisdicci": "DNV", "Clasificac": "RUTA NACIONAL", "Operador": "0", "feature": "0", "Zona": "Urbano", "Potencia": 400, "Latitud": -32.9516531, "Longitud": -68.7230997, "ID": 25572, "Potencia2": "400", "ruta_id": 566, "nombre_ruta": "RN 7", "categoria": "Ruta Nacional", "distancia_m": 0.0070618023963905513 }, "geometry": { "type": "Point", "coordinates": [ -68.723099700000134, -32.951653100000257 ] } },
{ "type": "Feature", "properties": { "id": 25537, "Departamen": "Maipu", "Luminaria": "Sodio", "Ruta/calle": "RN 7", "Soporte": "Metalico", "Alimentaci": "Subterranea", "Estado": "Presente", "Ubicacion": null, "Observacio": "R7 (Acceso Este)", "Jurisdicci": "DNV", "Clasificac": "RUTA NACIONAL", "Operador": "0", "feature": "0", "Zona": "Urbano", "Potencia": 400, "Latitud": -32.9512538, "Longitud": -68.7231733, "ID": 25573, "Potencia2": "400", "ruta_id": 565, "nombre_ruta": "RN 7", "categoria": "Ruta Nacional", "distancia_m": 0.011035548791192128 }, "geometry": { "type": "Point", "coordinates": [ -68.723173300000099, -32.951253800000266 ] } },
{ "type": "Feature", "properties": { "id": 25538, "Departamen": "Maipu", "Luminaria": "Sodio", "Ruta/calle": "RN 7", "Soporte": "Metalico", "Alimentaci": "Subterranea", "Estado": "Presente", "Ubicacion": null, "Observacio": "R7 (Acceso Este)", "Jurisdicci": "DNV", "Clasificac": "RUTA NACIONAL", "Operador": "0", "feature": "0", "Zona": "Urbano", "Potencia": 400, "Latitud": -32.951469, "Longitud": -68.7233566, "ID": 25574, "Potencia2": "400", "ruta_id": 566, "nombre_ruta": "RN 7", "categoria": "Ruta Nacional", "distancia_m": 0.0097918028828054247 }, "geometry": { "type": "Point", "coordinates": [ -68.723356600000102, -32.951469000000266 ] } },
{ "type": "Feature", "properties": { "id": 25539, "Departamen": "Maipu", "Luminaria": "Sodio", "Ruta/calle": "RN 7", "Soporte": "Metalico", "Alimentaci": "Subterranea", "Estado": "Presente", "Ubicacion": null, "Observacio": "R7 (Acceso Este)", "Jurisdicci": "DNV", "Clasificac": "RUTA NACIONAL", "Operador": "0", "feature": "0", "Zona": "Urbano", "Potencia": 400, "Latitud": -32.9510884, "Longitud": -68.7234042, "ID": 25575, "Potencia2": "400", "ruta_id": 565, "nombre_ruta": "RN 7", "categoria": "Ruta Nacional", "distancia_m": 0.011818618310707098 }, "geometry": { "type": "Point", "coordinates": [ -68.723404200000104, -32.951088400000259 ] } },
{ "type": "Feature", "properties": { "id": 25540, "Departamen": "Maipu", "Luminaria": "Sodio", "Ruta/calle": "RN 7", "Soporte": "Metalico", "Alimentaci": "Subterranea", "Estado": "Presente", "Ubicacion": null, "Observacio": "R7 (Acceso Este)", "Jurisdicci": "DNV", "Clasificac": "RUTA NACIONAL", "Operador": "0", "feature": "0", "Zona": "Urbano", "Potencia": 400, "Latitud": -32.9513054, "Longitud": -68.723585, "ID": 25576, "Potencia2": "400", "ruta_id": 566, "nombre_ruta": "RN 7", "categoria": "Ruta Nacional", "distancia_m": 0.005678960031336994 }, "geometry": { "type": "Point", "coordinates": [ -68.723585000000114, -32.951305400000244 ] } },
{ "type": "Feature", "properties": { "id": 25541, "Departamen": "Maipu", "Luminaria": "Sodio", "Ruta/calle": "RN 7", "Soporte": "Metalico", "Alimentaci": "Subterranea", "Estado": "Presente", "Ubicacion": null, "Observacio": "R7 (Acceso Este)", "Jurisdicci": "DNV", "Clasificac": "RUTA NACIONAL", "Operador": "0", "feature": "0", "Zona": "Urbano", "Potencia": 400, "Latitud": -32.9509115, "Longitud": -68.7236513, "ID": 25577, "Potencia2": "400", "ruta_id": 565, "nombre_ruta": "RN 7", "categoria": "Ruta Nacional", "distancia_m": 0.0037255205047655778 }, "geometry": { "type": "Point", "coordinates": [ -68.7236513000001, -32.950911500000267 ] } },
{ "type": "Feature", "properties": { "id": 25542, "Departamen": "Maipu", "Luminaria": "Sodio", "Ruta/calle": "RN 7", "Soporte": "Metalico", "Alimentaci": "Subterranea", "Estado": "Presente", "Ubicacion": null, "Observacio": "R7 (Acceso Este)", "Jurisdicci": "DNV", "Clasificac": "RUTA NACIONAL", "Operador": "0", "feature": "0", "Zona": "Urbano", "Potencia": 400, "Latitud": -32.951128, "Longitud": -68.7238325, "ID": 25578, "Potencia2": "400", "ruta_id": 566, "nombre_ruta": "RN 7", "categoria": "Ruta Nacional", "distancia_m": 0.011173426317324937 }, "geometry": { "type": "Point", "coordinates": [ -68.723832500000114, -32.951128000000253 ] } },
{ "type": "Feature", "properties": { "id": 25543, "Departamen": "Maipu", "Luminaria": "Sodio", "Ruta/calle": "RN 7", "Soporte": "Metalico", "Alimentaci": "Subterranea", "Estado": "Presente", "Ubicacion": null, "Observacio": "R7 (Acceso Este)", "Jurisdicci": "DNV", "Clasificac": "RUTA NACIONAL", "Operador": "0", "feature": "0", "Zona": "Urbano", "Potencia": 400, "Latitud": -32.950743, "Longitud": -68.7238865, "ID": 25579, "Potencia2": "400", "ruta_id": 565, "nombre_ruta": "RN 7", "categoria": "Ruta Nacional", "distancia_m": 0.0060078452488109895 }, "geometry": { "type": "Point", "coordinates": [ -68.72388650000012, -32.950743000000266 ] } },
{ "type": "Feature", "properties": { "id": 25544, "Departamen": "Maipu", "Luminaria": "Sodio", "Ruta/calle": "RN 7", "Soporte": "Metalico", "Alimentaci": "Subterranea", "Estado": "Presente", "Ubicacion": null, "Observacio": "R7 (Acceso Este)", "Jurisdicci": "DNV", "Clasificac": "RUTA NACIONAL", "Operador": "0", "feature": "0", "Zona": "Urbano", "Potencia": 400, "Latitud": -32.9509599, "Longitud": -68.7240672, "ID": 25580, "Potencia2": "400", "ruta_id": 566, "nombre_ruta": "RN 7", "categoria": "Ruta Nacional", "distancia_m": 0.0056941529558203691 }, "geometry": { "type": "Point", "coordinates": [ -68.724067200000093, -32.950959900000257 ] } },
{ "type": "Feature", "properties": { "id": 25545, "Departamen": "Maipu", "Luminaria": "Sodio", "Ruta/calle": "RN 7", "Soporte": "Metalico", "Alimentaci": "Subterranea", "Estado": "Presente", "Ubicacion": null, "Observacio": "R7 (Acceso Este)", "Jurisdicci": "DNV", "Clasificac": "RUTA NACIONAL", "Operador": "0", "feature": "0", "Zona": "Urbano", "Potencia": 400, "Latitud": -32.9505633, "Longitud": -68.7241373, "ID": 25581, "Potencia2": "400", "ruta_id": 565, "nombre_ruta": "RN 7", "categoria": "Ruta Nacional", "distancia_m": 0.01036674462142014 }, "geometry": { "type": "Point", "coordinates": [ -68.724137300000109, -32.95056330000024 ] } },
{ "type": "Feature", "properties": { "id": 25546, "Departamen": "Maipu", "Luminaria": "Sodio", "Ruta/calle": "RN 7", "Soporte": "Metalico", "Alimentaci": "Subterranea", "Estado": "Presente", "Ubicacion": null, "Observacio": "R7 (Acceso Este)", "Jurisdicci": "DNV", "Clasificac": "RUTA NACIONAL", "Operador": "0", "feature": "0", "Zona": "Urbano", "Potencia": 400, "Latitud": -32.9507712, "Longitud": -68.7243303, "ID": 25582, "Potencia2": "400", "ruta_id": 566, "nombre_ruta": "RN 7", "categoria": "Ruta Nacional", "distancia_m": 0.0083053126739388462 }, "geometry": { "type": "Point", "coordinates": [ -68.724330300000105, -32.950771200000268 ] } },
{ "type": "Feature", "properties": { "id": 25547, "Departamen": "Maipu", "Luminaria": "Sodio", "Ruta/calle": "RN 7", "Soporte": "Metalico", "Alimentaci": "Subterranea", "Estado": "Presente", "Ubicacion": null, "Observacio": "R7 (Acceso Este)", "Jurisdicci": "DNV", "Clasificac": "RUTA NACIONAL", "Operador": "0", "feature": "0", "Zona": "Urbano", "Potencia": 400, "Latitud": -32.9503925, "Longitud": -68.7243758, "ID": 25583, "Potencia2": "400", "ruta_id": 565, "nombre_ruta": "RN 7", "categoria": "Ruta Nacional", "distancia_m": 0.0019900256662791068 }, "geometry": { "type": "Point", "coordinates": [ -68.724375800000104, -32.950392500000248 ] } },
{ "type": "Feature", "properties": { "id": 25548, "Departamen": "Maipu", "Luminaria": "Sodio", "Ruta/calle": "RN 7", "Soporte": "Metalico", "Alimentaci": "Subterranea", "Estado": "Presente", "Ubicacion": null, "Observacio": "R7 (Acceso Este)", "Jurisdicci": "DNV", "Clasificac": "RUTA NACIONAL", "Operador": "0", "feature": "0", "Zona": "Urbano", "Potencia": 400, "Latitud": -32.9506028, "Longitud": -68.7245645, "ID": 25584, "Potencia2": "400", "ruta_id": 566, "nombre_ruta": "RN 7", "categoria": "Ruta Nacional", "distancia_m": 0.011072315874724915 }, "geometry": { "type": "Point", "coordinates": [ -68.724564500000099, -32.950602800000247 ] } },
{ "type": "Feature", "properties": { "id": 25549, "Departamen": "Maipu", "Luminaria": "Sodio", "Ruta/calle": "RN 7", "Soporte": "Metalico", "Alimentaci": "Subterranea", "Estado": "Presente", "Ubicacion": null, "Observacio": "R7 (Acceso Este)", "Jurisdicci": "DNV", "Clasificac": "RUTA NACIONAL", "Operador": "0", "feature": "0", "Zona": "Urbano", "Potencia": 400, "Latitud": -32.9502208, "Longitud": -68.7246153, "ID": 25585, "Potencia2": "400", "ruta_id": 565, "nombre_ruta": "RN 7", "categoria": "Ruta Nacional", "distancia_m": 0.0051310431226242476 }, "geometry": { "type": "Point", "coordinates": [ -68.724615300000096, -32.950220800000267 ] } },
{ "type": "Feature", "properties": { "id": 25550, "Departamen": "Maipu", "Luminaria": "Sodio", "Ruta/calle": "RN 7", "Soporte": "Metalico", "Alimentaci": "Subterranea", "Estado": "Presente", "Ubicacion": null, "Observacio": "R7 (Acceso Este)", "Jurisdicci": "DNV", "Clasificac": "RUTA NACIONAL", "Operador": "0", "feature": "0", "Zona": "Urbano", "Potencia": 400, "Latitud": -32.9504377, "Longitud": -68.7247942, "ID": 25586, "Potencia2": "400", "ruta_id": 566, "nombre_ruta": "RN 7", "categoria": "Ruta Nacional", "distancia_m": 0.0082704400436262558 }, "geometry": { "type": "Point", "coordinates": [ -68.724794200000105, -32.950437700000258 ] } },
{ "type": "Feature", "properties": { "id": 25551, "Departamen": "Maipu", "Luminaria": "Sodio", "Ruta/calle": "RN 7", "Soporte": "Metalico", "Alimentaci": "Subterranea", "Estado": "Presente", "Ubicacion": null, "Observacio": "R7 (Acceso Este)", "Jurisdicci": "DNV", "Clasificac": "RUTA NACIONAL", "Operador": "0", "feature": "0", "Zona": "Urbano", "Potencia": 400, "Latitud": -32.9500417, "Longitud": -68.7248652, "ID": 25587, "Potencia2": "400", "ruta_id": 565, "nombre_ruta": "RN 7", "categoria": "Ruta Nacional", "distancia_m": 0.00358594462462308 }, "geometry": { "type": "Point", "coordinates": [ -68.724865200000096, -32.950041700000256 ] } },
{ "type": "Feature", "properties": { "id": 25552, "Departamen": "Maipu", "Luminaria": "Sodio", "Ruta/calle": "RN 7", "Soporte": "Metalico", "Alimentaci": "Subterranea", "Estado": "Presente", "Ubicacion": null, "Observacio": "R7 (Acceso Este)", "Jurisdicci": "DNV", "Clasificac": "RUTA NACIONAL", "Operador": "0", "feature": "0", "Zona": "Urbano", "Potencia": 400, "Latitud": -32.9502654, "Longitud": -68.7250339, "ID": 25588, "Potencia2": "400", "ruta_id": 566, "nombre_ruta": "RN 7", "categoria": "Ruta Nacional", "distancia_m": 0.0062960026383062232 }, "geometry": { "type": "Point", "coordinates": [ -68.725033900000099, -32.950265400000255 ] } },
{ "type": "Feature", "properties": { "id": 25553, "Departamen": "Maipu", "Luminaria": "Sodio", "Ruta/calle": "RN 7", "Soporte": "Metalico", "Alimentaci": "Subterranea", "Estado": "Presente", "Ubicacion": null, "Observacio": "R7 (Acceso Este)", "Jurisdicci": "DNV", "Clasificac": "RUTA NACIONAL", "Operador": "0", "feature": "0", "Zona": "Urbano", "Potencia": 400, "Latitud": -32.9498464, "Longitud": -68.7251375, "ID": 25589, "Potencia2": "400", "ruta_id": 565, "nombre_ruta": "RN 7", "categoria": "Ruta Nacional", "distancia_m": 0.014138881056405176 }, "geometry": { "type": "Point", "coordinates": [ -68.725137500000116, -32.949846400000261 ] } },
{ "type": "Feature", "properties": { "id": 25554, "Departamen": "Maipu", "Luminaria": "Sodio", "Ruta/calle": "RN 7", "Soporte": "Metalico", "Alimentaci": "Subterranea", "Estado": "Presente", "Ubicacion": null, "Observacio": "R7 (Acceso Este)", "Jurisdicci": "DNV", "Clasificac": "RUTA NACIONAL", "Operador": "0", "feature": "0", "Zona": "Urbano", "Potencia": 400, "Latitud": -32.9500657, "Longitud": -68.7253117, "ID": 25590, "Potencia2": "400", "ruta_id": 566, "nombre_ruta": "RN 7", "categoria": "Ruta Nacional", "distancia_m": 0.004996649601430066 }, "geometry": { "type": "Point", "coordinates": [ -68.725311700000105, -32.950065700000266 ] } },
{ "type": "Feature", "properties": { "id": 25555, "Departamen": "Maipu", "Luminaria": "Sodio", "Ruta/calle": "RN 7", "Soporte": "Metalico", "Alimentaci": "Subterranea", "Estado": "Presente", "Ubicacion": null, "Observacio": "R7 (Acceso Este)", "Jurisdicci": "DNV", "Clasificac": "RUTA NACIONAL", "Operador": "0", "feature": "0", "Zona": "Urbano", "Potencia": 400, "Latitud": -32.9496834, "Longitud": -68.7253657, "ID": 25591, "Potencia2": "400", "ruta_id": 565, "nombre_ruta": "RN 7", "categoria": "Ruta Nacional", "distancia_m": 0.0091829738369515919 }, "geometry": { "type": "Point", "coordinates": [ -68.725365700000111, -32.949683400000254 ] } },
{ "type": "Feature", "properties": { "id": 25556, "Departamen": "Maipu", "Luminaria": "Sodio", "Ruta/calle": "RN 7", "Soporte": "Metalico", "Alimentaci": "Subterranea", "Estado": "Presente", "Ubicacion": null, "Observacio": "R7 (Acceso Este)", "Jurisdicci": "DNV", "Clasificac": "RUTA NACIONAL", "Operador": "0", "feature": "0", "Zona": "Urbano", "Potencia": 400, "Latitud": -32.9498981, "Longitud": -68.7255448, "ID": 25592, "Potencia2": "400", "ruta_id": 566, "nombre_ruta": "RN 7", "categoria": "Ruta Nacional", "distancia_m": 0.0066047149828360697 }, "geometry": { "type": "Point", "coordinates": [ -68.725544800000094, -32.949898100000262 ] } },
{ "type": "Feature", "properties": { "id": 25557, "Departamen": "Maipu", "Luminaria": "Sodio", "Ruta/calle": "RN 7", "Soporte": "Metalico", "Alimentaci": "Subterranea", "Estado": "Presente", "Ubicacion": null, "Observacio": "R7 (Acceso Este)", "Jurisdicci": "DNV", "Clasificac": "RUTA NACIONAL", "Operador": "0", "feature": "0", "Zona": "Urbano", "Potencia": 400, "Latitud": -32.9495049, "Longitud": -68.7256167, "ID": 25593, "Potencia2": "400", "ruta_id": 565, "nombre_ruta": "RN 7", "categoria": "Ruta Nacional", "distancia_m": 0.0075467963025248287 }, "geometry": { "type": "Point", "coordinates": [ -68.725616700000103, -32.949504900000271 ] } },
{ "type": "Feature", "properties": { "id": 25558, "Departamen": "Maipu", "Luminaria": "Sodio", "Ruta/calle": "RN 7", "Soporte": "Metalico", "Alimentaci": "Subterranea", "Estado": "Presente", "Ubicacion": null, "Observacio": "R7 (Acceso Este)", "Jurisdicci": "DNV", "Clasificac": "RUTA NACIONAL", "Operador": "0", "feature": "0", "Zona": "Urbano", "Potencia": 400, "Latitud": -32.9497258, "Longitud": -68.7257845, "ID": 25594, "Potencia2": "400", "ruta_id": 566, "nombre_ruta": "RN 7", "categoria": "Ruta Nacional", "distancia_m": 0.0043296757066779972 }, "geometry": { "type": "Point", "coordinates": [ -68.725784500000117, -32.949725800000259 ] } },
{ "type": "Feature", "properties": { "id": 25559, "Departamen": "Maipu", "Luminaria": "Sodio", "Ruta/calle": "RN 7", "Soporte": "Metalico", "Alimentaci": "Subterranea", "Estado": "Presente", "Ubicacion": null, "Observacio": "R7 (Acceso Este)", "Jurisdicci": "DNV", "Clasificac": "RUTA NACIONAL", "Operador": "0", "feature": "0", "Zona": "Urbano", "Potencia": 400, "Latitud": -32.9493396, "Longitud": -68.7258491, "ID": 25595, "Potencia2": "400", "ruta_id": 565, "nombre_ruta": "RN 7", "categoria": "Ruta Nacional", "distancia_m": 0.0082691499354564588 }, "geometry": { "type": "Point", "coordinates": [ -68.725849100000119, -32.949339600000251 ] } },
{ "type": "Feature", "properties": { "id": 25560, "Departamen": "Maipu", "Luminaria": "Sodio", "Ruta/calle": "RN 7", "Soporte": "Metalico", "Alimentaci": "Subterranea", "Estado": "Presente", "Ubicacion": null, "Observacio": "R7 (Acceso Este)", "Jurisdicci": "DNV", "Clasificac": "RUTA NACIONAL", "Operador": "0", "feature": "0", "Zona": "Urbano", "Potencia": 400, "Latitud": -32.9495453, "Longitud": -68.7260344, "ID": 25596, "Potencia2": "400", "ruta_id": 564, "nombre_ruta": "RN 7", "categoria": "Ruta Nacional", "distancia_m": 0.0089335663333205487 }, "geometry": { "type": "Point", "coordinates": [ -68.726034400000117, -32.949545300000253 ] } },
{ "type": "Feature", "properties": { "id": 25561, "Departamen": "Maipu", "Luminaria": "Sodio", "Ruta/calle": "RN 7", "Soporte": "Metalico", "Alimentaci": "Subterranea", "Estado": "Presente", "Ubicacion": null, "Observacio": "R7 (Acceso Este)", "Jurisdicci": "DNV", "Clasificac": "RUTA NACIONAL", "Operador": "0", "feature": "0", "Zona": "Urbano", "Potencia": 400, "Latitud": -32.9491637, "Longitud": -68.7260965, "ID": 25597, "Potencia2": "400", "ruta_id": 565, "nombre_ruta": "RN 7", "categoria": "Ruta Nacional", "distancia_m": 0.0030816843684113595 }, "geometry": { "type": "Point", "coordinates": [ -68.726096500000097, -32.949163700000284 ] } },
{ "type": "Feature", "properties": { "id": 25562, "Departamen": "Maipu", "Luminaria": "Sodio", "Ruta/calle": "RN 7", "Soporte": "Metalico", "Alimentaci": "Subterranea", "Estado": "Presente", "Ubicacion": null, "Observacio": "R7 (Acceso Este)", "Jurisdicci": "DNV", "Clasificac": "RUTA NACIONAL", "Operador": "0", "feature": "0", "Zona": "Urbano", "Potencia": 400, "Latitud": -32.9493808, "Longitud": -68.7262595, "ID": 25598, "Potencia2": "400", "ruta_id": 564, "nombre_ruta": "RN 7", "categoria": "Ruta Nacional", "distancia_m": 0.0058519988695137099 }, "geometry": { "type": "Point", "coordinates": [ -68.726259500000097, -32.949380800000256 ] } },
{ "type": "Feature", "properties": { "id": 25563, "Departamen": "Maipu", "Luminaria": "Sodio", "Ruta/calle": "RN 7", "Soporte": "Metalico", "Alimentaci": "Subterranea", "Estado": "Presente", "Ubicacion": null, "Observacio": "R7 (Acceso Este)", "Jurisdicci": "DNV", "Clasificac": "RUTA NACIONAL", "Operador": "0", "feature": "0", "Zona": "Urbano", "Potencia": 400, "Latitud": -32.9489882, "Longitud": -68.7263431, "ID": 25599, "Potencia2": "400", "ruta_id": 565, "nombre_ruta": "RN 7", "categoria": "Ruta Nacional", "distancia_m": 0.012118989991964282 }, "geometry": { "type": "Point", "coordinates": [ -68.726343100000094, -32.948988200000258 ] } },
{ "type": "Feature", "properties": { "id": 25564, "Departamen": "Maipu", "Luminaria": "Sodio", "Ruta/calle": "RN 7", "Soporte": "Metalico", "Alimentaci": "Subterranea", "Estado": "Presente", "Ubicacion": null, "Observacio": "R7 (Acceso Este)", "Jurisdicci": "DNV", "Clasificac": "RUTA NACIONAL", "Operador": "0", "feature": "0", "Zona": "Urbano", "Potencia": 400, "Latitud": -32.9492025, "Longitud": -68.7265034, "ID": 25600, "Potencia2": "400", "ruta_id": 564, "nombre_ruta": "RN 7", "categoria": "Ruta Nacional", "distancia_m": 0.0075461310489869015 }, "geometry": { "type": "Point", "coordinates": [ -68.726503400000112, -32.949202500000268 ] } },
{ "type": "Feature", "properties": { "id": 25565, "Departamen": "Maipu", "Luminaria": "Sodio", "Ruta/calle": "RN 7", "Soporte": "Metalico", "Alimentaci": "Subterranea", "Estado": "Presente", "Ubicacion": null, "Observacio": "R7 (Acceso Este)", "Jurisdicci": "DNV", "Clasificac": "RUTA NACIONAL", "Operador": "0", "feature": "0", "Zona": "Urbano", "Potencia": 400, "Latitud": -32.9488173, "Longitud": -68.7265835, "ID": 25601, "Potencia2": "400", "ruta_id": 565, "nombre_ruta": "RN 7", "categoria": "Ruta Nacional", "distancia_m": 0.004929834085540658 }, "geometry": { "type": "Point", "coordinates": [ -68.726583500000118, -32.948817300000272 ] } },
{ "type": "Feature", "properties": { "id": 25566, "Departamen": "Maipu", "Luminaria": "Sodio", "Ruta/calle": "RN 7", "Soporte": "Metalico", "Alimentaci": "Subterranea", "Estado": "Presente", "Ubicacion": null, "Observacio": "R7 (Acceso Este)", "Jurisdicci": "DNV", "Clasificac": "RUTA NACIONAL", "Operador": "0", "feature": "0", "Zona": "Urbano", "Potencia": 400, "Latitud": -32.949019, "Longitud": -68.7267544, "ID": 25602, "Potencia2": "400", "ruta_id": 564, "nombre_ruta": "RN 7", "categoria": "Ruta Nacional", "distancia_m": 0.009991854927990965 }, "geometry": { "type": "Point", "coordinates": [ -68.726754400000104, -32.949019000000263 ] } },
{ "type": "Feature", "properties": { "id": 25567, "Departamen": "Maipu", "Luminaria": "Sodio", "Ruta/calle": "RN 7", "Soporte": "Metalico", "Alimentaci": "Subterranea", "Estado": "Presente", "Ubicacion": null, "Observacio": "R7 (Acceso Este)", "Jurisdicci": "DNV", "Clasificac": "RUTA NACIONAL", "Operador": "0", "feature": "0", "Zona": "Urbano", "Potencia": 400, "Latitud": -32.9486373, "Longitud": -68.7268365, "ID": 25603, "Potencia2": "400", "ruta_id": 565, "nombre_ruta": "RN 7", "categoria": "Ruta Nacional", "distancia_m": 0.0093554172575521406 }, "geometry": { "type": "Point", "coordinates": [ -68.726836500000118, -32.948637300000257 ] } },
{ "type": "Feature", "properties": { "id": 25568, "Departamen": "Maipu", "Luminaria": "Sodio", "Ruta/calle": "RN 7", "Soporte": "Metalico", "Alimentaci": "Subterranea", "Estado": "Presente", "Ubicacion": null, "Observacio": "R7 (Acceso Este)", "Jurisdicci": "DNV", "Clasificac": "RUTA NACIONAL", "Operador": "0", "feature": "0", "Zona": "Urbano", "Potencia": 400, "Latitud": -32.9488349, "Longitud": -68.7270069, "ID": 25604, "Potencia2": "400", "ruta_id": 564, "nombre_ruta": "RN 7", "categoria": "Ruta Nacional", "distancia_m": 0.0025638027722848619 }, "geometry": { "type": "Point", "coordinates": [ -68.72700690000012, -32.948834900000257 ] } },
{ "type": "Feature", "properties": { "id": 25569, "Departamen": "Maipu", "Luminaria": "Sodio", "Ruta/calle": "RN 7", "Soporte": "Metalico", "Alimentaci": "Subterranea", "Estado": "Presente", "Ubicacion": null, "Observacio": "R7 (Acceso Este)", "Jurisdicci": "DNV", "Clasificac": "RUTA NACIONAL", "Operador": "0", "feature": "0", "Zona": "Urbano", "Potencia": 400, "Latitud": -32.9484765, "Longitud": -68.7270626, "ID": 25605, "Potencia2": "400", "ruta_id": 565, "nombre_ruta": "RN 7", "categoria": "Ruta Nacional", "distancia_m": 0.0079937530613168918 }, "geometry": { "type": "Point", "coordinates": [ -68.727062600000096, -32.948476500000261 ] } },
{ "type": "Feature", "properties": { "id": 25570, "Departamen": "Maipu", "Luminaria": "Sodio", "Ruta/calle": "RN 7", "Soporte": "Metalico", "Alimentaci": "Subterranea", "Estado": "Presente", "Ubicacion": null, "Observacio": "R7 (Acceso Este)", "Jurisdicci": "DNV", "Clasificac": "RUTA NACIONAL", "Operador": "0", "feature": "0", "Zona": "Urbano", "Potencia": 400, "Latitud": -32.948684, "Longitud": -68.7272177, "ID": 25606, "Potencia2": "400", "ruta_id": 564, "nombre_ruta": "RN 7", "categoria": "Ruta Nacional", "distancia_m": 0.0085715074920622667 }, "geometry": { "type": "Point", "coordinates": [ -68.727217700000097, -32.948684000000256 ] } },
{ "type": "Feature", "properties": { "id": 25571, "Departamen": "Maipu", "Luminaria": "Sodio", "Ruta/calle": "RN 7", "Soporte": "Metalico", "Alimentaci": "Subterranea", "Estado": "Presente", "Ubicacion": null, "Observacio": "R7 (Acceso Este)", "Jurisdicci": "DNV", "Clasificac": "RUTA NACIONAL", "Operador": "0", "feature": "0", "Zona": "Urbano", "Potencia": 400, "Latitud": -32.9482667, "Longitud": -68.7273575, "ID": 25607, "Potencia2": "400", "ruta_id": 565, "nombre_ruta": "RN 7", "categoria": "Ruta Nacional", "distancia_m": 0.012036727139163286 }, "geometry": { "type": "Point", "coordinates": [ -68.727357500000096, -32.948266700000261 ] } },
{ "type": "Feature", "properties": { "id": 25572, "Departamen": "Maipu", "Luminaria": "Sodio", "Ruta/calle": "RN 7", "Soporte": "Metalico", "Alimentaci": "Subterranea", "Estado": "Presente", "Ubicacion": null, "Observacio": "R7 (Acceso Este)", "Jurisdicci": "DNV", "Clasificac": "RUTA NACIONAL", "Operador": "0", "feature": "0", "Zona": "Urbano", "Potencia": 400, "Latitud": -32.9484738, "Longitud": -68.7275114, "ID": 25608, "Potencia2": "400", "ruta_id": 564, "nombre_ruta": "RN 7", "categoria": "Ruta Nacional", "distancia_m": 0.013140037350412187 }, "geometry": { "type": "Point", "coordinates": [ -68.727511400000111, -32.948473800000258 ] } },
{ "type": "Feature", "properties": { "id": 25573, "Departamen": "Maipu", "Luminaria": "Sodio", "Ruta/calle": "RN 7", "Soporte": "Metalico", "Alimentaci": "Subterranea", "Estado": "Presente", "Ubicacion": null, "Observacio": "R7 (Acceso Este)", "Jurisdicci": "DNV", "Clasificac": "RUTA NACIONAL", "Operador": "0", "feature": "0", "Zona": "Urbano", "Potencia": 400, "Latitud": -32.9480291, "Longitud": -68.7276916, "ID": 25609, "Potencia2": "400", "ruta_id": 565, "nombre_ruta": "RN 7", "categoria": "Ruta Nacional", "distancia_m": 0.008986461794915206 }, "geometry": { "type": "Point", "coordinates": [ -68.727691600000114, -32.948029100000262 ] } },
{ "type": "Feature", "properties": { "id": 25574, "Departamen": "Maipu", "Luminaria": "Sodio", "Ruta/calle": "RN 7", "Soporte": "Metalico", "Alimentaci": "Subterranea", "Estado": "Presente", "Ubicacion": null, "Observacio": "R7 (Acceso Este)", "Jurisdicci": "DNV", "Clasificac": "RUTA NACIONAL", "Operador": "0", "feature": "0", "Zona": "Urbano", "Potencia": 400, "Latitud": -32.9482287, "Longitud": -68.7278539, "ID": 25610, "Potencia2": "400", "ruta_id": 564, "nombre_ruta": "RN 7", "categoria": "Ruta Nacional", "distancia_m": 0.01608950812659074 }, "geometry": { "type": "Point", "coordinates": [ -68.727853900000099, -32.948228700000257 ] } },
{ "type": "Feature", "properties": { "id": 25575, "Departamen": "Maipu", "Luminaria": "Sodio", "Ruta/calle": "RN 7", "Soporte": "Metalico", "Alimentaci": "Subterranea", "Estado": "Presente", "Ubicacion": null, "Observacio": "R7 (Acceso Este)", "Jurisdicci": "DNV", "Clasificac": "RUTA NACIONAL", "Operador": "0", "feature": "0", "Zona": "Urbano", "Potencia": 400, "Latitud": -32.947851, "Longitud": -68.727942, "ID": 25611, "Potencia2": "400", "ruta_id": 565, "nombre_ruta": "RN 7", "categoria": "Ruta Nacional", "distancia_m": 0.0086520435000910431 }, "geometry": { "type": "Point", "coordinates": [ -68.727942000000112, -32.947851000000256 ] } },
{ "type": "Feature", "properties": { "id": 25576, "Departamen": "Maipu", "Luminaria": "Sodio", "Ruta/calle": "RN 7", "Soporte": "Metalico", "Alimentaci": "Subterranea", "Estado": "Presente", "Ubicacion": null, "Observacio": "R7 (Acceso Este)", "Jurisdicci": "DNV", "Clasificac": "RUTA NACIONAL", "Operador": "0", "feature": "0", "Zona": "Urbano", "Potencia": 400, "Latitud": -32.9480389, "Longitud": -68.7281192, "ID": 25612, "Potencia2": "400", "ruta_id": 564, "nombre_ruta": "RN 7", "categoria": "Ruta Nacional", "distancia_m": 0.013665101871047965 }, "geometry": { "type": "Point", "coordinates": [ -68.728119200000108, -32.948038900000263 ] } },
{ "type": "Feature", "properties": { "id": 25577, "Departamen": "Maipu", "Luminaria": "Sodio", "Ruta/calle": "RN 7", "Soporte": "Metalico", "Alimentaci": "Subterranea", "Estado": "Presente", "Ubicacion": null, "Observacio": "R7 (Acceso Este)", "Jurisdicci": "DNV", "Clasificac": "RUTA NACIONAL", "Operador": "0", "feature": "0", "Zona": "Urbano", "Potencia": 400, "Latitud": -32.9476576, "Longitud": -68.7282139, "ID": 25613, "Potencia2": "400", "ruta_id": 565, "nombre_ruta": "RN 7", "categoria": "Ruta Nacional", "distancia_m": 0.008838163916747268 }, "geometry": { "type": "Point", "coordinates": [ -68.7282139000001, -32.947657600000269 ] } },
{ "type": "Feature", "properties": { "id": 25578, "Departamen": "Maipu", "Luminaria": "Sodio", "Ruta/calle": "RN 7", "Soporte": "Metalico", "Alimentaci": "Subterranea", "Estado": "Presente", "Ubicacion": null, "Observacio": "R7 (Acceso Este)", "Jurisdicci": "DNV", "Clasificac": "RUTA NACIONAL", "Operador": "0", "feature": "0", "Zona": "Urbano", "Potencia": 400, "Latitud": -32.9478521, "Longitud": -68.7283802, "ID": 25614, "Potencia2": "400", "ruta_id": 564, "nombre_ruta": "RN 7", "categoria": "Ruta Nacional", "distancia_m": 0.017616762363096648 }, "geometry": { "type": "Point", "coordinates": [ -68.728380200000103, -32.947852100000262 ] } },
{ "type": "Feature", "properties": { "id": 25579, "Departamen": "Maipu", "Luminaria": "Sodio", "Ruta/calle": "RN 7", "Soporte": "Metalico", "Alimentaci": "Subterranea", "Estado": "Presente", "Ubicacion": null, "Observacio": "R7 (Acceso Este)", "Jurisdicci": "DNV", "Clasificac": "RUTA NACIONAL", "Operador": "0", "feature": "0", "Zona": "Urbano", "Potencia": 400, "Latitud": -32.9474153, "Longitud": -68.7285501, "ID": 25615, "Potencia2": "400", "ruta_id": 565, "nombre_ruta": "RN 7", "categoria": "Ruta Nacional", "distancia_m": 0.0068306389721354529 }, "geometry": { "type": "Point", "coordinates": [ -68.728550100000106, -32.947415300000273 ] } },
{ "type": "Feature", "properties": { "id": 25580, "Departamen": "Maipu", "Luminaria": "Sodio", "Ruta/calle": "RN 7", "Soporte": "Metalico", "Alimentaci": "Subterranea", "Estado": "Presente", "Ubicacion": null, "Observacio": "R7 (Acceso Este)", "Jurisdicci": "DNV", "Clasificac": "RUTA NACIONAL", "Operador": "0", "feature": "0", "Zona": "Urbano", "Potencia": 400, "Latitud": -32.9476231, "Longitud": -68.7287003, "ID": 25616, "Potencia2": "400", "ruta_id": 564, "nombre_ruta": "RN 7", "categoria": "Ruta Nacional", "distancia_m": 0.01398857444721479 }, "geometry": { "type": "Point", "coordinates": [ -68.728700300000114, -32.947623100000257 ] } },
{ "type": "Feature", "properties": { "id": 25581, "Departamen": "Maipu", "Luminaria": "Sodio", "Ruta/calle": "RN 7", "Soporte": "Metalico", "Alimentaci": "Subterranea", "Estado": "Presente", "Ubicacion": null, "Observacio": "R7 (Acceso Este)", "Jurisdicci": "DNV", "Clasificac": "RUTA NACIONAL", "Operador": "0", "feature": "0", "Zona": "Urbano", "Potencia": 400, "Latitud": -32.9472209, "Longitud": -68.7288188, "ID": 25617, "Potencia2": "400", "ruta_id": 565, "nombre_ruta": "RN 7", "categoria": "Ruta Nacional", "distancia_m": 0.0045373630522249292 }, "geometry": { "type": "Point", "coordinates": [ -68.728818800000099, -32.947220900000261 ] } },
{ "type": "Feature", "properties": { "id": 25582, "Departamen": "Maipu", "Luminaria": "Sodio", "Ruta/calle": "RN 7", "Soporte": "Metalico", "Alimentaci": "Subterranea", "Estado": "Presente", "Ubicacion": null, "Observacio": "R7 (Acceso Este)", "Jurisdicci": "DNV", "Clasificac": "RUTA NACIONAL", "Operador": "0", "feature": "0", "Zona": "Urbano", "Potencia": 400, "Latitud": -32.9474142, "Longitud": -68.7289922, "ID": 25618, "Potencia2": "400", "ruta_id": 564, "nombre_ruta": "RN 7", "categoria": "Ruta Nacional", "distancia_m": 0.016815790419645892 }, "geometry": { "type": "Point", "coordinates": [ -68.728992200000107, -32.947414200000267 ] } },
{ "type": "Feature", "properties": { "id": 25583, "Departamen": "Maipu", "Luminaria": "Sodio", "Ruta/calle": "RN 7", "Soporte": "Metalico", "Alimentaci": "Subterranea", "Estado": "Presente", "Ubicacion": null, "Observacio": "R7 (Acceso Este)", "Jurisdicci": "DNV", "Clasificac": "RUTA NACIONAL", "Operador": "0", "feature": "0", "Zona": "Urbano", "Potencia": 400, "Latitud": -32.9470444, "Longitud": -68.7290626, "ID": 25619, "Potencia2": "400", "ruta_id": 565, "nombre_ruta": "RN 7", "categoria": "Ruta Nacional", "distancia_m": 0.012008164211108315 }, "geometry": { "type": "Point", "coordinates": [ -68.729062600000105, -32.947044400000252 ] } },
{ "type": "Feature", "properties": { "id": 25584, "Departamen": "Maipu", "Luminaria": "Sodio", "Ruta/calle": "RN 7", "Soporte": "Metalico", "Alimentaci": "Subterranea", "Estado": "Presente", "Ubicacion": null, "Observacio": "R7 (Acceso Este)", "Jurisdicci": "DNV", "Clasificac": "RUTA NACIONAL", "Operador": "0", "feature": "0", "Zona": "Urbano", "Potencia": 400, "Latitud": -32.947248, "Longitud": -68.7292245, "ID": 25620, "Potencia2": "400", "ruta_id": 564, "nombre_ruta": "RN 7", "categoria": "Ruta Nacional", "distancia_m": 0.014998625430019816 }, "geometry": { "type": "Point", "coordinates": [ -68.7292245000001, -32.947248000000265 ] } },
{ "type": "Feature", "properties": { "id": 25585, "Departamen": "Maipu", "Luminaria": "Sodio", "Ruta/calle": "RN 7", "Soporte": "Metalico", "Alimentaci": "Subterranea", "Estado": "Presente", "Ubicacion": null, "Observacio": "R7 (Acceso Este)", "Jurisdicci": "DNV", "Clasificac": "RUTA NACIONAL", "Operador": "0", "feature": "0", "Zona": "Urbano", "Potencia": 400, "Latitud": -32.9468711, "Longitud": -68.729302, "ID": 25621, "Potencia2": "400", "ruta_id": 565, "nombre_ruta": "RN 7", "categoria": "Ruta Nacional", "distancia_m": 0.018018064063439001 }, "geometry": { "type": "Point", "coordinates": [ -68.729302000000104, -32.946871100000259 ] } },
{ "type": "Feature", "properties": { "id": 25586, "Departamen": "Maipu", "Luminaria": "Sodio", "Ruta/calle": "RN 7", "Soporte": "Metalico", "Alimentaci": "Subterranea", "Estado": "Presente", "Ubicacion": null, "Observacio": "R7 (Acceso Este)", "Jurisdicci": "DNV", "Clasificac": "RUTA NACIONAL", "Operador": "0", "feature": "0", "Zona": "Urbano", "Potencia": 400, "Latitud": -32.9470722, "Longitud": -68.7294701, "ID": 25622, "Potencia2": "400", "ruta_id": 564, "nombre_ruta": "RN 7", "categoria": "Ruta Nacional", "distancia_m": 0.020121510527719117 }, "geometry": { "type": "Point", "coordinates": [ -68.7294701000001, -32.94707220000025 ] } },
{ "type": "Feature", "properties": { "id": 25587, "Departamen": "Maipu", "Luminaria": "Sodio", "Ruta/calle": "RN 7", "Soporte": "Metalico", "Alimentaci": "Subterranea", "Estado": "Presente", "Ubicacion": null, "Observacio": "R7 (Acceso Este)", "Jurisdicci": "DNV", "Clasificac": "RUTA NACIONAL", "Operador": "0", "feature": "0", "Zona": "Urbano", "Potencia": 400, "Latitud": -32.9466871, "Longitud": -68.7295564, "ID": 25623, "Potencia2": "400", "ruta_id": 565, "nombre_ruta": "RN 7", "categoria": "Ruta Nacional", "distancia_m": 0.010968306818728778 }, "geometry": { "type": "Point", "coordinates": [ -68.729556400000121, -32.946687100000261 ] } },
{ "type": "Feature", "properties": { "id": 25588, "Departamen": "Maipu", "Luminaria": "Sodio", "Ruta/calle": "RN 7", "Soporte": "Metalico", "Alimentaci": "Subterranea", "Estado": "Presente", "Ubicacion": null, "Observacio": "R7 (Acceso Este)", "Jurisdicci": "DNV", "Clasificac": "RUTA NACIONAL", "Operador": "0", "feature": "0", "Zona": "Urbano", "Potencia": 400, "Latitud": -32.946898, "Longitud": -68.7297135, "ID": 25624, "Potencia2": "400", "ruta_id": 564, "nombre_ruta": "RN 7", "categoria": "Ruta Nacional", "distancia_m": 0.022964810845185962 }, "geometry": { "type": "Point", "coordinates": [ -68.729713500000102, -32.94689800000026 ] } },
{ "type": "Feature", "properties": { "id": 25589, "Departamen": "Maipu", "Luminaria": "Sodio", "Ruta/calle": "RN 7", "Soporte": "Metalico", "Alimentaci": "Subterranea", "Estado": "Presente", "Ubicacion": null, "Observacio": "R7 (Acceso Este)", "Jurisdicci": "DNV", "Clasificac": "RUTA NACIONAL", "Operador": "0", "feature": "0", "Zona": "Urbano", "Potencia": 400, "Latitud": -32.9465129, "Longitud": -68.7297971, "ID": 25625, "Potencia2": "400", "ruta_id": 565, "nombre_ruta": "RN 7", "categoria": "Ruta Nacional", "distancia_m": 0.013355276941016113 }, "geometry": { "type": "Point", "coordinates": [ -68.729797100000098, -32.946512900000258 ] } },
{ "type": "Feature", "properties": { "id": 25590, "Departamen": "Maipu", "Luminaria": "Sodio", "Ruta/calle": "RN 7", "Soporte": "Metalico", "Alimentaci": "Subterranea", "Estado": "Presente", "Ubicacion": null, "Observacio": "R7 (Acceso Este)", "Jurisdicci": "DNV", "Clasificac": "RUTA NACIONAL", "Operador": "0", "feature": "0", "Zona": "Urbano", "Potencia": 400, "Latitud": -32.946718, "Longitud": -68.7299651, "ID": 25626, "Potencia2": "400", "ruta_id": 564, "nombre_ruta": "RN 7", "categoria": "Ruta Nacional", "distancia_m": 0.019991652402058489 }, "geometry": { "type": "Point", "coordinates": [ -68.729965100000115, -32.946718000000246 ] } },
{ "type": "Feature", "properties": { "id": 25591, "Departamen": "Maipu", "Luminaria": "Sodio", "Ruta/calle": "RN 7", "Soporte": "Metalico", "Alimentaci": "Subterranea", "Estado": "Presente", "Ubicacion": null, "Observacio": "R7 (Acceso Este)", "Jurisdicci": "DNV", "Clasificac": "RUTA NACIONAL", "Operador": "0", "feature": "0", "Zona": "Urbano", "Potencia": 400, "Latitud": -32.9463348, "Longitud": -68.7300433, "ID": 25627, "Potencia2": "400", "ruta_id": 565, "nombre_ruta": "RN 7", "categoria": "Ruta Nacional", "distancia_m": 0.008923447818842814 }, "geometry": { "type": "Point", "coordinates": [ -68.730043300000119, -32.946334800000265 ] } },
{ "type": "Feature", "properties": { "id": 25592, "Departamen": "Maipu", "Luminaria": "Sodio", "Ruta/calle": "RN 7", "Soporte": "Metalico", "Alimentaci": "Subterranea", "Estado": "Presente", "Ubicacion": null, "Observacio": "R7 (Acceso Este)", "Jurisdicci": "DNV", "Clasificac": "RUTA NACIONAL", "Operador": "0", "feature": "0", "Zona": "Urbano", "Potencia": 400, "Latitud": -32.9465405, "Longitud": -68.7302132, "ID": 25628, "Potencia2": "400", "ruta_id": 564, "nombre_ruta": "RN 7", "categoria": "Ruta Nacional", "distancia_m": 0.017292761609852238 }, "geometry": { "type": "Point", "coordinates": [ -68.730213200000108, -32.946540500000246 ] } },
{ "type": "Feature", "properties": { "id": 25593, "Departamen": "Maipu", "Luminaria": "Sodio", "Ruta/calle": "RN 7", "Soporte": "Metalico", "Alimentaci": "Subterranea", "Estado": "Presente", "Ubicacion": null, "Observacio": "R7 (Acceso Este)", "Jurisdicci": "DNV", "Clasificac": "RUTA NACIONAL", "Operador": "0", "feature": "0", "Zona": "Urbano", "Potencia": 400, "Latitud": -32.9461575, "Longitud": -68.7302882, "ID": 25629, "Potencia2": "400", "ruta_id": 565, "nombre_ruta": "RN 7", "categoria": "Ruta Nacional", "distancia_m": 0.016231379864048889 }, "geometry": { "type": "Point", "coordinates": [ -68.730288200000103, -32.946157500000254 ] } },
{ "type": "Feature", "properties": { "id": 25594, "Departamen": "Maipu", "Luminaria": "Sodio", "Ruta/calle": "RN 7", "Soporte": "Metalico", "Alimentaci": "Subterranea", "Estado": "Presente", "Ubicacion": null, "Observacio": "R7 (Acceso Este)", "Jurisdicci": "DNV", "Clasificac": "RUTA NACIONAL", "Operador": "0", "feature": "0", "Zona": "Urbano", "Potencia": 400, "Latitud": -32.9463708, "Longitud": -68.7304502, "ID": 25630, "Potencia2": "400", "ruta_id": 564, "nombre_ruta": "RN 7", "categoria": "Ruta Nacional", "distancia_m": 0.026571514896096028 }, "geometry": { "type": "Point", "coordinates": [ -68.730450200000121, -32.94637080000026 ] } },
{ "type": "Feature", "properties": { "id": 25595, "Departamen": "Maipu", "Luminaria": "Sodio", "Ruta/calle": "RN 7", "Soporte": "Metalico", "Alimentaci": "Subterranea", "Estado": "Presente", "Ubicacion": null, "Observacio": "R7 (Acceso Este)", "Jurisdicci": "DNV", "Clasificac": "RUTA NACIONAL", "Operador": "0", "feature": "0", "Zona": "Urbano", "Potencia": 400, "Latitud": -32.9459896, "Longitud": -68.7305202, "ID": 25631, "Potencia2": "400", "ruta_id": 565, "nombre_ruta": "RN 7", "categoria": "Ruta Nacional", "distancia_m": 0.01794449502232778 }, "geometry": { "type": "Point", "coordinates": [ -68.730520200000115, -32.945989600000274 ] } },
{ "type": "Feature", "properties": { "id": 25596, "Departamen": "Maipu", "Luminaria": "Sodio", "Ruta/calle": "RN 7", "Soporte": "Metalico", "Alimentaci": "Subterranea", "Estado": "Presente", "Ubicacion": null, "Observacio": "R7 (Acceso Este)", "Jurisdicci": "DNV", "Clasificac": "RUTA NACIONAL", "Operador": "0", "feature": "0", "Zona": "Urbano", "Potencia": 400, "Latitud": -32.9461918, "Longitud": -68.7307004, "ID": 25632, "Potencia2": "400", "ruta_id": 564, "nombre_ruta": "RN 7", "categoria": "Ruta Nacional", "distancia_m": 0.023442812052622636 }, "geometry": { "type": "Point", "coordinates": [ -68.730700400000131, -32.946191800000257 ] } },
{ "type": "Feature", "properties": { "id": 25597, "Departamen": "Maipu", "Luminaria": "Sodio", "Ruta/calle": "RN 7", "Soporte": "Metalico", "Alimentaci": "Subterranea", "Estado": "Presente", "Ubicacion": null, "Observacio": "R7 (Acceso Este)", "Jurisdicci": "DNV", "Clasificac": "RUTA NACIONAL", "Operador": "0", "feature": "0", "Zona": "Urbano", "Potencia": 400, "Latitud": -32.9458057, "Longitud": -68.7307743, "ID": 25633, "Potencia2": "400", "ruta_id": 565, "nombre_ruta": "RN 7", "categoria": "Ruta Nacional", "distancia_m": 0.020228590138607765 }, "geometry": { "type": "Point", "coordinates": [ -68.730774300000107, -32.945805700000264 ] } },
{ "type": "Feature", "properties": { "id": 25598, "Departamen": "Maipu", "Luminaria": "Sodio", "Ruta/calle": "RN 7", "Soporte": "Metalico", "Alimentaci": "Subterranea", "Estado": "Presente", "Ubicacion": null, "Observacio": "R7 (Acceso Este)", "Jurisdicci": "DNV", "Clasificac": "RUTA NACIONAL", "Operador": "0", "feature": "0", "Zona": "Urbano", "Potencia": 400, "Latitud": -32.946014, "Longitud": -68.7309489, "ID": 25634, "Potencia2": "400", "ruta_id": 564, "nombre_ruta": "RN 7", "categoria": "Ruta Nacional", "distancia_m": 0.021604348579719015 }, "geometry": { "type": "Point", "coordinates": [ -68.730948900000101, -32.946014000000254 ] } },
{ "type": "Feature", "properties": { "id": 25599, "Departamen": "Maipu", "Luminaria": "Sodio", "Ruta/calle": "RN 7", "Soporte": "Metalico", "Alimentaci": "Subterranea", "Estado": "Presente", "Ubicacion": null, "Observacio": "R7 (Acceso Este)", "Jurisdicci": "DNV", "Clasificac": "RUTA NACIONAL", "Operador": "0", "feature": "0", "Zona": "Urbano", "Potencia": 400, "Latitud": -32.945627, "Longitud": -68.7310213, "ID": 25635, "Potencia2": "400", "ruta_id": 565, "nombre_ruta": "RN 7", "categoria": "Ruta Nacional", "distancia_m": 0.017168180263361713 }, "geometry": { "type": "Point", "coordinates": [ -68.731021300000108, -32.945627000000258 ] } },
{ "type": "Feature", "properties": { "id": 25600, "Departamen": "Maipu", "Luminaria": "Sodio", "Ruta/calle": "RN 7", "Soporte": "Metalico", "Alimentaci": "Subterranea", "Estado": "Presente", "Ubicacion": null, "Observacio": "R7 (Acceso Este)", "Jurisdicci": "DNV", "Clasificac": "RUTA NACIONAL", "Operador": "0", "feature": "0", "Zona": "Urbano", "Potencia": 400, "Latitud": -32.9458464, "Longitud": -68.7311831, "ID": 25636, "Potencia2": "400", "ruta_id": 564, "nombre_ruta": "RN 7", "categoria": "Ruta Nacional", "distancia_m": 0.022445311657240202 }, "geometry": { "type": "Point", "coordinates": [ -68.731183100000095, -32.945846400000271 ] } },
{ "type": "Feature", "properties": { "id": 25601, "Departamen": "Maipu", "Luminaria": "Sodio", "Ruta/calle": "RN 7", "Soporte": "Metalico", "Alimentaci": "Subterranea", "Estado": "Presente", "Ubicacion": null, "Observacio": "R7 (Acceso Este)", "Jurisdicci": "DNV", "Clasificac": "RUTA NACIONAL", "Operador": "0", "feature": "0", "Zona": "Urbano", "Potencia": 400, "Latitud": -32.9454629, "Longitud": -68.7312481, "ID": 25637, "Potencia2": "400", "ruta_id": 565, "nombre_ruta": "RN 7", "categoria": "Ruta Nacional", "distancia_m": 0.015474031315089905 }, "geometry": { "type": "Point", "coordinates": [ -68.731248100000116, -32.945462900000251 ] } },
{ "type": "Feature", "properties": { "id": 25602, "Departamen": "Maipu", "Luminaria": "Sodio", "Ruta/calle": "RN 7", "Soporte": "Metalico", "Alimentaci": "Subterranea", "Estado": "Presente", "Ubicacion": null, "Observacio": "R7 (Acceso Este)", "Jurisdicci": "DNV", "Clasificac": "RUTA NACIONAL", "Operador": "0", "feature": "0", "Zona": "Urbano", "Potencia": 400, "Latitud": -32.9456664, "Longitud": -68.7314347, "ID": 25638, "Potencia2": "400", "ruta_id": 564, "nombre_ruta": "RN 7", "categoria": "Ruta Nacional", "distancia_m": 0.018856708925905515 }, "geometry": { "type": "Point", "coordinates": [ -68.731434700000094, -32.945666400000256 ] } },
{ "type": "Feature", "properties": { "id": 25603, "Departamen": "Maipu", "Luminaria": "Sodio", "Ruta/calle": "RN 7", "Soporte": "Metalico", "Alimentaci": "Subterranea", "Estado": "Presente", "Ubicacion": null, "Observacio": "R7 (Acceso Este)", "Jurisdicci": "DNV", "Clasificac": "RUTA NACIONAL", "Operador": "0", "feature": "0", "Zona": "Urbano", "Potencia": 400, "Latitud": -32.9452803, "Longitud": -68.7315003, "ID": 25639, "Potencia2": "400", "ruta_id": 565, "nombre_ruta": "RN 7", "categoria": "Ruta Nacional", "distancia_m": 0.023752629593491118 }, "geometry": { "type": "Point", "coordinates": [ -68.731500300000093, -32.945280300000263 ] } },
{ "type": "Feature", "properties": { "id": 25604, "Departamen": "Maipu", "Luminaria": "Sodio", "Ruta/calle": "RN 7", "Soporte": "Metalico", "Alimentaci": "Subterranea", "Estado": "Presente", "Ubicacion": null, "Observacio": "R7 (Acceso Este)", "Jurisdicci": "DNV", "Clasificac": "RUTA NACIONAL", "Operador": "0", "feature": "0", "Zona": "Urbano", "Potencia": 400, "Latitud": -32.9454983, "Longitud": -68.7316696, "ID": 25640, "Potencia2": "400", "ruta_id": 564, "nombre_ruta": "RN 7", "categoria": "Ruta Nacional", "distancia_m": 0.019430667635292821 }, "geometry": { "type": "Point", "coordinates": [ -68.731669600000117, -32.945498300000246 ] } },
{ "type": "Feature", "properties": { "id": 25605, "Departamen": "Maipu", "Luminaria": "Sodio", "Ruta/calle": "RN 7", "Soporte": "Metalico", "Alimentaci": "Subterranea", "Estado": "Presente", "Ubicacion": null, "Observacio": "R7 (Acceso Este)", "Jurisdicci": "DNV", "Clasificac": "RUTA NACIONAL", "Operador": "0", "feature": "0", "Zona": "Urbano", "Potencia": 400, "Latitud": -32.945109, "Longitud": -68.7317371, "ID": 25641, "Potencia2": "400", "ruta_id": 565, "nombre_ruta": "RN 7", "categoria": "Ruta Nacional", "distancia_m": 0.018807923584473345 }, "geometry": { "type": "Point", "coordinates": [ -68.731737100000103, -32.945109000000265 ] } },
{ "type": "Feature", "properties": { "id": 25606, "Departamen": "Maipu", "Luminaria": "Sodio", "Ruta/calle": "RN 7", "Soporte": "Metalico", "Alimentaci": "Subterranea", "Estado": "Presente", "Ubicacion": null, "Observacio": "R7 (Acceso Este)", "Jurisdicci": "DNV", "Clasificac": "RUTA NACIONAL", "Operador": "0", "feature": "0", "Zona": "Urbano", "Potencia": 400, "Latitud": -32.9453307, "Longitud": -68.7319038, "ID": 25642, "Potencia2": "400", "ruta_id": 564, "nombre_ruta": "RN 7", "categoria": "Ruta Nacional", "distancia_m": 0.019990670063822529 }, "geometry": { "type": "Point", "coordinates": [ -68.731903800000111, -32.945330700000241 ] } },
{ "type": "Feature", "properties": { "id": 25607, "Departamen": "Maipu", "Luminaria": "Sodio", "Ruta/calle": "RN 7", "Soporte": "Metalico", "Alimentaci": "Subterranea", "Estado": "Presente", "Ubicacion": null, "Observacio": "R7 (Acceso Este)", "Jurisdicci": "DNV", "Clasificac": "RUTA NACIONAL", "Operador": "0", "feature": "0", "Zona": "Urbano", "Potencia": 400, "Latitud": -32.9449315, "Longitud": -68.7319825, "ID": 25643, "Potencia2": "400", "ruta_id": 565, "nombre_ruta": "RN 7", "categoria": "Ruta Nacional", "distancia_m": 0.01180020768393961 }, "geometry": { "type": "Point", "coordinates": [ -68.7319825000001, -32.944931500000266 ] } },
{ "type": "Feature", "properties": { "id": 25608, "Departamen": "Maipu", "Luminaria": "Sodio", "Ruta/calle": "RN 7", "Soporte": "Metalico", "Alimentaci": "Subterranea", "Estado": "Presente", "Ubicacion": null, "Observacio": "R7 (Acceso Este)", "Jurisdicci": "DNV", "Clasificac": "RUTA NACIONAL", "Operador": "0", "feature": "0", "Zona": "Urbano", "Potencia": 400, "Latitud": -32.9451543, "Longitud": -68.7321504, "ID": 25644, "Potencia2": "400", "ruta_id": 564, "nombre_ruta": "RN 7", "categoria": "Ruta Nacional", "distancia_m": 0.014242809829411047 }, "geometry": { "type": "Point", "coordinates": [ -68.732150400000108, -32.945154300000247 ] } },
{ "type": "Feature", "properties": { "id": 25609, "Departamen": "Maipu", "Luminaria": "Sodio", "Ruta/calle": "RN 7", "Soporte": "Metalico", "Alimentaci": "Subterranea", "Estado": "Presente", "Ubicacion": null, "Observacio": "R7 (Acceso Este)", "Jurisdicci": "DNV", "Clasificac": "RUTA NACIONAL", "Operador": "0", "feature": "0", "Zona": "Urbano", "Potencia": 400, "Latitud": -32.9447601, "Longitud": -68.7322192, "ID": 25645, "Potencia2": "400", "ruta_id": 565, "nombre_ruta": "RN 7", "categoria": "Ruta Nacional", "distancia_m": 0.021169929044598489 }, "geometry": { "type": "Point", "coordinates": [ -68.732219200000102, -32.944760100000266 ] } },
{ "type": "Feature", "properties": { "id": 25610, "Departamen": "Maipu", "Luminaria": "Sodio", "Ruta/calle": "RN 7", "Soporte": "Metalico", "Alimentaci": "Subterranea", "Estado": "Presente", "Ubicacion": null, "Observacio": "R7 (Acceso Este)", "Jurisdicci": "DNV", "Clasificac": "RUTA NACIONAL", "Operador": "0", "feature": "0", "Zona": "Urbano", "Potencia": 400, "Latitud": -32.9449894, "Longitud": -68.7323808, "ID": 25646, "Potencia2": "400", "ruta_id": 564, "nombre_ruta": "RN 7", "categoria": "Ruta Nacional", "distancia_m": 0.016249200089434479 }, "geometry": { "type": "Point", "coordinates": [ -68.732380800000101, -32.944989400000253 ] } },
{ "type": "Feature", "properties": { "id": 25611, "Departamen": "Maipu", "Luminaria": "Sodio", "Ruta/calle": "RN 7", "Soporte": "Metalico", "Alimentaci": "Subterranea", "Estado": "Presente", "Ubicacion": null, "Observacio": "R7 (Acceso Este)", "Jurisdicci": "DNV", "Clasificac": "RUTA NACIONAL", "Operador": "0", "feature": "0", "Zona": "Urbano", "Potencia": 400, "Latitud": -32.9445903, "Longitud": -68.7324539, "ID": 25647, "Potencia2": "400", "ruta_id": 565, "nombre_ruta": "RN 7", "categoria": "Ruta Nacional", "distancia_m": 0.017596204134154324 }, "geometry": { "type": "Point", "coordinates": [ -68.73245390000011, -32.944590300000257 ] } },
{ "type": "Feature", "properties": { "id": 25612, "Departamen": "Maipu", "Luminaria": "Sodio", "Ruta/calle": "RN 7", "Soporte": "Metalico", "Alimentaci": "Subterranea", "Estado": "Presente", "Ubicacion": null, "Observacio": "R7 (Acceso Este)", "Jurisdicci": "DNV", "Clasificac": "RUTA NACIONAL", "Operador": "0", "feature": "0", "Zona": "Urbano", "Potencia": 400, "Latitud": -32.9448157, "Longitud": -68.7326235, "ID": 25648, "Potencia2": "400", "ruta_id": 564, "nombre_ruta": "RN 7", "categoria": "Ruta Nacional", "distancia_m": 0.017991882811909082 }, "geometry": { "type": "Point", "coordinates": [ -68.732623500000116, -32.944815700000277 ] } },
{ "type": "Feature", "properties": { "id": 25613, "Departamen": "Maipu", "Luminaria": "Sodio", "Ruta/calle": "RN 7", "Soporte": "Metalico", "Alimentaci": "Subterranea", "Estado": "Presente", "Ubicacion": null, "Observacio": "R7 (Acceso Este)", "Jurisdicci": "DNV", "Clasificac": "RUTA NACIONAL", "Operador": "0", "feature": "0", "Zona": "Urbano", "Potencia": 400, "Latitud": -32.9444086, "Longitud": -68.732705, "ID": 25649, "Potencia2": "400", "ruta_id": 565, "nombre_ruta": "RN 7", "categoria": "Ruta Nacional", "distancia_m": 0.016614307893529436 }, "geometry": { "type": "Point", "coordinates": [ -68.732705, -32.944408600000259 ] } },
{ "type": "Feature", "properties": { "id": 25614, "Departamen": "Maipu", "Luminaria": "Sodio", "Ruta/calle": "RN 7", "Soporte": "Metalico", "Alimentaci": "Subterranea", "Estado": "Presente", "Ubicacion": null, "Observacio": "R7 (Acceso Este)", "Jurisdicci": "DNV", "Clasificac": "RUTA NACIONAL", "Operador": "0", "feature": "0", "Zona": "Urbano", "Potencia": 400, "Latitud": -32.9446399, "Longitud": -68.7328691, "ID": 25650, "Potencia2": "400", "ruta_id": 564, "nombre_ruta": "RN 7", "categoria": "Ruta Nacional", "distancia_m": 0.021725048536383042 }, "geometry": { "type": "Point", "coordinates": [ -68.732869100000102, -32.944639900000247 ] } },
{ "type": "Feature", "properties": { "id": 25615, "Departamen": "Maipu", "Luminaria": "Sodio", "Ruta/calle": "RN 7", "Soporte": "Metalico", "Alimentaci": "Subterranea", "Estado": "Presente", "Ubicacion": null, "Observacio": "R7 (Acceso Este)", "Jurisdicci": "DNV", "Clasificac": "RUTA NACIONAL", "Operador": "0", "feature": "0", "Zona": "Urbano", "Potencia": 400, "Latitud": -32.9442307, "Longitud": -68.7329509, "ID": 25651, "Potencia2": "400", "ruta_id": 565, "nombre_ruta": "RN 7", "categoria": "Ruta Nacional", "distancia_m": 0.012419769838515997 }, "geometry": { "type": "Point", "coordinates": [ -68.73295090000012, -32.944230700000261 ] } },
{ "type": "Feature", "properties": { "id": 25616, "Departamen": "Maipu", "Luminaria": "Sodio", "Ruta/calle": "RN 7", "Soporte": "Metalico", "Alimentaci": "Subterranea", "Estado": "Presente", "Ubicacion": null, "Observacio": "R7 (Acceso Este)", "Jurisdicci": "DNV", "Clasificac": "RUTA NACIONAL", "Operador": "0", "feature": "0", "Zona": "Urbano", "Potencia": 400, "Latitud": -32.9444515, "Longitud": -68.7331324, "ID": 25652, "Potencia2": "400", "ruta_id": 564, "nombre_ruta": "RN 7", "categoria": "Ruta Nacional", "distancia_m": 0.019728492551487887 }, "geometry": { "type": "Point", "coordinates": [ -68.73313240000013, -32.944451500000262 ] } },
{ "type": "Feature", "properties": { "id": 25617, "Departamen": "Guaymallen", "Luminaria": "Sodio", "Ruta/calle": "RN 7", "Soporte": "Metalico", "Alimentaci": "Subterranea", "Estado": "Presente", "Ubicacion": null, "Observacio": "R7 (Acceso Este)", "Jurisdicci": "DNV", "Clasificac": "RUTA NACIONAL", "Operador": "0", "feature": "0", "Zona": "Urbano", "Potencia": 400, "Latitud": -32.9440469, "Longitud": -68.7332049, "ID": 25653, "Potencia2": "400", "ruta_id": 565, "nombre_ruta": "RN 7", "categoria": "Ruta Nacional", "distancia_m": 0.011341344490391262 }, "geometry": { "type": "Point", "coordinates": [ -68.733204900000118, -32.944046900000266 ] } },
{ "type": "Feature", "properties": { "id": 25618, "Departamen": "Maipu", "Luminaria": "Sodio", "Ruta/calle": "RN 7", "Soporte": "Metalico", "Alimentaci": "Subterranea", "Estado": "Presente", "Ubicacion": null, "Observacio": "R7 (Acceso Este)", "Jurisdicci": "DNV", "Clasificac": "RUTA NACIONAL", "Operador": "0", "feature": "0", "Zona": "Urbano", "Potencia": 400, "Latitud": -32.9442718, "Longitud": -68.7333836, "ID": 25654, "Potencia2": "400", "ruta_id": 564, "nombre_ruta": "RN 7", "categoria": "Ruta Nacional", "distancia_m": 0.014161142152927773 }, "geometry": { "type": "Point", "coordinates": [ -68.733383600000096, -32.944271800000251 ] } },
{ "type": "Feature", "properties": { "id": 25619, "Departamen": "Guaymallen", "Luminaria": "Sodio", "Ruta/calle": "RN 7", "Soporte": "Metalico", "Alimentaci": "Subterranea", "Estado": "Presente", "Ubicacion": null, "Observacio": "R7 (Acceso Este)", "Jurisdicci": "DNV", "Clasificac": "RUTA NACIONAL", "Operador": "0", "feature": "0", "Zona": "Urbano", "Potencia": 400, "Latitud": -32.9438869, "Longitud": -68.733426, "ID": 25655, "Potencia2": "400", "ruta_id": 565, "nombre_ruta": "RN 7", "categoria": "Ruta Nacional", "distancia_m": 0.010917449684679816 }, "geometry": { "type": "Point", "coordinates": [ -68.733426, -32.943886900000244 ] } },
{ "type": "Feature", "properties": { "id": 25620, "Departamen": "Maipu", "Luminaria": "Sodio", "Ruta/calle": "RN 7", "Soporte": "Metalico", "Alimentaci": "Subterranea", "Estado": "Presente", "Ubicacion": null, "Observacio": "R7 (Acceso Este)", "Jurisdicci": "DNV", "Clasificac": "RUTA NACIONAL", "Operador": "0", "feature": "0", "Zona": "Urbano", "Potencia": 400, "Latitud": -32.9441076, "Longitud": -68.733613, "ID": 25656, "Potencia2": "400", "ruta_id": 564, "nombre_ruta": "RN 7", "categoria": "Ruta Nacional", "distancia_m": 0.017016616680784469 }, "geometry": { "type": "Point", "coordinates": [ -68.733613000000119, -32.944107600000272 ] } },
{ "type": "Feature", "properties": { "id": 25621, "Departamen": "Guaymallen", "Luminaria": "Sodio", "Ruta/calle": "RN 7", "Soporte": "Metalico", "Alimentaci": "Subterranea", "Estado": "Presente", "Ubicacion": null, "Observacio": "R7 (Acceso Este)", "Jurisdicci": "DNV", "Clasificac": "RUTA NACIONAL", "Operador": "0", "feature": "0", "Zona": "Urbano", "Potencia": 400, "Latitud": -32.9437107, "Longitud": -68.7336694, "ID": 25657, "Potencia2": "400", "ruta_id": 565, "nombre_ruta": "RN 7", "categoria": "Ruta Nacional", "distancia_m": 0.015616235092610013 }, "geometry": { "type": "Point", "coordinates": [ -68.733669400000096, -32.943710700000267 ] } },
{ "type": "Feature", "properties": { "id": 25622, "Departamen": "Guaymallen", "Luminaria": "Sodio", "Ruta/calle": "RN 7", "Soporte": "Metalico", "Alimentaci": "Subterranea", "Estado": "Presente", "Ubicacion": null, "Observacio": "R7 (Acceso Este)", "Jurisdicci": "DNV", "Clasificac": "RUTA NACIONAL", "Operador": "0", "feature": "0", "Zona": "Urbano", "Potencia": 400, "Latitud": -32.9435273, "Longitud": -68.7339228, "ID": 25658, "Potencia2": "400", "ruta_id": 565, "nombre_ruta": "RN 7", "categoria": "Ruta Nacional", "distancia_m": 0.017110742763464623 }, "geometry": { "type": "Point", "coordinates": [ -68.733922800000116, -32.943527300000277 ] } },
{ "type": "Feature", "properties": { "id": 25623, "Departamen": "Guaymallen", "Luminaria": "Sodio", "Ruta/calle": "RN 7", "Soporte": "Metalico", "Alimentaci": "Subterranea", "Estado": "Presente", "Ubicacion": null, "Observacio": "R7 (Acceso Este)", "Jurisdicci": "DNV", "Clasificac": "RUTA NACIONAL", "Operador": "0", "feature": "0", "Zona": "Urbano", "Potencia": 400, "Latitud": -32.9439315, "Longitud": -68.7338592, "ID": 25659, "Potencia2": "400", "ruta_id": 564, "nombre_ruta": "RN 7", "categoria": "Ruta Nacional", "distancia_m": 0.0094051364077673751 }, "geometry": { "type": "Point", "coordinates": [ -68.733859200000111, -32.943931500000254 ] } },
{ "type": "Feature", "properties": { "id": 25624, "Departamen": "Guaymallen", "Luminaria": "Sodio", "Ruta/calle": "RN 7", "Soporte": "Metalico", "Alimentaci": "Subterranea", "Estado": "Presente", "Ubicacion": null, "Observacio": "R7 (Acceso Este)", "Jurisdicci": "DNV", "Clasificac": "RUTA NACIONAL", "Operador": "0", "feature": "0", "Zona": "Urbano", "Potencia": 400, "Latitud": -32.9437554, "Longitud": -68.7341051, "ID": 25660, "Potencia2": "400", "ruta_id": 564, "nombre_ruta": "RN 7", "categoria": "Ruta Nacional", "distancia_m": 0.019846202339227959 }, "geometry": { "type": "Point", "coordinates": [ -68.734105100000093, -32.943755400000271 ] } },
{ "type": "Feature", "properties": { "id": 25625, "Departamen": "Guaymallen", "Luminaria": "Sodio", "Ruta/calle": "RN 7", "Soporte": "Metalico", "Alimentaci": "Subterranea", "Estado": "Presente", "Ubicacion": null, "Observacio": "R7 (Acceso Este)", "Jurisdicci": "DNV", "Clasificac": "RUTA NACIONAL", "Operador": "0", "feature": "0", "Zona": "Urbano", "Potencia": 400, "Latitud": -32.9433458, "Longitud": -68.7341737, "ID": 25661, "Potencia2": "400", "ruta_id": 565, "nombre_ruta": "RN 7", "categoria": "Ruta Nacional", "distancia_m": 0.01085896426533144 }, "geometry": { "type": "Point", "coordinates": [ -68.734173700000099, -32.943345800000252 ] } },
{ "type": "Feature", "properties": { "id": 25626, "Departamen": "Guaymallen", "Luminaria": "Sodio", "Ruta/calle": "RN 7", "Soporte": "Metalico", "Alimentaci": "Subterranea", "Estado": "Presente", "Ubicacion": null, "Observacio": "R7 (Acceso Este)", "Jurisdicci": "DNV", "Clasificac": "RUTA NACIONAL", "Operador": "0", "feature": "0", "Zona": "Urbano", "Potencia": 400, "Latitud": -32.9435813, "Longitud": -68.7343485, "ID": 25662, "Potencia2": "400", "ruta_id": 564, "nombre_ruta": "RN 7", "categoria": "Ruta Nacional", "distancia_m": 0.012356043809452225 }, "geometry": { "type": "Point", "coordinates": [ -68.734348500000095, -32.94358130000024 ] } },
{ "type": "Feature", "properties": { "id": 25627, "Departamen": "Guaymallen", "Luminaria": "Sodio", "Ruta/calle": "RN 7", "Soporte": "Metalico", "Alimentaci": "Subterranea", "Estado": "Presente", "Ubicacion": null, "Observacio": "R7 (Acceso Este)", "Jurisdicci": "DNV", "Clasificac": "RUTA NACIONAL", "Operador": "0", "feature": "0", "Zona": "Urbano", "Potencia": 400, "Latitud": -32.9431685, "Longitud": -68.7344187, "ID": 25663, "Potencia2": "400", "ruta_id": 565, "nombre_ruta": "RN 7", "categoria": "Ruta Nacional", "distancia_m": 0.010377883344705333 }, "geometry": { "type": "Point", "coordinates": [ -68.73441870000012, -32.943168500000247 ] } },
{ "type": "Feature", "properties": { "id": 25628, "Departamen": "Guaymallen", "Luminaria": "Sodio", "Ruta/calle": "RN 7", "Soporte": "Metalico", "Alimentaci": "Subterranea", "Estado": "Presente", "Ubicacion": null, "Observacio": "R7 (Acceso Este)", "Jurisdicci": "DNV", "Clasificac": "RUTA NACIONAL", "Operador": "0", "feature": "0", "Zona": "Urbano", "Potencia": 400, "Latitud": -32.9434017, "Longitud": -68.7345995, "ID": 25664, "Potencia2": "400", "ruta_id": 564, "nombre_ruta": "RN 7", "categoria": "Ruta Nacional", "distancia_m": 0.0099271939132317237 }, "geometry": { "type": "Point", "coordinates": [ -68.734599500000115, -32.943401700000265 ] } },
{ "type": "Feature", "properties": { "id": 25629, "Departamen": "Guaymallen", "Luminaria": "Sodio", "Ruta/calle": "RN 7", "Soporte": "Metalico", "Alimentaci": "Subterranea", "Estado": "Presente", "Ubicacion": null, "Observacio": "R7 (Acceso Este)", "Jurisdicci": "DNV", "Clasificac": "RUTA NACIONAL", "Operador": "0", "feature": "0", "Zona": "Urbano", "Potencia": 400, "Latitud": -32.9429965, "Longitud": -68.7346564, "ID": 25665, "Potencia2": "400", "ruta_id": 565, "nombre_ruta": "RN 7", "categoria": "Ruta Nacional", "distancia_m": 0.0083686898695778372 }, "geometry": { "type": "Point", "coordinates": [ -68.734656400000105, -32.942996500000262 ] } },
{ "type": "Feature", "properties": { "id": 25630, "Departamen": "Guaymallen", "Luminaria": "Sodio", "Ruta/calle": "RN 7", "Soporte": "Metalico", "Alimentaci": "Subterranea", "Estado": "Presente", "Ubicacion": null, "Observacio": "R7 (Acceso Este)", "Jurisdicci": "DNV", "Clasificac": "RUTA NACIONAL", "Operador": "0", "feature": "0", "Zona": "Urbano", "Potencia": 400, "Latitud": -32.9432212, "Longitud": -68.7348518, "ID": 25666, "Potencia2": "400", "ruta_id": 564, "nombre_ruta": "RN 7", "categoria": "Ruta Nacional", "distancia_m": 0.0048266189051641949 }, "geometry": { "type": "Point", "coordinates": [ -68.734851800000101, -32.943221200000266 ] } },
{ "type": "Feature", "properties": { "id": 25631, "Departamen": "Guaymallen", "Luminaria": "Sodio", "Ruta/calle": "RN 7", "Soporte": "Metalico", "Alimentaci": "Subterranea", "Estado": "Presente", "Ubicacion": null, "Observacio": "R7 (Acceso Este)", "Jurisdicci": "DNV", "Clasificac": "RUTA NACIONAL", "Operador": "0", "feature": "0", "Zona": "Urbano", "Potencia": 400, "Latitud": -32.9428079, "Longitud": -68.7349171, "ID": 25667, "Potencia2": "400", "ruta_id": 565, "nombre_ruta": "RN 7", "categoria": "Ruta Nacional", "distancia_m": 0.0024518249107078238 }, "geometry": { "type": "Point", "coordinates": [ -68.734917100000118, -32.942807900000247 ] } },
{ "type": "Feature", "properties": { "id": 25632, "Departamen": "Guaymallen", "Luminaria": "Sodio", "Ruta/calle": "RN 7", "Soporte": "Metalico", "Alimentaci": "Subterranea", "Estado": "Presente", "Ubicacion": null, "Observacio": "R7 (Acceso Este)", "Jurisdicci": "DNV", "Clasificac": "RUTA NACIONAL", "Operador": "0", "feature": "0", "Zona": "Urbano", "Potencia": 400, "Latitud": -32.9430464, "Longitud": -68.735096, "ID": 25668, "Potencia2": "400", "ruta_id": 564, "nombre_ruta": "RN 7", "categoria": "Ruta Nacional", "distancia_m": 0.0078120147078937418 }, "geometry": { "type": "Point", "coordinates": [ -68.735096000000112, -32.943046400000249 ] } },
{ "type": "Feature", "properties": { "id": 25633, "Departamen": "Guaymallen", "Luminaria": "Sodio", "Ruta/calle": "RN 7", "Soporte": "Metalico", "Alimentaci": "Subterranea", "Estado": "Presente", "Ubicacion": null, "Observacio": "R7 (Acceso Este)", "Jurisdicci": "DNV", "Clasificac": "RUTA NACIONAL", "Operador": "0", "feature": "0", "Zona": "Urbano", "Potencia": 400, "Latitud": -32.9426294, "Longitud": -68.7351723, "ID": 25669, "Potencia2": "400", "ruta_id": 562, "nombre_ruta": "RN 7", "categoria": "Ruta Nacional", "distancia_m": 0.0065257032302800978 }, "geometry": { "type": "Point", "coordinates": [ -68.735172300000116, -32.942629400000257 ] } },
{ "type": "Feature", "properties": { "id": 25634, "Departamen": "Guaymallen", "Luminaria": "Sodio", "Ruta/calle": "RN 7", "Soporte": "Metalico", "Alimentaci": "Subterranea", "Estado": "Presente", "Ubicacion": null, "Observacio": "R7 (Acceso Este)", "Jurisdicci": "DNV", "Clasificac": "RUTA NACIONAL", "Operador": "0", "feature": "0", "Zona": "Urbano", "Potencia": 400, "Latitud": -32.942859, "Longitud": -68.7353579, "ID": 25670, "Potencia2": "400", "ruta_id": 563, "nombre_ruta": "RN 7", "categoria": "Ruta Nacional", "distancia_m": 0.0053474776729185184 }, "geometry": { "type": "Point", "coordinates": [ -68.735357900000096, -32.942859000000261 ] } },
{ "type": "Feature", "properties": { "id": 25635, "Departamen": "Guaymallen", "Luminaria": "Sodio", "Ruta/calle": "RN 7", "Soporte": "Metalico", "Alimentaci": "Subterranea", "Estado": "Presente", "Ubicacion": null, "Observacio": "R7 (Acceso Este)", "Jurisdicci": "DNV", "Clasificac": "RUTA NACIONAL", "Operador": "0", "feature": "0", "Zona": "Urbano", "Potencia": 400, "Latitud": -32.9424514, "Longitud": -68.7354295, "ID": 25671, "Potencia2": "400", "ruta_id": 562, "nombre_ruta": "RN 7", "categoria": "Ruta Nacional", "distancia_m": 0.010888722226600582 }, "geometry": { "type": "Point", "coordinates": [ -68.735429500000109, -32.942451400000259 ] } },
{ "type": "Feature", "properties": { "id": 25636, "Departamen": "Guaymallen", "Luminaria": "Sodio", "Ruta/calle": "RN 7", "Soporte": "Metalico", "Alimentaci": "Subterranea", "Estado": "Presente", "Ubicacion": null, "Observacio": "R7 (Acceso Este)", "Jurisdicci": "DNV", "Clasificac": "RUTA NACIONAL", "Operador": "0", "feature": "0", "Zona": "Urbano", "Potencia": 400, "Latitud": -32.9426761, "Longitud": -68.7356134, "ID": 25672, "Potencia2": "400", "ruta_id": 563, "nombre_ruta": "RN 7", "categoria": "Ruta Nacional", "distancia_m": 0.010687514759522227 }, "geometry": { "type": "Point", "coordinates": [ -68.735613400000105, -32.94267610000027 ] } },
{ "type": "Feature", "properties": { "id": 25637, "Departamen": "Guaymallen", "Luminaria": "Sodio", "Ruta/calle": "RN 7", "Soporte": "Metalico", "Alimentaci": "Subterranea", "Estado": "Presente", "Ubicacion": null, "Observacio": "R7 (Acceso Este)", "Jurisdicci": "DNV", "Clasificac": "RUTA NACIONAL", "Operador": "0", "feature": "0", "Zona": "Urbano", "Potencia": 400, "Latitud": -32.9422735, "Longitud": -68.7356867, "ID": 25673, "Potencia2": "400", "ruta_id": 562, "nombre_ruta": "RN 7", "categoria": "Ruta Nacional", "distancia_m": 0.0065707917068754847 }, "geometry": { "type": "Point", "coordinates": [ -68.735686700000102, -32.942273500000262 ] } },
{ "type": "Feature", "properties": { "id": 25638, "Departamen": "Guaymallen", "Luminaria": "Sodio", "Ruta/calle": "RN 7", "Soporte": "Metalico", "Alimentaci": "Subterranea", "Estado": "Presente", "Ubicacion": null, "Observacio": "R7 (Acceso Este)", "Jurisdicci": "DNV", "Clasificac": "RUTA NACIONAL", "Operador": "0", "feature": "0", "Zona": "Urbano", "Potencia": 400, "Latitud": -32.9425012, "Longitud": -68.7358579, "ID": 25674, "Potencia2": "400", "ruta_id": 563, "nombre_ruta": "RN 7", "categoria": "Ruta Nacional", "distancia_m": 0.005072468532198472 }, "geometry": { "type": "Point", "coordinates": [ -68.735857900000113, -32.942501200000265 ] } },
{ "type": "Feature", "properties": { "id": 25639, "Departamen": "Guaymallen", "Luminaria": "Sodio", "Ruta/calle": "RN 7", "Soporte": "Metalico", "Alimentaci": "Subterranea", "Estado": "Presente", "Ubicacion": null, "Observacio": "R7 (Acceso Este)", "Jurisdicci": "DNV", "Clasificac": "RUTA NACIONAL", "Operador": "0", "feature": "0", "Zona": "Urbano", "Potencia": 400, "Latitud": -32.9420973, "Longitud": -68.7359413, "ID": 25675, "Potencia2": "400", "ruta_id": 562, "nombre_ruta": "RN 7", "categoria": "Ruta Nacional", "distancia_m": 0.010624425560054992 }, "geometry": { "type": "Point", "coordinates": [ -68.735941300000107, -32.942097300000249 ] } },
{ "type": "Feature", "properties": { "id": 25640, "Departamen": "Guaymallen", "Luminaria": "Sodio", "Ruta/calle": "RN 7", "Soporte": "Metalico", "Alimentaci": "Subterranea", "Estado": "Presente", "Ubicacion": null, "Observacio": "R7 (Acceso Este)", "Jurisdicci": "DNV", "Clasificac": "RUTA NACIONAL", "Operador": "0", "feature": "0", "Zona": "Urbano", "Potencia": 400, "Latitud": -32.9423061, "Longitud": -68.7361304, "ID": 25676, "Potencia2": "400", "ruta_id": 563, "nombre_ruta": "RN 7", "categoria": "Ruta Nacional", "distancia_m": 0.013118548509615611 }, "geometry": { "type": "Point", "coordinates": [ -68.736130400000107, -32.942306100000259 ] } },
{ "type": "Feature", "properties": { "id": 25641, "Departamen": "Guaymallen", "Luminaria": "Sodio", "Ruta/calle": "RN 7", "Soporte": "Metalico", "Alimentaci": "Subterranea", "Estado": "Presente", "Ubicacion": null, "Observacio": "R7 (Acceso Este)", "Jurisdicci": "DNV", "Clasificac": "RUTA NACIONAL", "Operador": "0", "feature": "0", "Zona": "Urbano", "Potencia": 400, "Latitud": -32.9418965, "Longitud": -68.7362315, "ID": 25677, "Potencia2": "400", "ruta_id": 562, "nombre_ruta": "RN 7", "categoria": "Ruta Nacional", "distancia_m": 0.01189730276874473 }, "geometry": { "type": "Point", "coordinates": [ -68.73623150000013, -32.941896500000247 ] } },
{ "type": "Feature", "properties": { "id": 25642, "Departamen": "Guaymallen", "Luminaria": "Sodio", "Ruta/calle": "RN 7", "Soporte": "Metalico", "Alimentaci": "Subterranea", "Estado": "Presente", "Ubicacion": null, "Observacio": "R7 (Acceso Este)", "Jurisdicci": "DNV", "Clasificac": "RUTA NACIONAL", "Operador": "0", "feature": "0", "Zona": "Urbano", "Potencia": 400, "Latitud": -32.9421121, "Longitud": -68.7364016, "ID": 25678, "Potencia2": "400", "ruta_id": 563, "nombre_ruta": "RN 7", "categoria": "Ruta Nacional", "distancia_m": 0.006692457759872531 }, "geometry": { "type": "Point", "coordinates": [ -68.736401600000107, -32.942112100000273 ] } },
{ "type": "Feature", "properties": { "id": 25643, "Departamen": "Guaymallen", "Luminaria": "Sodio", "Ruta/calle": "RN 7", "Soporte": "Metalico", "Alimentaci": "Subterranea", "Estado": "Presente", "Ubicacion": null, "Observacio": "R7 (Acceso Este)", "Jurisdicci": "DNV", "Clasificac": "RUTA NACIONAL", "Operador": "0", "feature": "0", "Zona": "Urbano", "Potencia": 400, "Latitud": -32.9417127, "Longitud": -68.7364973, "ID": 25679, "Potencia2": "400", "ruta_id": 562, "nombre_ruta": "RN 7", "categoria": "Ruta Nacional", "distancia_m": 0.0029338980649550764 }, "geometry": { "type": "Point", "coordinates": [ -68.736497300000082, -32.941712700000259 ] } },
{ "type": "Feature", "properties": { "id": 25644, "Departamen": "Guaymallen", "Luminaria": "Sodio", "Ruta/calle": "RN 7", "Soporte": "Metalico", "Alimentaci": "Subterranea", "Estado": "Presente", "Ubicacion": null, "Observacio": "R7 (Acceso Este)", "Jurisdicci": "DNV", "Clasificac": "RUTA NACIONAL", "Operador": "0", "feature": "0", "Zona": "Urbano", "Potencia": 400, "Latitud": -32.9419209, "Longitud": -68.7366688, "ID": 25680, "Potencia2": "400", "ruta_id": 563, "nombre_ruta": "RN 7", "categoria": "Ruta Nacional", "distancia_m": 0.0054295901985520791 }, "geometry": { "type": "Point", "coordinates": [ -68.736668800000103, -32.941920900000262 ] } }
]
}
