{
"type": "FeatureCollection",
"name": "RN_7_acceso_DPV_4326_2",
"crs": { "type": "name", "properties": { "name": "urn:ogc:def:crs:OGC:1.3:CRS84" } },
"features": [
{ "type": "Feature", "properties": { "fid": 24727, "nombre": "LATERAL NORTE ACCESO ESTE", "depto": "Maipu", "globalid": "{6F3F3B09-A50C-42BC-8DE2-30DDD54B9923}", "created_date": 1740064166000, "created_user": "ugdt_admin", "last_edited_date": 1740064166000, "last_edited_user": "ugdt_admin", "shape_Length": 854.18268007741301, "1_fid": null, "1_tramo": "Entre puentes Arturo Gonzalez y Serpa", "1_seccion": "Seccion 1", "1_longitud": "5.8 km", "1_sentido_oeste": "Desvio a calzada norte (asfalto nuevo)", "1_sentido_este": "Circulacion normal por clazada sur", "1_fecha_inicio": "18/08/2026", "1_fecha_fin": "16/11/2026" }, "geometry": { "type": "LineString", "coordinates": [ [ -68.720758999934688, -32.952754000110609 ], [ -68.719683999508888, -32.953532000055453 ], [ -68.718611326352871, -32.954307790165132 ] ] } },
{ "type": "Feature", "properties": { "fid": 26798, "nombre": "LATERAL NORTE ACCESO ESTE", "depto": "Maipu", "globalid": "{C6CC3516-73F0-40D4-B356-49BAF16CB3EA}", "created_date": 1740064166000, "created_user": "ugdt_admin", "last_edited_date": 1740064166000, "last_edited_user": "ugdt_admin", "shape_Length": 1939.3769919316419, "1_fid": null, "1_tramo": "Entre puentes Arturo Gonzalez y Serpa", "1_seccion": "Seccion 1", "1_longitud": "5.8 km", "1_sentido_oeste": "Desvio a calzada norte (asfalto nuevo)", "1_sentido_este": "Circulacion normal por clazada sur", "1_fecha_inicio": "18/08/2026", "1_fecha_fin": "16/11/2026" }, "geometry": { "type": "LineString", "coordinates": [ [ -68.720632000611374, -32.953673000350086 ], [ -68.71911850828333, -32.954777969607214 ] ] } },
{ "type": "Feature", "properties": { "fid": 27453, "nombre": "ACCESO ESTE", "depto": "Maipu", "globalid": "{BF151126-2367-4375-8692-5564704D5FE7}", "created_date": 1740064166000, "created_user": "ugdt_admin", "last_edited_date": 1740064166000, "last_edited_user": "ugdt_admin", "shape_Length": 2214.9922219200175, "1_fid": null, "1_tramo": "Entre puentes Arturo Gonzalez y Serpa", "1_seccion": "Seccion 1", "1_longitud": "5.8 km", "1_sentido_oeste": "Desvio a calzada norte (asfalto nuevo)", "1_sentido_este": "Circulacion normal por clazada sur", "1_fecha_inicio": "18/08/2026", "1_fecha_fin": "16/11/2026" }, "geometry": { "type": "LineString", "coordinates": [ [ -68.725732999510612, -32.949792000009801 ], [ -68.725470000643199, -32.949943999949163 ], [ -68.723878999833403, -32.951110999346533 ], [ -68.722267000005488, -32.95226399963218 ], [ -68.721026000796684, -32.953148999980215 ], [ -68.718966993242887, -32.954637508654436 ] ] } },
{ "type": "Feature", "properties": { "fid": 1559, "nombre": "LATERAL NORTE ACCESO ESTE", "depto": "Guaymallen", "globalid": "{FCF537D6-EE6C-4197-AA40-966461AC6BF3}", "created_date": 1740064166000, "created_user": "ugdt_admin", "last_edited_date": 1740064166000, "last_edited_user": "ugdt_admin", "shape_Length": 541.33752539123179, "1_fid": null, "1_tramo": "Entre puentes Arturo Gonzalez y Serpa", "1_seccion": "Seccion 1", "1_longitud": "5.8 km", "1_sentido_oeste": "Desvio a calzada norte (asfalto nuevo)", "1_sentido_este": "Circulacion normal por clazada sur", "1_fecha_inicio": "18/08/2026", "1_fecha_fin": "16/11/2026" }, "geometry": { "type": "LineString", "coordinates": [ [ -68.734018999504215, -32.940870999454532 ], [ -68.733895000553971, -32.941008999844897 ], [ -68.7339540001052, -32.941276000021517 ], [ -68.734067000083101, -32.941594999649887 ], [ -68.734212999672962, -32.941907999454685 ], [ -68.734294999688743, -32.942498000180734 ], [ -68.734264000624904, -32.94283100020057 ], [ -68.734202999627229, -32.94305599944289 ], [ -68.732556999464137, -32.944224000438268 ] ] } },
{ "type": "Feature", "properties": { "fid": 21492, "nombre": "LATERAL SUR ACCESO ESTE", "depto": "Maipu", "globalid": "{BA58435B-D662-4FD5-A6EC-358C5B87DBB0}", "created_date": 1740064166000, "created_user": "ugdt_admin", "last_edited_date": 1740064166000, "last_edited_user": "ugdt_admin", "shape_Length": 94.498141497825088, "1_fid": null, "1_tramo": "Entre puentes Arturo Gonzalez y Serpa", "1_seccion": "Seccion 1", "1_longitud": "5.8 km", "1_sentido_oeste": "Desvio a calzada norte (asfalto nuevo)", "1_sentido_este": "Circulacion normal por clazada sur", "1_fecha_inicio": "18/08/2026", "1_fecha_fin": "16/11/2026" }, "geometry": { "type": "LineString", "coordinates": [ [ -68.72151899981786, -32.953024999863906 ], [ -68.720877999760361, -32.95349199957807 ] ] } },
{ "type": "Feature", "properties": { "fid": 24450, "nombre": "LATERAL NORTE ACCESO ESTE", "depto": "Maipu", "globalid": "{28A8B01B-352A-4AB8-A582-B7AA3DE03DEB}", "created_date": 1740064166000, "created_user": "ugdt_admin", "last_edited_date": 1740064166000, "last_edited_user": "ugdt_admin", "shape_Length": 36.421100878507545, "1_fid": null, "1_tramo": "Entre puentes Arturo Gonzalez y Serpa", "1_seccion": "Seccion 1", "1_longitud": "5.8 km", "1_sentido_oeste": "Desvio a calzada norte (asfalto nuevo)", "1_sentido_este": "Circulacion normal por clazada sur", "1_fecha_inicio": "18/08/2026", "1_fecha_fin": "16/11/2026" }, "geometry": { "type": "LineString", "coordinates": [ [ -68.720877999760361, -32.95349199957807 ], [ -68.720632000611374, -32.953673000350086 ] ] } },
{ "type": "Feature", "properties": { "fid": 26764, "nombre": "LATERAL SUR ACCESO ESTE", "depto": "Maipu", "globalid": "{2912997B-412F-4576-992D-799753C29E18}", "created_date": 1740064166000, "created_user": "ugdt_admin", "last_edited_date": 1740064166000, "last_edited_user": "ugdt_admin", "shape_Length": 1097.2808064875057, "1_fid": null, "1_tramo": "Entre puentes Arturo Gonzalez y Serpa", "1_seccion": "Seccion 1", "1_longitud": "5.8 km", "1_sentido_oeste": "Desvio a calzada norte (asfalto nuevo)", "1_sentido_este": "Circulacion normal por clazada sur", "1_fecha_inicio": "18/08/2026", "1_fecha_fin": "16/11/2026" }, "geometry": { "type": "LineString", "coordinates": [ [ -68.736129000172795, -32.944200000340714 ], [ -68.735938000377075, -32.944231000088571 ], [ -68.735740999835272, -32.944123999988854 ], [ -68.735453999780091, -32.943890000002952 ], [ -68.735059999594796, -32.94373200015194 ], [ -68.734870000522321, -32.943717000385199 ], [ -68.73477200061302, -32.943709000307528 ], [ -68.734488000032584, -32.943795000350633 ], [ -68.734483000009718, -32.9437969996143 ], [ -68.734096999322006, -32.943967000185886 ], [ -68.733489000673103, -32.94444499989951 ], [ -68.729526999977125, -32.947319000264315 ], [ -68.728708000542682, -32.947826000015425 ], [ -68.72834100012156, -32.948073000000576 ] ] } },
{ "type": "Feature", "properties": { "fid": 26766, "nombre": "LATERAL SUR ACCESO ESTE", "depto": "Maipu", "globalid": "{09AB1E80-09D1-47E2-A945-193D2759E82A}", "created_date": 1740064166000, "created_user": "ugdt_admin", "last_edited_date": 1740064166000, "last_edited_user": "ugdt_admin", "shape_Length": 74.626346811127519, "1_fid": null, "1_tramo": "Entre puentes Arturo Gonzalez y Serpa", "1_seccion": "Seccion 1", "1_longitud": "5.8 km", "1_sentido_oeste": "Desvio a calzada norte (asfalto nuevo)", "1_sentido_este": "Circulacion normal por clazada sur", "1_fecha_inicio": "18/08/2026", "1_fecha_fin": "16/11/2026" }, "geometry": { "type": "LineString", "coordinates": [ [ -68.728259000105808, -32.948134000201968 ], [ -68.728135000257254, -32.948222999963036 ], [ -68.728095000074276, -32.948285999976889 ], [ -68.728063000287221, -32.948350999860381 ], [ -68.728037000347967, -32.948418999942469 ], [ -68.728018000081377, -32.948488000304884 ], [ -68.728007000210724, -32.948557999437604 ], [ -68.728003000012762, -32.94862900035357 ] ] } },
{ "type": "Feature", "properties": { "fid": 26768, "nombre": "LATERAL SUR ACCESO ESTE", "depto": "Maipu", "globalid": "{E795232C-5860-431A-9737-2B3B076729AA}", "created_date": 1740064166000, "created_user": "ugdt_admin", "last_edited_date": 1740064166000, "last_edited_user": "ugdt_admin", "shape_Length": 928.69673317994807, "1_fid": null, "1_tramo": "Entre puentes Arturo Gonzalez y Serpa", "1_seccion": "Seccion 1", "1_longitud": "5.8 km", "1_sentido_oeste": "Desvio a calzada norte (asfalto nuevo)", "1_sentido_este": "Circulacion normal por clazada sur", "1_fecha_inicio": "18/08/2026", "1_fecha_fin": "16/11/2026" }, "geometry": { "type": "LineString", "coordinates": [ [ -68.728003000012762, -32.94862900035357 ], [ -68.726693000308657, -32.949392000110713 ], [ -68.726227000153344, -32.949674999680092 ], [ -68.72151899981786, -32.953024999863906 ] ] } },
{ "type": "Feature", "properties": { "fid": 26769, "nombre": "LATERAL NORTE ACCESO ESTE", "depto": "Maipu", "globalid": "{98F28979-68DF-497F-B531-0FEFE5F1D68C}", "created_date": 1740064166000, "created_user": "ugdt_admin", "last_edited_date": 1740064166000, "last_edited_user": "ugdt_admin", "shape_Length": 612.2377072400626, "1_fid": null, "1_tramo": "Entre puentes Arturo Gonzalez y Serpa", "1_seccion": "Seccion 1", "1_longitud": "5.8 km", "1_sentido_oeste": "Desvio a calzada norte (asfalto nuevo)", "1_sentido_este": "Circulacion normal por clazada sur", "1_fecha_inicio": "18/08/2026", "1_fecha_fin": "16/11/2026" }, "geometry": { "type": "LineString", "coordinates": [ [ -68.724924999946836, -32.949741000368348 ], [ -68.724642999914536, -32.949944999511466 ], [ -68.72418199978209, -32.950278999686198 ], [ -68.722184999989722, -32.951723000200786 ], [ -68.720775999653114, -32.952742000466692 ], [ -68.720772000353477, -32.952745000566281 ], [ -68.720758999934688, -32.952754000110609 ] ] } },
{ "type": "Feature", "properties": { "fid": 27452, "nombre": "ACCESO ESTE", "depto": "Maipu", "globalid": "{231D1711-ACFD-4E24-92B4-DF131B736FB6}", "created_date": 1740064166000, "created_user": "ugdt_admin", "last_edited_date": 1740064166000, "last_edited_user": "ugdt_admin", "shape_Length": 3624.1579098462412, "1_fid": null, "1_tramo": "Entre puentes Arturo Gonzalez y Serpa", "1_seccion": "Seccion 1", "1_longitud": "5.8 km", "1_sentido_oeste": "Desvio a calzada norte (asfalto nuevo)", "1_sentido_este": "Circulacion normal por clazada sur", "1_fecha_inicio": "18/08/2026", "1_fecha_fin": "16/11/2026" }, "geometry": { "type": "LineString", "coordinates": [ [ -68.718758577832759, -32.954444298614078 ], [ -68.720189000022273, -32.953415000153406 ], [ -68.722214000302046, -32.95194699988771 ], [ -68.724570000119613, -32.950264000276427 ], [ -68.724785000204761, -32.950111000573067 ], [ -68.729972000216037, -32.946395000028666 ], [ -68.73303800058639, -32.944190999925532 ], [ -68.735109999823521, -32.942653999931885 ] ] } },
{ "type": "Feature", "properties": { "fid": 27454, "nombre": "ACCESO ESTE", "depto": "Maipu", "globalid": "{33314961-696B-4B55-A6FB-36A12C835B94}", "created_date": 1740064166000, "created_user": "ugdt_admin", "last_edited_date": 1740064166000, "last_edited_user": "ugdt_admin", "shape_Length": 1400.452955383538, "1_fid": null, "1_tramo": "Entre puentes Arturo Gonzalez y Serpa", "1_seccion": "Seccion 1", "1_longitud": "5.8 km", "1_sentido_oeste": "Desvio a calzada norte (asfalto nuevo)", "1_sentido_este": "Circulacion normal por clazada sur", "1_fecha_inicio": "18/08/2026", "1_fecha_fin": "16/11/2026" }, "geometry": { "type": "LineString", "coordinates": [ [ -68.735294999771426, -32.942934000283287 ], [ -68.73375099971561, -32.943971999842972 ], [ -68.726614999592556, -32.949104999840564 ], [ -68.725732999510612, -32.949792000009801 ] ] } },
{ "type": "Feature", "properties": { "fid": 27483, "nombre": "LATERAL NORTE ACCESO ESTE", "depto": "Maipu", "globalid": "{E38665C8-34FA-4BB2-8172-92F914AE3061}", "created_date": 1740064166000, "created_user": "ugdt_admin", "last_edited_date": 1740064166000, "last_edited_user": "ugdt_admin", "shape_Length": 996.22066391499595, "1_fid": null, "1_tramo": "Entre puentes Arturo Gonzalez y Serpa", "1_seccion": "Seccion 1", "1_longitud": "5.8 km", "1_sentido_oeste": "Desvio a calzada norte (asfalto nuevo)", "1_sentido_este": "Circulacion normal por clazada sur", "1_fecha_inicio": "18/08/2026", "1_fecha_fin": "16/11/2026" }, "geometry": { "type": "LineString", "coordinates": [ [ -68.732556999464137, -32.944224000438268 ], [ -68.732445000209466, -32.944282999519601 ], [ -68.732036999780448, -32.944596999986111 ], [ -68.725756999800069, -32.949103999514925 ] ] } },
{ "type": "Feature", "properties": { "fid": 27484, "nombre": "LATERAL NORTE ACCESO ESTE", "depto": "Maipu", "globalid": "{754B0D3B-CE9F-4262-AB73-956F703CC3A8}", "created_date": 1740064166000, "created_user": "ugdt_admin", "last_edited_date": 1740064166000, "last_edited_user": "ugdt_admin", "shape_Length": 125.39045161799335, "1_fid": null, "1_tramo": "Entre puentes Arturo Gonzalez y Serpa", "1_seccion": "Seccion 1", "1_longitud": "5.8 km", "1_sentido_oeste": "Desvio a calzada norte (asfalto nuevo)", "1_sentido_este": "Circulacion normal por clazada sur", "1_fecha_inicio": "18/08/2026", "1_fecha_fin": "16/11/2026" }, "geometry": { "type": "LineString", "coordinates": [ [ -68.725756999800069, -32.949103999514925 ], [ -68.725110999719675, -32.949606999810328 ], [ -68.724924999946836, -32.949741000368348 ] ] } }
]
}
