{
"type": "FeatureCollection",
"name": "tramo_1",
"crs": { "type": "name", "properties": { "name": "urn:ogc:def:crs:OGC:1.3:CRS84" } },
"features": [
{ "type": "Feature", "properties": { "seg_gpx_rel": 891, "tiempo_gpx_rel": "00:14:51", "desfase_s": 34, "seg_video": 925, "tiempo_video": "00:15:25", "punto_gpx": 892, "latitud": -32.942988333333297, "longitud": -68.735295, "elevacion": 707.0, "hora_gpx": "2026-07-13T19:20:57Z", "imagen": "frames/frame_000925.jpg" }, "geometry": { "type": "Point", "coordinates": [ -68.735295, -32.942988333333297 ] } },
{ "type": "Feature", "properties": { "seg_gpx_rel": 892, "tiempo_gpx_rel": "00:14:52", "desfase_s": 34, "seg_video": 926, "tiempo_video": "00:15:26", "punto_gpx": 893, "latitud": -32.943041666666701, "longitud": -68.73522, "elevacion": 706.7, "hora_gpx": "2026-07-13T19:20:58Z", "imagen": "frames/frame_000926.jpg" }, "geometry": { "type": "Point", "coordinates": [ -68.73522, -32.943041666666701 ] } },
{ "type": "Feature", "properties": { "seg_gpx_rel": 893, "tiempo_gpx_rel": "00:14:53", "desfase_s": 34, "seg_video": 927, "tiempo_video": "00:15:27", "punto_gpx": 894, "latitud": -32.943096666666698, "longitud": -68.735141666666706, "elevacion": 706.7, "hora_gpx": "2026-07-13T19:20:59Z", "imagen": "frames/frame_000927.jpg" }, "geometry": { "type": "Point", "coordinates": [ -68.735141666666706, -32.943096666666698 ] } },
{ "type": "Feature", "properties": { "seg_gpx_rel": 894, "tiempo_gpx_rel": "00:14:54", "desfase_s": 34, "seg_video": 928, "tiempo_video": "00:15:28", "punto_gpx": 895, "latitud": -32.943151666666701, "longitud": -68.735065, "elevacion": 706.6, "hora_gpx": "2026-07-13T19:21:00Z", "imagen": "frames/frame_000928.jpg" }, "geometry": { "type": "Point", "coordinates": [ -68.735065, -32.943151666666701 ] } },
{ "type": "Feature", "properties": { "seg_gpx_rel": 895, "tiempo_gpx_rel": "00:14:55", "desfase_s": 34, "seg_video": 929, "tiempo_video": "00:15:29", "punto_gpx": 896, "latitud": -32.943206666666697, "longitud": -68.734985, "elevacion": 706.5, "hora_gpx": "2026-07-13T19:21:01Z", "imagen": "frames/frame_000929.jpg" }, "geometry": { "type": "Point", "coordinates": [ -68.734985, -32.943206666666697 ] } },
{ "type": "Feature", "properties": { "seg_gpx_rel": 896, "tiempo_gpx_rel": "00:14:56", "desfase_s": 34, "seg_video": 930, "tiempo_video": "00:15:30", "punto_gpx": 897, "latitud": -32.9432616666667, "longitud": -68.734905, "elevacion": 706.3, "hora_gpx": "2026-07-13T19:21:02Z", "imagen": "frames/frame_000930.jpg" }, "geometry": { "type": "Point", "coordinates": [ -68.734905, -32.9432616666667 ] } },
{ "type": "Feature", "properties": { "seg_gpx_rel": 897, "tiempo_gpx_rel": "00:14:57", "desfase_s": 34, "seg_video": 931, "tiempo_video": "00:15:31", "punto_gpx": 898, "latitud": -32.943318333333302, "longitud": -68.734825, "elevacion": 706.2, "hora_gpx": "2026-07-13T19:21:03Z", "imagen": "frames/frame_000931.jpg" }, "geometry": { "type": "Point", "coordinates": [ -68.734825, -32.943318333333302 ] } },
{ "type": "Feature", "properties": { "seg_gpx_rel": 898, "tiempo_gpx_rel": "00:14:58", "desfase_s": 34, "seg_video": 932, "tiempo_video": "00:15:32", "punto_gpx": 899, "latitud": -32.943373333333298, "longitud": -68.734745, "elevacion": 706.3, "hora_gpx": "2026-07-13T19:21:04Z", "imagen": "frames/frame_000932.jpg" }, "geometry": { "type": "Point", "coordinates": [ -68.734745, -32.943373333333298 ] } },
{ "type": "Feature", "properties": { "seg_gpx_rel": 899, "tiempo_gpx_rel": "00:14:59", "desfase_s": 34, "seg_video": 933, "tiempo_video": "00:15:33", "punto_gpx": 900, "latitud": -32.94343, "longitud": -68.734665, "elevacion": 706.3, "hora_gpx": "2026-07-13T19:21:05Z", "imagen": "frames/frame_000933.jpg" }, "geometry": { "type": "Point", "coordinates": [ -68.734665, -32.94343 ] } },
{ "type": "Feature", "properties": { "seg_gpx_rel": 900, "tiempo_gpx_rel": "00:15:00", "desfase_s": 34, "seg_video": 934, "tiempo_video": "00:15:34", "punto_gpx": 901, "latitud": -32.943485, "longitud": -68.734586666666701, "elevacion": 706.2, "hora_gpx": "2026-07-13T19:21:06Z", "imagen": "frames/frame_000934.jpg" }, "geometry": { "type": "Point", "coordinates": [ -68.734586666666701, -32.943485 ] } },
{ "type": "Feature", "properties": { "seg_gpx_rel": 901, "tiempo_gpx_rel": "00:15:01", "desfase_s": 34, "seg_video": 935, "tiempo_video": "00:15:35", "punto_gpx": 902, "latitud": -32.943541666666697, "longitud": -68.734508333333295, "elevacion": 706.1, "hora_gpx": "2026-07-13T19:21:07Z", "imagen": "frames/frame_000935.jpg" }, "geometry": { "type": "Point", "coordinates": [ -68.734508333333295, -32.943541666666697 ] } },
{ "type": "Feature", "properties": { "seg_gpx_rel": 902, "tiempo_gpx_rel": "00:15:02", "desfase_s": 34, "seg_video": 936, "tiempo_video": "00:15:36", "punto_gpx": 903, "latitud": -32.9436, "longitud": -68.734428333333298, "elevacion": 706.1, "hora_gpx": "2026-07-13T19:21:08Z", "imagen": "frames/frame_000936.jpg" }, "geometry": { "type": "Point", "coordinates": [ -68.734428333333298, -32.9436 ] } },
{ "type": "Feature", "properties": { "seg_gpx_rel": 903, "tiempo_gpx_rel": "00:15:03", "desfase_s": 34, "seg_video": 937, "tiempo_video": "00:15:37", "punto_gpx": 904, "latitud": -32.943655, "longitud": -68.734351666666697, "elevacion": 706.0, "hora_gpx": "2026-07-13T19:21:09Z", "imagen": "frames/frame_000937.jpg" }, "geometry": { "type": "Point", "coordinates": [ -68.734351666666697, -32.943655 ] } },
{ "type": "Feature", "properties": { "seg_gpx_rel": 904, "tiempo_gpx_rel": "00:15:04", "desfase_s": 34, "seg_video": 938, "tiempo_video": "00:15:38", "punto_gpx": 905, "latitud": -32.94371, "longitud": -68.734273333333306, "elevacion": 706.0, "hora_gpx": "2026-07-13T19:21:10Z", "imagen": "frames/frame_000938.jpg" }, "geometry": { "type": "Point", "coordinates": [ -68.734273333333306, -32.94371 ] } },
{ "type": "Feature", "properties": { "seg_gpx_rel": 905, "tiempo_gpx_rel": "00:15:05", "desfase_s": 34, "seg_video": 939, "tiempo_video": "00:15:39", "punto_gpx": 906, "latitud": -32.943766666666697, "longitud": -68.734196666666705, "elevacion": 705.8, "hora_gpx": "2026-07-13T19:21:11Z", "imagen": "frames/frame_000939.jpg" }, "geometry": { "type": "Point", "coordinates": [ -68.734196666666705, -32.943766666666697 ] } },
{ "type": "Feature", "properties": { "seg_gpx_rel": 906, "tiempo_gpx_rel": "00:15:06", "desfase_s": 34, "seg_video": 940, "tiempo_video": "00:15:40", "punto_gpx": 907, "latitud": -32.9438216666667, "longitud": -68.734116666666694, "elevacion": 705.9, "hora_gpx": "2026-07-13T19:21:12Z", "imagen": "frames/frame_000940.jpg" }, "geometry": { "type": "Point", "coordinates": [ -68.734116666666694, -32.9438216666667 ] } },
{ "type": "Feature", "properties": { "seg_gpx_rel": 907, "tiempo_gpx_rel": "00:15:07", "desfase_s": 34, "seg_video": 941, "tiempo_video": "00:15:41", "punto_gpx": 908, "latitud": -32.943878333333302, "longitud": -68.734036666666697, "elevacion": 705.8, "hora_gpx": "2026-07-13T19:21:13Z", "imagen": "frames/frame_000941.jpg" }, "geometry": { "type": "Point", "coordinates": [ -68.734036666666697, -32.943878333333302 ] } },
{ "type": "Feature", "properties": { "seg_gpx_rel": 908, "tiempo_gpx_rel": "00:15:08", "desfase_s": 34, "seg_video": 942, "tiempo_video": "00:15:42", "punto_gpx": 909, "latitud": -32.943933333333298, "longitud": -68.733955, "elevacion": 705.9, "hora_gpx": "2026-07-13T19:21:14Z", "imagen": "frames/frame_000942.jpg" }, "geometry": { "type": "Point", "coordinates": [ -68.733955, -32.943933333333298 ] } },
{ "type": "Feature", "properties": { "seg_gpx_rel": 909, "tiempo_gpx_rel": "00:15:09", "desfase_s": 34, "seg_video": 943, "tiempo_video": "00:15:43", "punto_gpx": 910, "latitud": -32.943988333333301, "longitud": -68.733873333333307, "elevacion": 705.8, "hora_gpx": "2026-07-13T19:21:15Z", "imagen": "frames/frame_000943.jpg" }, "geometry": { "type": "Point", "coordinates": [ -68.733873333333307, -32.943988333333301 ] } },
{ "type": "Feature", "properties": { "seg_gpx_rel": 910, "tiempo_gpx_rel": "00:15:10", "desfase_s": 34, "seg_video": 944, "tiempo_video": "00:15:44", "punto_gpx": 911, "latitud": -32.944045, "longitud": -68.733791666666704, "elevacion": 706.0, "hora_gpx": "2026-07-13T19:21:16Z", "imagen": "frames/frame_000944.jpg" }, "geometry": { "type": "Point", "coordinates": [ -68.733791666666704, -32.944045 ] } },
{ "type": "Feature", "properties": { "seg_gpx_rel": 911, "tiempo_gpx_rel": "00:15:11", "desfase_s": 34, "seg_video": 945, "tiempo_video": "00:15:45", "punto_gpx": 912, "latitud": -32.944103333333302, "longitud": -68.733711666666693, "elevacion": 706.1, "hora_gpx": "2026-07-13T19:21:17Z", "imagen": "frames/frame_000945.jpg" }, "geometry": { "type": "Point", "coordinates": [ -68.733711666666693, -32.944103333333302 ] } },
{ "type": "Feature", "properties": { "seg_gpx_rel": 912, "tiempo_gpx_rel": "00:15:12", "desfase_s": 34, "seg_video": 946, "tiempo_video": "00:15:46", "punto_gpx": 913, "latitud": -32.9441633333333, "longitud": -68.733635, "elevacion": 706.2, "hora_gpx": "2026-07-13T19:21:18Z", "imagen": "frames/frame_000946.jpg" }, "geometry": { "type": "Point", "coordinates": [ -68.733635, -32.9441633333333 ] } },
{ "type": "Feature", "properties": { "seg_gpx_rel": 913, "tiempo_gpx_rel": "00:15:13", "desfase_s": 34, "seg_video": 947, "tiempo_video": "00:15:47", "punto_gpx": 914, "latitud": -32.944218333333303, "longitud": -68.733555, "elevacion": 706.1, "hora_gpx": "2026-07-13T19:21:19Z", "imagen": "frames/frame_000947.jpg" }, "geometry": { "type": "Point", "coordinates": [ -68.733555, -32.944218333333303 ] } },
{ "type": "Feature", "properties": { "seg_gpx_rel": 914, "tiempo_gpx_rel": "00:15:14", "desfase_s": 34, "seg_video": 948, "tiempo_video": "00:15:48", "punto_gpx": 915, "latitud": -32.944276666666703, "longitud": -68.733473333333293, "elevacion": 706.1, "hora_gpx": "2026-07-13T19:21:20Z", "imagen": "frames/frame_000948.jpg" }, "geometry": { "type": "Point", "coordinates": [ -68.733473333333293, -32.944276666666703 ] } },
{ "type": "Feature", "properties": { "seg_gpx_rel": 915, "tiempo_gpx_rel": "00:15:15", "desfase_s": 34, "seg_video": 949, "tiempo_video": "00:15:49", "punto_gpx": 916, "latitud": -32.944335, "longitud": -68.733388333333295, "elevacion": 706.1, "hora_gpx": "2026-07-13T19:21:21Z", "imagen": "frames/frame_000949.jpg" }, "geometry": { "type": "Point", "coordinates": [ -68.733388333333295, -32.944335 ] } },
{ "type": "Feature", "properties": { "seg_gpx_rel": 916, "tiempo_gpx_rel": "00:15:16", "desfase_s": 34, "seg_video": 950, "tiempo_video": "00:15:50", "punto_gpx": 917, "latitud": -32.944393333333302, "longitud": -68.7333, "elevacion": 706.2, "hora_gpx": "2026-07-13T19:21:22Z", "imagen": "frames/frame_000950.jpg" }, "geometry": { "type": "Point", "coordinates": [ -68.7333, -32.944393333333302 ] } },
{ "type": "Feature", "properties": { "seg_gpx_rel": 917, "tiempo_gpx_rel": "00:15:17", "desfase_s": 34, "seg_video": 951, "tiempo_video": "00:15:51", "punto_gpx": 918, "latitud": -32.944455, "longitud": -68.733211666666705, "elevacion": 706.1, "hora_gpx": "2026-07-13T19:21:23Z", "imagen": "frames/frame_000951.jpg" }, "geometry": { "type": "Point", "coordinates": [ -68.733211666666705, -32.944455 ] } },
{ "type": "Feature", "properties": { "seg_gpx_rel": 918, "tiempo_gpx_rel": "00:15:18", "desfase_s": 34, "seg_video": 952, "tiempo_video": "00:15:52", "punto_gpx": 919, "latitud": -32.944521666666702, "longitud": -68.733121666666605, "elevacion": 706.0, "hora_gpx": "2026-07-13T19:21:24Z", "imagen": "frames/frame_000952.jpg" }, "geometry": { "type": "Point", "coordinates": [ -68.733121666666605, -32.944521666666702 ] } },
{ "type": "Feature", "properties": { "seg_gpx_rel": 919, "tiempo_gpx_rel": "00:15:19", "desfase_s": 34, "seg_video": 953, "tiempo_video": "00:15:53", "punto_gpx": 920, "latitud": -32.9445883333333, "longitud": -68.73303, "elevacion": 705.9, "hora_gpx": "2026-07-13T19:21:25Z", "imagen": "frames/frame_000953.jpg" }, "geometry": { "type": "Point", "coordinates": [ -68.73303, -32.9445883333333 ] } },
{ "type": "Feature", "properties": { "seg_gpx_rel": 920, "tiempo_gpx_rel": "00:15:20", "desfase_s": 34, "seg_video": 954, "tiempo_video": "00:15:54", "punto_gpx": 921, "latitud": -32.944655, "longitud": -68.732941666666704, "elevacion": 705.8, "hora_gpx": "2026-07-13T19:21:26Z", "imagen": "frames/frame_000954.jpg" }, "geometry": { "type": "Point", "coordinates": [ -68.732941666666704, -32.944655 ] } },
{ "type": "Feature", "properties": { "seg_gpx_rel": 921, "tiempo_gpx_rel": "00:15:21", "desfase_s": 34, "seg_video": 955, "tiempo_video": "00:15:55", "punto_gpx": 922, "latitud": -32.94472, "longitud": -68.732851666666704, "elevacion": 705.9, "hora_gpx": "2026-07-13T19:21:27Z", "imagen": "frames/frame_000955.jpg" }, "geometry": { "type": "Point", "coordinates": [ -68.732851666666704, -32.94472 ] } },
{ "type": "Feature", "properties": { "seg_gpx_rel": 922, "tiempo_gpx_rel": "00:15:22", "desfase_s": 34, "seg_video": 956, "tiempo_video": "00:15:56", "punto_gpx": 923, "latitud": -32.944781666666699, "longitud": -68.732763333333295, "elevacion": 706.2, "hora_gpx": "2026-07-13T19:21:28Z", "imagen": "frames/frame_000956.jpg" }, "geometry": { "type": "Point", "coordinates": [ -68.732763333333295, -32.944781666666699 ] } },
{ "type": "Feature", "properties": { "seg_gpx_rel": 923, "tiempo_gpx_rel": "00:15:23", "desfase_s": 34, "seg_video": 957, "tiempo_video": "00:15:57", "punto_gpx": 924, "latitud": -32.944841666666697, "longitud": -68.732678333333297, "elevacion": 706.4, "hora_gpx": "2026-07-13T19:21:29Z", "imagen": "frames/frame_000957.jpg" }, "geometry": { "type": "Point", "coordinates": [ -68.732678333333297, -32.944841666666697 ] } },
{ "type": "Feature", "properties": { "seg_gpx_rel": 924, "tiempo_gpx_rel": "00:15:24", "desfase_s": 34, "seg_video": 958, "tiempo_video": "00:15:58", "punto_gpx": 925, "latitud": -32.944901666666702, "longitud": -68.732596666666694, "elevacion": 706.4, "hora_gpx": "2026-07-13T19:21:30Z", "imagen": "frames/frame_000958.jpg" }, "geometry": { "type": "Point", "coordinates": [ -68.732596666666694, -32.944901666666702 ] } },
{ "type": "Feature", "properties": { "seg_gpx_rel": 925, "tiempo_gpx_rel": "00:15:25", "desfase_s": 34, "seg_video": 959, "tiempo_video": "00:15:59", "punto_gpx": 926, "latitud": -32.94496, "longitud": -68.732516666666697, "elevacion": 706.4, "hora_gpx": "2026-07-13T19:21:31Z", "imagen": "frames/frame_000959.jpg" }, "geometry": { "type": "Point", "coordinates": [ -68.732516666666697, -32.94496 ] } },
{ "type": "Feature", "properties": { "seg_gpx_rel": 926, "tiempo_gpx_rel": "00:15:26", "desfase_s": 34, "seg_video": 960, "tiempo_video": "00:16:00", "punto_gpx": 927, "latitud": -32.945016666666703, "longitud": -68.732438333333306, "elevacion": 706.4, "hora_gpx": "2026-07-13T19:21:32Z", "imagen": "frames/frame_000960.jpg" }, "geometry": { "type": "Point", "coordinates": [ -68.732438333333306, -32.945016666666703 ] } },
{ "type": "Feature", "properties": { "seg_gpx_rel": 927, "tiempo_gpx_rel": "00:15:27", "desfase_s": 34, "seg_video": 961, "tiempo_video": "00:16:01", "punto_gpx": 928, "latitud": -32.945073333333298, "longitud": -68.732363333333296, "elevacion": 706.3, "hora_gpx": "2026-07-13T19:21:33Z", "imagen": "frames/frame_000961.jpg" }, "geometry": { "type": "Point", "coordinates": [ -68.732363333333296, -32.945073333333298 ] } },
{ "type": "Feature", "properties": { "seg_gpx_rel": 928, "tiempo_gpx_rel": "00:15:28", "desfase_s": 34, "seg_video": 962, "tiempo_video": "00:16:02", "punto_gpx": 929, "latitud": -32.94513, "longitud": -68.732291666666697, "elevacion": 706.2, "hora_gpx": "2026-07-13T19:21:34Z", "imagen": "frames/frame_000962.jpg" }, "geometry": { "type": "Point", "coordinates": [ -68.732291666666697, -32.94513 ] } },
{ "type": "Feature", "properties": { "seg_gpx_rel": 929, "tiempo_gpx_rel": "00:15:29", "desfase_s": 34, "seg_video": 963, "tiempo_video": "00:16:03", "punto_gpx": 930, "latitud": -32.945185, "longitud": -68.732223333333295, "elevacion": 705.8, "hora_gpx": "2026-07-13T19:21:35Z", "imagen": "frames/frame_000963.jpg" }, "geometry": { "type": "Point", "coordinates": [ -68.732223333333295, -32.945185 ] } },
{ "type": "Feature", "properties": { "seg_gpx_rel": 930, "tiempo_gpx_rel": "00:15:30", "desfase_s": 34, "seg_video": 964, "tiempo_video": "00:16:04", "punto_gpx": 931, "latitud": -32.9452383333333, "longitud": -68.732155, "elevacion": 705.8, "hora_gpx": "2026-07-13T19:21:36Z", "imagen": "frames/frame_000964.jpg" }, "geometry": { "type": "Point", "coordinates": [ -68.732155, -32.9452383333333 ] } },
{ "type": "Feature", "properties": { "seg_gpx_rel": 931, "tiempo_gpx_rel": "00:15:31", "desfase_s": 34, "seg_video": 965, "tiempo_video": "00:16:05", "punto_gpx": 932, "latitud": -32.945288333333302, "longitud": -68.732088333333294, "elevacion": 705.7, "hora_gpx": "2026-07-13T19:21:37Z", "imagen": "frames/frame_000965.jpg" }, "geometry": { "type": "Point", "coordinates": [ -68.732088333333294, -32.945288333333302 ] } },
{ "type": "Feature", "properties": { "seg_gpx_rel": 932, "tiempo_gpx_rel": "00:15:32", "desfase_s": 34, "seg_video": 966, "tiempo_video": "00:16:06", "punto_gpx": 933, "latitud": -32.945336666666698, "longitud": -68.73202, "elevacion": 705.8, "hora_gpx": "2026-07-13T19:21:38Z", "imagen": "frames/frame_000966.jpg" }, "geometry": { "type": "Point", "coordinates": [ -68.73202, -32.945336666666698 ] } },
{ "type": "Feature", "properties": { "seg_gpx_rel": 933, "tiempo_gpx_rel": "00:15:33", "desfase_s": 34, "seg_video": 967, "tiempo_video": "00:16:07", "punto_gpx": 934, "latitud": -32.945381666666698, "longitud": -68.731953333333294, "elevacion": 705.8, "hora_gpx": "2026-07-13T19:21:39Z", "imagen": "frames/frame_000967.jpg" }, "geometry": { "type": "Point", "coordinates": [ -68.731953333333294, -32.945381666666698 ] } },
{ "type": "Feature", "properties": { "seg_gpx_rel": 934, "tiempo_gpx_rel": "00:15:34", "desfase_s": 34, "seg_video": 968, "tiempo_video": "00:16:08", "punto_gpx": 935, "latitud": -32.945425, "longitud": -68.731888333333302, "elevacion": 705.7, "hora_gpx": "2026-07-13T19:21:40Z", "imagen": "frames/frame_000968.jpg" }, "geometry": { "type": "Point", "coordinates": [ -68.731888333333302, -32.945425 ] } },
{ "type": "Feature", "properties": { "seg_gpx_rel": 935, "tiempo_gpx_rel": "00:15:35", "desfase_s": 34, "seg_video": 969, "tiempo_video": "00:16:09", "punto_gpx": 936, "latitud": -32.945466666666697, "longitud": -68.731825, "elevacion": 705.6, "hora_gpx": "2026-07-13T19:21:41Z", "imagen": "frames/frame_000969.jpg" }, "geometry": { "type": "Point", "coordinates": [ -68.731825, -32.945466666666697 ] } },
{ "type": "Feature", "properties": { "seg_gpx_rel": 936, "tiempo_gpx_rel": "00:15:36", "desfase_s": 34, "seg_video": 970, "tiempo_video": "00:16:10", "punto_gpx": 937, "latitud": -32.94551, "longitud": -68.731763333333305, "elevacion": 705.4, "hora_gpx": "2026-07-13T19:21:42Z", "imagen": "frames/frame_000970.jpg" }, "geometry": { "type": "Point", "coordinates": [ -68.731763333333305, -32.94551 ] } },
{ "type": "Feature", "properties": { "seg_gpx_rel": 937, "tiempo_gpx_rel": "00:15:37", "desfase_s": 34, "seg_video": 971, "tiempo_video": "00:16:11", "punto_gpx": 938, "latitud": -32.945553333333301, "longitud": -68.731701666666694, "elevacion": 705.4, "hora_gpx": "2026-07-13T19:21:43Z", "imagen": "frames/frame_000971.jpg" }, "geometry": { "type": "Point", "coordinates": [ -68.731701666666694, -32.945553333333301 ] } },
{ "type": "Feature", "properties": { "seg_gpx_rel": 938, "tiempo_gpx_rel": "00:15:38", "desfase_s": 34, "seg_video": 972, "tiempo_video": "00:16:12", "punto_gpx": 939, "latitud": -32.945596666666702, "longitud": -68.73164, "elevacion": 705.3, "hora_gpx": "2026-07-13T19:21:44Z", "imagen": "frames/frame_000972.jpg" }, "geometry": { "type": "Point", "coordinates": [ -68.73164, -32.945596666666702 ] } },
{ "type": "Feature", "properties": { "seg_gpx_rel": 939, "tiempo_gpx_rel": "00:15:39", "desfase_s": 34, "seg_video": 973, "tiempo_video": "00:16:13", "punto_gpx": 940, "latitud": -32.94564, "longitud": -68.731578333333303, "elevacion": 705.3, "hora_gpx": "2026-07-13T19:21:45Z", "imagen": "frames/frame_000973.jpg" }, "geometry": { "type": "Point", "coordinates": [ -68.731578333333303, -32.94564 ] } },
{ "type": "Feature", "properties": { "seg_gpx_rel": 940, "tiempo_gpx_rel": "00:15:40", "desfase_s": 34, "seg_video": 974, "tiempo_video": "00:16:14", "punto_gpx": 941, "latitud": -32.945681666666701, "longitud": -68.731518333333298, "elevacion": 705.3, "hora_gpx": "2026-07-13T19:21:46Z", "imagen": "frames/frame_000974.jpg" }, "geometry": { "type": "Point", "coordinates": [ -68.731518333333298, -32.945681666666701 ] } },
{ "type": "Feature", "properties": { "seg_gpx_rel": 941, "tiempo_gpx_rel": "00:15:41", "desfase_s": 34, "seg_video": 975, "tiempo_video": "00:16:15", "punto_gpx": 942, "latitud": -32.945721666666699, "longitud": -68.73146, "elevacion": 705.2, "hora_gpx": "2026-07-13T19:21:47Z", "imagen": "frames/frame_000975.jpg" }, "geometry": { "type": "Point", "coordinates": [ -68.73146, -32.945721666666699 ] } },
{ "type": "Feature", "properties": { "seg_gpx_rel": 942, "tiempo_gpx_rel": "00:15:42", "desfase_s": 34, "seg_video": 976, "tiempo_video": "00:16:16", "punto_gpx": 943, "latitud": -32.945763333333304, "longitud": -68.731401666666699, "elevacion": 705.2, "hora_gpx": "2026-07-13T19:21:48Z", "imagen": "frames/frame_000976.jpg" }, "geometry": { "type": "Point", "coordinates": [ -68.731401666666699, -32.945763333333304 ] } },
{ "type": "Feature", "properties": { "seg_gpx_rel": 943, "tiempo_gpx_rel": "00:15:43", "desfase_s": 34, "seg_video": 977, "tiempo_video": "00:16:17", "punto_gpx": 944, "latitud": -32.945803333333302, "longitud": -68.731341666666694, "elevacion": 705.2, "hora_gpx": "2026-07-13T19:21:49Z", "imagen": "frames/frame_000977.jpg" }, "geometry": { "type": "Point", "coordinates": [ -68.731341666666694, -32.945803333333302 ] } },
{ "type": "Feature", "properties": { "seg_gpx_rel": 944, "tiempo_gpx_rel": "00:15:44", "desfase_s": 34, "seg_video": 978, "tiempo_video": "00:16:18", "punto_gpx": 945, "latitud": -32.945845, "longitud": -68.731281666666703, "elevacion": 705.2, "hora_gpx": "2026-07-13T19:21:50Z", "imagen": "frames/frame_000978.jpg" }, "geometry": { "type": "Point", "coordinates": [ -68.731281666666703, -32.945845 ] } },
{ "type": "Feature", "properties": { "seg_gpx_rel": 945, "tiempo_gpx_rel": "00:15:45", "desfase_s": 34, "seg_video": 979, "tiempo_video": "00:16:19", "punto_gpx": 946, "latitud": -32.945888333333301, "longitud": -68.731221666666698, "elevacion": 705.2, "hora_gpx": "2026-07-13T19:21:51Z", "imagen": "frames/frame_000979.jpg" }, "geometry": { "type": "Point", "coordinates": [ -68.731221666666698, -32.945888333333301 ] } },
{ "type": "Feature", "properties": { "seg_gpx_rel": 946, "tiempo_gpx_rel": "00:15:46", "desfase_s": 34, "seg_video": 980, "tiempo_video": "00:16:20", "punto_gpx": 947, "latitud": -32.945931666666702, "longitud": -68.73116, "elevacion": 705.3, "hora_gpx": "2026-07-13T19:21:52Z", "imagen": "frames/frame_000980.jpg" }, "geometry": { "type": "Point", "coordinates": [ -68.73116, -32.945931666666702 ] } },
{ "type": "Feature", "properties": { "seg_gpx_rel": 947, "tiempo_gpx_rel": "00:15:47", "desfase_s": 34, "seg_video": 981, "tiempo_video": "00:16:21", "punto_gpx": 948, "latitud": -32.945975, "longitud": -68.731096666666602, "elevacion": 705.4, "hora_gpx": "2026-07-13T19:21:53Z", "imagen": "frames/frame_000981.jpg" }, "geometry": { "type": "Point", "coordinates": [ -68.731096666666602, -32.945975 ] } },
{ "type": "Feature", "properties": { "seg_gpx_rel": 948, "tiempo_gpx_rel": "00:15:48", "desfase_s": 34, "seg_video": 982, "tiempo_video": "00:16:22", "punto_gpx": 949, "latitud": -32.94602, "longitud": -68.731033333333301, "elevacion": 705.3, "hora_gpx": "2026-07-13T19:21:54Z", "imagen": "frames/frame_000982.jpg" }, "geometry": { "type": "Point", "coordinates": [ -68.731033333333301, -32.94602 ] } },
{ "type": "Feature", "properties": { "seg_gpx_rel": 949, "tiempo_gpx_rel": "00:15:49", "desfase_s": 34, "seg_video": 983, "tiempo_video": "00:16:23", "punto_gpx": 950, "latitud": -32.946066666666702, "longitud": -68.73097, "elevacion": 705.4, "hora_gpx": "2026-07-13T19:21:55Z", "imagen": "frames/frame_000983.jpg" }, "geometry": { "type": "Point", "coordinates": [ -68.73097, -32.946066666666702 ] } },
{ "type": "Feature", "properties": { "seg_gpx_rel": 950, "tiempo_gpx_rel": "00:15:50", "desfase_s": 34, "seg_video": 984, "tiempo_video": "00:16:24", "punto_gpx": 951, "latitud": -32.946111666666702, "longitud": -68.730905, "elevacion": 705.4, "hora_gpx": "2026-07-13T19:21:56Z", "imagen": "frames/frame_000984.jpg" }, "geometry": { "type": "Point", "coordinates": [ -68.730905, -32.946111666666702 ] } },
{ "type": "Feature", "properties": { "seg_gpx_rel": 951, "tiempo_gpx_rel": "00:15:51", "desfase_s": 34, "seg_video": 985, "tiempo_video": "00:16:25", "punto_gpx": 952, "latitud": -32.946158333333301, "longitud": -68.73084, "elevacion": 705.5, "hora_gpx": "2026-07-13T19:21:57Z", "imagen": "frames/frame_000985.jpg" }, "geometry": { "type": "Point", "coordinates": [ -68.73084, -32.946158333333301 ] } },
{ "type": "Feature", "properties": { "seg_gpx_rel": 952, "tiempo_gpx_rel": "00:15:52", "desfase_s": 34, "seg_video": 986, "tiempo_video": "00:16:26", "punto_gpx": 953, "latitud": -32.946201666666703, "longitud": -68.730776666666699, "elevacion": 705.5, "hora_gpx": "2026-07-13T19:21:58Z", "imagen": "frames/frame_000986.jpg" }, "geometry": { "type": "Point", "coordinates": [ -68.730776666666699, -32.946201666666703 ] } },
{ "type": "Feature", "properties": { "seg_gpx_rel": 953, "tiempo_gpx_rel": "00:15:53", "desfase_s": 34, "seg_video": 987, "tiempo_video": "00:16:27", "punto_gpx": 954, "latitud": -32.94625, "longitud": -68.73071, "elevacion": 705.5, "hora_gpx": "2026-07-13T19:21:59Z", "imagen": "frames/frame_000987.jpg" }, "geometry": { "type": "Point", "coordinates": [ -68.73071, -32.94625 ] } },
{ "type": "Feature", "properties": { "seg_gpx_rel": 954, "tiempo_gpx_rel": "00:15:54", "desfase_s": 34, "seg_video": 988, "tiempo_video": "00:16:28", "punto_gpx": 955, "latitud": -32.9463, "longitud": -68.730641666666699, "elevacion": 705.4, "hora_gpx": "2026-07-13T19:22:00Z", "imagen": "frames/frame_000988.jpg" }, "geometry": { "type": "Point", "coordinates": [ -68.730641666666699, -32.9463 ] } },
{ "type": "Feature", "properties": { "seg_gpx_rel": 955, "tiempo_gpx_rel": "00:15:55", "desfase_s": 34, "seg_video": 989, "tiempo_video": "00:16:29", "punto_gpx": 956, "latitud": -32.946355, "longitud": -68.730568333333295, "elevacion": 705.4, "hora_gpx": "2026-07-13T19:22:01Z", "imagen": "frames/frame_000989.jpg" }, "geometry": { "type": "Point", "coordinates": [ -68.730568333333295, -32.946355 ] } },
{ "type": "Feature", "properties": { "seg_gpx_rel": 956, "tiempo_gpx_rel": "00:15:56", "desfase_s": 34, "seg_video": 990, "tiempo_video": "00:16:30", "punto_gpx": 957, "latitud": -32.94641, "longitud": -68.730491666666694, "elevacion": 705.4, "hora_gpx": "2026-07-13T19:22:02Z", "imagen": "frames/frame_000990.jpg" }, "geometry": { "type": "Point", "coordinates": [ -68.730491666666694, -32.94641 ] } },
{ "type": "Feature", "properties": { "seg_gpx_rel": 957, "tiempo_gpx_rel": "00:15:57", "desfase_s": 34, "seg_video": 991, "tiempo_video": "00:16:31", "punto_gpx": 958, "latitud": -32.9464683333333, "longitud": -68.730411666666697, "elevacion": 705.0, "hora_gpx": "2026-07-13T19:22:03Z", "imagen": "frames/frame_000991.jpg" }, "geometry": { "type": "Point", "coordinates": [ -68.730411666666697, -32.9464683333333 ] } },
{ "type": "Feature", "properties": { "seg_gpx_rel": 958, "tiempo_gpx_rel": "00:15:58", "desfase_s": 34, "seg_video": 992, "tiempo_video": "00:16:32", "punto_gpx": 959, "latitud": -32.946528333333298, "longitud": -68.730328333333304, "elevacion": 704.8, "hora_gpx": "2026-07-13T19:22:04Z", "imagen": "frames/frame_000992.jpg" }, "geometry": { "type": "Point", "coordinates": [ -68.730328333333304, -32.946528333333298 ] } },
{ "type": "Feature", "properties": { "seg_gpx_rel": 959, "tiempo_gpx_rel": "00:15:59", "desfase_s": 34, "seg_video": 993, "tiempo_video": "00:16:33", "punto_gpx": 960, "latitud": -32.94659, "longitud": -68.730243333333306, "elevacion": 704.8, "hora_gpx": "2026-07-13T19:22:05Z", "imagen": "frames/frame_000993.jpg" }, "geometry": { "type": "Point", "coordinates": [ -68.730243333333306, -32.94659 ] } },
{ "type": "Feature", "properties": { "seg_gpx_rel": 960, "tiempo_gpx_rel": "00:16:00", "desfase_s": 34, "seg_video": 994, "tiempo_video": "00:16:34", "punto_gpx": 961, "latitud": -32.946653333333302, "longitud": -68.730155, "elevacion": 704.7, "hora_gpx": "2026-07-13T19:22:06Z", "imagen": "frames/frame_000994.jpg" }, "geometry": { "type": "Point", "coordinates": [ -68.730155, -32.946653333333302 ] } },
{ "type": "Feature", "properties": { "seg_gpx_rel": 961, "tiempo_gpx_rel": "00:16:01", "desfase_s": 34, "seg_video": 995, "tiempo_video": "00:16:35", "punto_gpx": 962, "latitud": -32.946718333333301, "longitud": -68.73007, "elevacion": 704.6, "hora_gpx": "2026-07-13T19:22:07Z", "imagen": "frames/frame_000995.jpg" }, "geometry": { "type": "Point", "coordinates": [ -68.73007, -32.946718333333301 ] } },
{ "type": "Feature", "properties": { "seg_gpx_rel": 962, "tiempo_gpx_rel": "00:16:02", "desfase_s": 34, "seg_video": 996, "tiempo_video": "00:16:36", "punto_gpx": 963, "latitud": -32.946781666666702, "longitud": -68.729985, "elevacion": 704.7, "hora_gpx": "2026-07-13T19:22:08Z", "imagen": "frames/frame_000996.jpg" }, "geometry": { "type": "Point", "coordinates": [ -68.729985, -32.946781666666702 ] } },
{ "type": "Feature", "properties": { "seg_gpx_rel": 963, "tiempo_gpx_rel": "00:16:03", "desfase_s": 34, "seg_video": 997, "tiempo_video": "00:16:37", "punto_gpx": 964, "latitud": -32.946846666666701, "longitud": -68.729898333333296, "elevacion": 704.7, "hora_gpx": "2026-07-13T19:22:09Z", "imagen": "frames/frame_000997.jpg" }, "geometry": { "type": "Point", "coordinates": [ -68.729898333333296, -32.946846666666701 ] } },
{ "type": "Feature", "properties": { "seg_gpx_rel": 964, "tiempo_gpx_rel": "00:16:04", "desfase_s": 34, "seg_video": 998, "tiempo_video": "00:16:38", "punto_gpx": 965, "latitud": -32.94691, "longitud": -68.729813333333297, "elevacion": 704.6, "hora_gpx": "2026-07-13T19:22:10Z", "imagen": "frames/frame_000998.jpg" }, "geometry": { "type": "Point", "coordinates": [ -68.729813333333297, -32.94691 ] } },
{ "type": "Feature", "properties": { "seg_gpx_rel": 965, "tiempo_gpx_rel": "00:16:05", "desfase_s": 34, "seg_video": 999, "tiempo_video": "00:16:39", "punto_gpx": 966, "latitud": -32.946973333333297, "longitud": -68.729726666666707, "elevacion": 704.6, "hora_gpx": "2026-07-13T19:22:11Z", "imagen": "frames/frame_000999.jpg" }, "geometry": { "type": "Point", "coordinates": [ -68.729726666666707, -32.946973333333297 ] } },
{ "type": "Feature", "properties": { "seg_gpx_rel": 966, "tiempo_gpx_rel": "00:16:06", "desfase_s": 34, "seg_video": 1000, "tiempo_video": "00:16:40", "punto_gpx": 967, "latitud": -32.947035, "longitud": -68.729638333333298, "elevacion": 704.7, "hora_gpx": "2026-07-13T19:22:12Z", "imagen": "frames/frame_001000.jpg" }, "geometry": { "type": "Point", "coordinates": [ -68.729638333333298, -32.947035 ] } },
{ "type": "Feature", "properties": { "seg_gpx_rel": 967, "tiempo_gpx_rel": "00:16:07", "desfase_s": 34, "seg_video": 1001, "tiempo_video": "00:16:41", "punto_gpx": 968, "latitud": -32.947098333333301, "longitud": -68.729551666666694, "elevacion": 704.6, "hora_gpx": "2026-07-13T19:22:13Z", "imagen": "frames/frame_001001.jpg" }, "geometry": { "type": "Point", "coordinates": [ -68.729551666666694, -32.947098333333301 ] } },
{ "type": "Feature", "properties": { "seg_gpx_rel": 968, "tiempo_gpx_rel": "00:16:08", "desfase_s": 34, "seg_video": 1002, "tiempo_video": "00:16:42", "punto_gpx": 969, "latitud": -32.94716, "longitud": -68.729465, "elevacion": 704.6, "hora_gpx": "2026-07-13T19:22:14Z", "imagen": "frames/frame_001002.jpg" }, "geometry": { "type": "Point", "coordinates": [ -68.729465, -32.94716 ] } },
{ "type": "Feature", "properties": { "seg_gpx_rel": 969, "tiempo_gpx_rel": "00:16:09", "desfase_s": 34, "seg_video": 1003, "tiempo_video": "00:16:43", "punto_gpx": 970, "latitud": -32.94722, "longitud": -68.72938, "elevacion": 704.5, "hora_gpx": "2026-07-13T19:22:15Z", "imagen": "frames/frame_001003.jpg" }, "geometry": { "type": "Point", "coordinates": [ -68.72938, -32.94722 ] } },
{ "type": "Feature", "properties": { "seg_gpx_rel": 970, "tiempo_gpx_rel": "00:16:10", "desfase_s": 34, "seg_video": 1004, "tiempo_video": "00:16:44", "punto_gpx": 971, "latitud": -32.94728, "longitud": -68.729296666666698, "elevacion": 704.4, "hora_gpx": "2026-07-13T19:22:16Z", "imagen": "frames/frame_001004.jpg" }, "geometry": { "type": "Point", "coordinates": [ -68.729296666666698, -32.94728 ] } },
{ "type": "Feature", "properties": { "seg_gpx_rel": 971, "tiempo_gpx_rel": "00:16:11", "desfase_s": 34, "seg_video": 1005, "tiempo_video": "00:16:45", "punto_gpx": 972, "latitud": -32.947338333333299, "longitud": -68.729216666666701, "elevacion": 704.5, "hora_gpx": "2026-07-13T19:22:17Z", "imagen": "frames/frame_001005.jpg" }, "geometry": { "type": "Point", "coordinates": [ -68.729216666666701, -32.947338333333299 ] } },
{ "type": "Feature", "properties": { "seg_gpx_rel": 972, "tiempo_gpx_rel": "00:16:12", "desfase_s": 34, "seg_video": 1006, "tiempo_video": "00:16:46", "punto_gpx": 973, "latitud": -32.947396666666698, "longitud": -68.729138333333296, "elevacion": 704.4, "hora_gpx": "2026-07-13T19:22:18Z", "imagen": "frames/frame_001006.jpg" }, "geometry": { "type": "Point", "coordinates": [ -68.729138333333296, -32.947396666666698 ] } },
{ "type": "Feature", "properties": { "seg_gpx_rel": 973, "tiempo_gpx_rel": "00:16:13", "desfase_s": 34, "seg_video": 1007, "tiempo_video": "00:16:47", "punto_gpx": 974, "latitud": -32.947455, "longitud": -68.72906, "elevacion": 704.4, "hora_gpx": "2026-07-13T19:22:19Z", "imagen": "frames/frame_001007.jpg" }, "geometry": { "type": "Point", "coordinates": [ -68.72906, -32.947455 ] } },
{ "type": "Feature", "properties": { "seg_gpx_rel": 974, "tiempo_gpx_rel": "00:16:14", "desfase_s": 34, "seg_video": 1008, "tiempo_video": "00:16:48", "punto_gpx": 975, "latitud": -32.947511666666699, "longitud": -68.728983333333304, "elevacion": 704.4, "hora_gpx": "2026-07-13T19:22:20Z", "imagen": "frames/frame_001008.jpg" }, "geometry": { "type": "Point", "coordinates": [ -68.728983333333304, -32.947511666666699 ] } },
{ "type": "Feature", "properties": { "seg_gpx_rel": 975, "tiempo_gpx_rel": "00:16:15", "desfase_s": 34, "seg_video": 1009, "tiempo_video": "00:16:49", "punto_gpx": 976, "latitud": -32.947565, "longitud": -68.72891, "elevacion": 704.4, "hora_gpx": "2026-07-13T19:22:21Z", "imagen": "frames/frame_001009.jpg" }, "geometry": { "type": "Point", "coordinates": [ -68.72891, -32.947565 ] } },
{ "type": "Feature", "properties": { "seg_gpx_rel": 976, "tiempo_gpx_rel": "00:16:16", "desfase_s": 34, "seg_video": 1010, "tiempo_video": "00:16:50", "punto_gpx": 977, "latitud": -32.947618333333303, "longitud": -68.728836666666695, "elevacion": 704.7, "hora_gpx": "2026-07-13T19:22:22Z", "imagen": "frames/frame_001010.jpg" }, "geometry": { "type": "Point", "coordinates": [ -68.728836666666695, -32.947618333333303 ] } },
{ "type": "Feature", "properties": { "seg_gpx_rel": 977, "tiempo_gpx_rel": "00:16:17", "desfase_s": 34, "seg_video": 1011, "tiempo_video": "00:16:51", "punto_gpx": 978, "latitud": -32.94767, "longitud": -68.728766666666701, "elevacion": 704.8, "hora_gpx": "2026-07-13T19:22:23Z", "imagen": "frames/frame_001011.jpg" }, "geometry": { "type": "Point", "coordinates": [ -68.728766666666701, -32.94767 ] } },
{ "type": "Feature", "properties": { "seg_gpx_rel": 978, "tiempo_gpx_rel": "00:16:18", "desfase_s": 34, "seg_video": 1012, "tiempo_video": "00:16:52", "punto_gpx": 979, "latitud": -32.94772, "longitud": -68.728696666666707, "elevacion": 705.2, "hora_gpx": "2026-07-13T19:22:24Z", "imagen": "frames/frame_001012.jpg" }, "geometry": { "type": "Point", "coordinates": [ -68.728696666666707, -32.94772 ] } },
{ "type": "Feature", "properties": { "seg_gpx_rel": 979, "tiempo_gpx_rel": "00:16:19", "desfase_s": 34, "seg_video": 1013, "tiempo_video": "00:16:53", "punto_gpx": 980, "latitud": -32.94777, "longitud": -68.728628333333305, "elevacion": 705.3, "hora_gpx": "2026-07-13T19:22:25Z", "imagen": "frames/frame_001013.jpg" }, "geometry": { "type": "Point", "coordinates": [ -68.728628333333305, -32.94777 ] } },
{ "type": "Feature", "properties": { "seg_gpx_rel": 980, "tiempo_gpx_rel": "00:16:20", "desfase_s": 34, "seg_video": 1014, "tiempo_video": "00:16:54", "punto_gpx": 981, "latitud": -32.947816666666697, "longitud": -68.728561666666707, "elevacion": 705.4, "hora_gpx": "2026-07-13T19:22:26Z", "imagen": "frames/frame_001014.jpg" }, "geometry": { "type": "Point", "coordinates": [ -68.728561666666707, -32.947816666666697 ] } },
{ "type": "Feature", "properties": { "seg_gpx_rel": 981, "tiempo_gpx_rel": "00:16:21", "desfase_s": 34, "seg_video": 1015, "tiempo_video": "00:16:55", "punto_gpx": 982, "latitud": -32.947863333333302, "longitud": -68.728495, "elevacion": 705.4, "hora_gpx": "2026-07-13T19:22:27Z", "imagen": "frames/frame_001015.jpg" }, "geometry": { "type": "Point", "coordinates": [ -68.728495, -32.947863333333302 ] } },
{ "type": "Feature", "properties": { "seg_gpx_rel": 982, "tiempo_gpx_rel": "00:16:22", "desfase_s": 34, "seg_video": 1016, "tiempo_video": "00:16:56", "punto_gpx": 983, "latitud": -32.94791, "longitud": -68.728428333333397, "elevacion": 705.4, "hora_gpx": "2026-07-13T19:22:28Z", "imagen": "frames/frame_001016.jpg" }, "geometry": { "type": "Point", "coordinates": [ -68.728428333333397, -32.94791 ] } },
{ "type": "Feature", "properties": { "seg_gpx_rel": 983, "tiempo_gpx_rel": "00:16:23", "desfase_s": 34, "seg_video": 1017, "tiempo_video": "00:16:57", "punto_gpx": 984, "latitud": -32.947956666666698, "longitud": -68.72836, "elevacion": 705.4, "hora_gpx": "2026-07-13T19:22:29Z", "imagen": "frames/frame_001017.jpg" }, "geometry": { "type": "Point", "coordinates": [ -68.72836, -32.947956666666698 ] } },
{ "type": "Feature", "properties": { "seg_gpx_rel": 984, "tiempo_gpx_rel": "00:16:24", "desfase_s": 34, "seg_video": 1018, "tiempo_video": "00:16:58", "punto_gpx": 985, "latitud": -32.948003333333297, "longitud": -68.728291666666706, "elevacion": 705.4, "hora_gpx": "2026-07-13T19:22:30Z", "imagen": "frames/frame_001018.jpg" }, "geometry": { "type": "Point", "coordinates": [ -68.728291666666706, -32.948003333333297 ] } },
{ "type": "Feature", "properties": { "seg_gpx_rel": 985, "tiempo_gpx_rel": "00:16:25", "desfase_s": 34, "seg_video": 1019, "tiempo_video": "00:16:59", "punto_gpx": 986, "latitud": -32.94805, "longitud": -68.728225, "elevacion": 705.2, "hora_gpx": "2026-07-13T19:22:31Z", "imagen": "frames/frame_001019.jpg" }, "geometry": { "type": "Point", "coordinates": [ -68.728225, -32.94805 ] } },
{ "type": "Feature", "properties": { "seg_gpx_rel": 986, "tiempo_gpx_rel": "00:16:26", "desfase_s": 34, "seg_video": 1020, "tiempo_video": "00:17:00", "punto_gpx": 987, "latitud": -32.9480966666667, "longitud": -68.728156666666706, "elevacion": 705.4, "hora_gpx": "2026-07-13T19:22:32Z", "imagen": "frames/frame_001020.jpg" }, "geometry": { "type": "Point", "coordinates": [ -68.728156666666706, -32.9480966666667 ] } },
{ "type": "Feature", "properties": { "seg_gpx_rel": 987, "tiempo_gpx_rel": "00:16:27", "desfase_s": 34, "seg_video": 1021, "tiempo_video": "00:17:01", "punto_gpx": 988, "latitud": -32.948143333333299, "longitud": -68.728088333333304, "elevacion": 705.3, "hora_gpx": "2026-07-13T19:22:33Z", "imagen": "frames/frame_001021.jpg" }, "geometry": { "type": "Point", "coordinates": [ -68.728088333333304, -32.948143333333299 ] } },
{ "type": "Feature", "properties": { "seg_gpx_rel": 988, "tiempo_gpx_rel": "00:16:28", "desfase_s": 34, "seg_video": 1022, "tiempo_video": "00:17:02", "punto_gpx": 989, "latitud": -32.94819, "longitud": -68.728021666666706, "elevacion": 705.3, "hora_gpx": "2026-07-13T19:22:34Z", "imagen": "frames/frame_001022.jpg" }, "geometry": { "type": "Point", "coordinates": [ -68.728021666666706, -32.94819 ] } },
{ "type": "Feature", "properties": { "seg_gpx_rel": 989, "tiempo_gpx_rel": "00:16:29", "desfase_s": 34, "seg_video": 1023, "tiempo_video": "00:17:03", "punto_gpx": 990, "latitud": -32.94824, "longitud": -68.727955, "elevacion": 705.3, "hora_gpx": "2026-07-13T19:22:35Z", "imagen": "frames/frame_001023.jpg" }, "geometry": { "type": "Point", "coordinates": [ -68.727955, -32.94824 ] } },
{ "type": "Feature", "properties": { "seg_gpx_rel": 990, "tiempo_gpx_rel": "00:16:30", "desfase_s": 34, "seg_video": 1024, "tiempo_video": "00:17:04", "punto_gpx": 991, "latitud": -32.948288333333302, "longitud": -68.727886666666706, "elevacion": 705.2, "hora_gpx": "2026-07-13T19:22:36Z", "imagen": "frames/frame_001024.jpg" }, "geometry": { "type": "Point", "coordinates": [ -68.727886666666706, -32.948288333333302 ] } },
{ "type": "Feature", "properties": { "seg_gpx_rel": 991, "tiempo_gpx_rel": "00:16:31", "desfase_s": 34, "seg_video": 1025, "tiempo_video": "00:17:05", "punto_gpx": 992, "latitud": -32.948336666666698, "longitud": -68.727818333333303, "elevacion": 705.0, "hora_gpx": "2026-07-13T19:22:37Z", "imagen": "frames/frame_001025.jpg" }, "geometry": { "type": "Point", "coordinates": [ -68.727818333333303, -32.948336666666698 ] } },
{ "type": "Feature", "properties": { "seg_gpx_rel": 992, "tiempo_gpx_rel": "00:16:32", "desfase_s": 34, "seg_video": 1026, "tiempo_video": "00:17:06", "punto_gpx": 993, "latitud": -32.948383333333297, "longitud": -68.727753333333396, "elevacion": 704.9, "hora_gpx": "2026-07-13T19:22:38Z", "imagen": "frames/frame_001026.jpg" }, "geometry": { "type": "Point", "coordinates": [ -68.727753333333396, -32.948383333333297 ] } },
{ "type": "Feature", "properties": { "seg_gpx_rel": 993, "tiempo_gpx_rel": "00:16:33", "desfase_s": 34, "seg_video": 1027, "tiempo_video": "00:17:07", "punto_gpx": 994, "latitud": -32.94843, "longitud": -68.727688333333305, "elevacion": 704.8, "hora_gpx": "2026-07-13T19:22:39Z", "imagen": "frames/frame_001027.jpg" }, "geometry": { "type": "Point", "coordinates": [ -68.727688333333305, -32.94843 ] } },
{ "type": "Feature", "properties": { "seg_gpx_rel": 994, "tiempo_gpx_rel": "00:16:34", "desfase_s": 34, "seg_video": 1028, "tiempo_video": "00:17:08", "punto_gpx": 995, "latitud": -32.9484766666667, "longitud": -68.727623333333298, "elevacion": 704.8, "hora_gpx": "2026-07-13T19:22:40Z", "imagen": "frames/frame_001028.jpg" }, "geometry": { "type": "Point", "coordinates": [ -68.727623333333298, -32.9484766666667 ] } },
{ "type": "Feature", "properties": { "seg_gpx_rel": 995, "tiempo_gpx_rel": "00:16:35", "desfase_s": 34, "seg_video": 1029, "tiempo_video": "00:17:09", "punto_gpx": 996, "latitud": -32.948518333333297, "longitud": -68.7275566666667, "elevacion": 705.0, "hora_gpx": "2026-07-13T19:22:41Z", "imagen": "frames/frame_001029.jpg" }, "geometry": { "type": "Point", "coordinates": [ -68.7275566666667, -32.948518333333297 ] } },
{ "type": "Feature", "properties": { "seg_gpx_rel": 996, "tiempo_gpx_rel": "00:16:36", "desfase_s": 34, "seg_video": 1030, "tiempo_video": "00:17:10", "punto_gpx": 997, "latitud": -32.9485666666667, "longitud": -68.72749, "elevacion": 705.0, "hora_gpx": "2026-07-13T19:22:42Z", "imagen": "frames/frame_001030.jpg" }, "geometry": { "type": "Point", "coordinates": [ -68.72749, -32.9485666666667 ] } },
{ "type": "Feature", "properties": { "seg_gpx_rel": 997, "tiempo_gpx_rel": "00:16:37", "desfase_s": 34, "seg_video": 1031, "tiempo_video": "00:17:11", "punto_gpx": 998, "latitud": -32.9486116666667, "longitud": -68.727423333333306, "elevacion": 705.1, "hora_gpx": "2026-07-13T19:22:43Z", "imagen": "frames/frame_001031.jpg" }, "geometry": { "type": "Point", "coordinates": [ -68.727423333333306, -32.9486116666667 ] } },
{ "type": "Feature", "properties": { "seg_gpx_rel": 998, "tiempo_gpx_rel": "00:16:38", "desfase_s": 34, "seg_video": 1032, "tiempo_video": "00:17:12", "punto_gpx": 999, "latitud": -32.948658333333299, "longitud": -68.727358333333299, "elevacion": 705.2, "hora_gpx": "2026-07-13T19:22:44Z", "imagen": "frames/frame_001032.jpg" }, "geometry": { "type": "Point", "coordinates": [ -68.727358333333299, -32.948658333333299 ] } },
{ "type": "Feature", "properties": { "seg_gpx_rel": 999, "tiempo_gpx_rel": "00:16:39", "desfase_s": 34, "seg_video": 1033, "tiempo_video": "00:17:13", "punto_gpx": 1000, "latitud": -32.948703333333299, "longitud": -68.727295, "elevacion": 705.5, "hora_gpx": "2026-07-13T19:22:45Z", "imagen": "frames/frame_001033.jpg" }, "geometry": { "type": "Point", "coordinates": [ -68.727295, -32.948703333333299 ] } },
{ "type": "Feature", "properties": { "seg_gpx_rel": 1000, "tiempo_gpx_rel": "00:16:40", "desfase_s": 34, "seg_video": 1034, "tiempo_video": "00:17:14", "punto_gpx": 1001, "latitud": -32.9487466666667, "longitud": -68.727233333333302, "elevacion": 705.6, "hora_gpx": "2026-07-13T19:22:46Z", "imagen": "frames/frame_001034.jpg" }, "geometry": { "type": "Point", "coordinates": [ -68.727233333333302, -32.9487466666667 ] } },
{ "type": "Feature", "properties": { "seg_gpx_rel": 1001, "tiempo_gpx_rel": "00:16:41", "desfase_s": 34, "seg_video": 1035, "tiempo_video": "00:17:15", "punto_gpx": 1002, "latitud": -32.9487916666667, "longitud": -68.727175, "elevacion": 705.3, "hora_gpx": "2026-07-13T19:22:47Z", "imagen": "frames/frame_001035.jpg" }, "geometry": { "type": "Point", "coordinates": [ -68.727175, -32.9487916666667 ] } },
{ "type": "Feature", "properties": { "seg_gpx_rel": 1002, "tiempo_gpx_rel": "00:16:42", "desfase_s": 34, "seg_video": 1036, "tiempo_video": "00:17:16", "punto_gpx": 1003, "latitud": -32.948836666666701, "longitud": -68.727118333333294, "elevacion": 705.1, "hora_gpx": "2026-07-13T19:22:48Z", "imagen": "frames/frame_001036.jpg" }, "geometry": { "type": "Point", "coordinates": [ -68.727118333333294, -32.948836666666701 ] } },
{ "type": "Feature", "properties": { "seg_gpx_rel": 1003, "tiempo_gpx_rel": "00:16:43", "desfase_s": 34, "seg_video": 1037, "tiempo_video": "00:17:17", "punto_gpx": 1004, "latitud": -32.948878333333298, "longitud": -68.72706, "elevacion": 704.9, "hora_gpx": "2026-07-13T19:22:49Z", "imagen": "frames/frame_001037.jpg" }, "geometry": { "type": "Point", "coordinates": [ -68.72706, -32.948878333333298 ] } },
{ "type": "Feature", "properties": { "seg_gpx_rel": 1004, "tiempo_gpx_rel": "00:16:44", "desfase_s": 34, "seg_video": 1038, "tiempo_video": "00:17:18", "punto_gpx": 1005, "latitud": -32.94892, "longitud": -68.726998333333299, "elevacion": 705.1, "hora_gpx": "2026-07-13T19:22:50Z", "imagen": "frames/frame_001038.jpg" }, "geometry": { "type": "Point", "coordinates": [ -68.726998333333299, -32.94892 ] } },
{ "type": "Feature", "properties": { "seg_gpx_rel": 1005, "tiempo_gpx_rel": "00:16:45", "desfase_s": 34, "seg_video": 1039, "tiempo_video": "00:17:19", "punto_gpx": 1006, "latitud": -32.948965, "longitud": -68.726938333333294, "elevacion": 704.9, "hora_gpx": "2026-07-13T19:22:51Z", "imagen": "frames/frame_001039.jpg" }, "geometry": { "type": "Point", "coordinates": [ -68.726938333333294, -32.948965 ] } },
{ "type": "Feature", "properties": { "seg_gpx_rel": 1006, "tiempo_gpx_rel": "00:16:46", "desfase_s": 34, "seg_video": 1040, "tiempo_video": "00:17:20", "punto_gpx": 1007, "latitud": -32.94901, "longitud": -68.726875, "elevacion": 704.6, "hora_gpx": "2026-07-13T19:22:52Z", "imagen": "frames/frame_001040.jpg" }, "geometry": { "type": "Point", "coordinates": [ -68.726875, -32.94901 ] } },
{ "type": "Feature", "properties": { "seg_gpx_rel": 1007, "tiempo_gpx_rel": "00:16:47", "desfase_s": 34, "seg_video": 1041, "tiempo_video": "00:17:21", "punto_gpx": 1008, "latitud": -32.949055, "longitud": -68.726811666666705, "elevacion": 704.4, "hora_gpx": "2026-07-13T19:22:53Z", "imagen": "frames/frame_001041.jpg" }, "geometry": { "type": "Point", "coordinates": [ -68.726811666666705, -32.949055 ] } },
{ "type": "Feature", "properties": { "seg_gpx_rel": 1008, "tiempo_gpx_rel": "00:16:48", "desfase_s": 34, "seg_video": 1042, "tiempo_video": "00:17:22", "punto_gpx": 1009, "latitud": -32.9491, "longitud": -68.726743333333303, "elevacion": 704.4, "hora_gpx": "2026-07-13T19:22:54Z", "imagen": "frames/frame_001042.jpg" }, "geometry": { "type": "Point", "coordinates": [ -68.726743333333303, -32.9491 ] } },
{ "type": "Feature", "properties": { "seg_gpx_rel": 1009, "tiempo_gpx_rel": "00:16:49", "desfase_s": 34, "seg_video": 1043, "tiempo_video": "00:17:23", "punto_gpx": 1010, "latitud": -32.94915, "longitud": -68.726671666666704, "elevacion": 704.9, "hora_gpx": "2026-07-13T19:22:55Z", "imagen": "frames/frame_001043.jpg" }, "geometry": { "type": "Point", "coordinates": [ -68.726671666666704, -32.94915 ] } },
{ "type": "Feature", "properties": { "seg_gpx_rel": 1010, "tiempo_gpx_rel": "00:16:50", "desfase_s": 34, "seg_video": 1044, "tiempo_video": "00:17:24", "punto_gpx": 1011, "latitud": -32.949203333333301, "longitud": -68.726593333333298, "elevacion": 704.7, "hora_gpx": "2026-07-13T19:22:56Z", "imagen": "frames/frame_001044.jpg" }, "geometry": { "type": "Point", "coordinates": [ -68.726593333333298, -32.949203333333301 ] } },
{ "type": "Feature", "properties": { "seg_gpx_rel": 1011, "tiempo_gpx_rel": "00:16:51", "desfase_s": 34, "seg_video": 1045, "tiempo_video": "00:17:25", "punto_gpx": 1012, "latitud": -32.94926, "longitud": -68.72651, "elevacion": 704.8, "hora_gpx": "2026-07-13T19:22:57Z", "imagen": "frames/frame_001045.jpg" }, "geometry": { "type": "Point", "coordinates": [ -68.72651, -32.94926 ] } },
{ "type": "Feature", "properties": { "seg_gpx_rel": 1012, "tiempo_gpx_rel": "00:16:52", "desfase_s": 34, "seg_video": 1046, "tiempo_video": "00:17:26", "punto_gpx": 1013, "latitud": -32.949318333333302, "longitud": -68.726421666666695, "elevacion": 704.3, "hora_gpx": "2026-07-13T19:22:58Z", "imagen": "frames/frame_001046.jpg" }, "geometry": { "type": "Point", "coordinates": [ -68.726421666666695, -32.949318333333302 ] } },
{ "type": "Feature", "properties": { "seg_gpx_rel": 1013, "tiempo_gpx_rel": "00:16:53", "desfase_s": 34, "seg_video": 1047, "tiempo_video": "00:17:27", "punto_gpx": 1014, "latitud": -32.949381666666703, "longitud": -68.726328333333299, "elevacion": 704.2, "hora_gpx": "2026-07-13T19:22:59Z", "imagen": "frames/frame_001047.jpg" }, "geometry": { "type": "Point", "coordinates": [ -68.726328333333299, -32.949381666666703 ] } },
{ "type": "Feature", "properties": { "seg_gpx_rel": 1014, "tiempo_gpx_rel": "00:16:54", "desfase_s": 34, "seg_video": 1048, "tiempo_video": "00:17:28", "punto_gpx": 1015, "latitud": -32.949448333333301, "longitud": -68.726233333333298, "elevacion": 704.4, "hora_gpx": "2026-07-13T19:23:00Z", "imagen": "frames/frame_001048.jpg" }, "geometry": { "type": "Point", "coordinates": [ -68.726233333333298, -32.949448333333301 ] } },
{ "type": "Feature", "properties": { "seg_gpx_rel": 1015, "tiempo_gpx_rel": "00:16:55", "desfase_s": 34, "seg_video": 1049, "tiempo_video": "00:17:29", "punto_gpx": 1016, "latitud": -32.949516666666703, "longitud": -68.726136666666704, "elevacion": 704.7, "hora_gpx": "2026-07-13T19:23:01Z", "imagen": "frames/frame_001049.jpg" }, "geometry": { "type": "Point", "coordinates": [ -68.726136666666704, -32.949516666666703 ] } },
{ "type": "Feature", "properties": { "seg_gpx_rel": 1016, "tiempo_gpx_rel": "00:16:56", "desfase_s": 34, "seg_video": 1050, "tiempo_video": "00:17:30", "punto_gpx": 1017, "latitud": -32.94959, "longitud": -68.72604, "elevacion": 704.5, "hora_gpx": "2026-07-13T19:23:02Z", "imagen": "frames/frame_001050.jpg" }, "geometry": { "type": "Point", "coordinates": [ -68.72604, -32.94959 ] } },
{ "type": "Feature", "properties": { "seg_gpx_rel": 1017, "tiempo_gpx_rel": "00:16:57", "desfase_s": 34, "seg_video": 1051, "tiempo_video": "00:17:31", "punto_gpx": 1018, "latitud": -32.949665, "longitud": -68.725941666666699, "elevacion": 704.4, "hora_gpx": "2026-07-13T19:23:03Z", "imagen": "frames/frame_001051.jpg" }, "geometry": { "type": "Point", "coordinates": [ -68.725941666666699, -32.949665 ] } },
{ "type": "Feature", "properties": { "seg_gpx_rel": 1018, "tiempo_gpx_rel": "00:16:58", "desfase_s": 34, "seg_video": 1052, "tiempo_video": "00:17:32", "punto_gpx": 1019, "latitud": -32.949741666666696, "longitud": -68.72584, "elevacion": 704.4, "hora_gpx": "2026-07-13T19:23:04Z", "imagen": "frames/frame_001052.jpg" }, "geometry": { "type": "Point", "coordinates": [ -68.72584, -32.949741666666696 ] } },
{ "type": "Feature", "properties": { "seg_gpx_rel": 1019, "tiempo_gpx_rel": "00:16:59", "desfase_s": 34, "seg_video": 1053, "tiempo_video": "00:17:33", "punto_gpx": 1020, "latitud": -32.949821666666701, "longitud": -68.725735, "elevacion": 704.4, "hora_gpx": "2026-07-13T19:23:05Z", "imagen": "frames/frame_001053.jpg" }, "geometry": { "type": "Point", "coordinates": [ -68.725735, -32.949821666666701 ] } },
{ "type": "Feature", "properties": { "seg_gpx_rel": 1020, "tiempo_gpx_rel": "00:17:00", "desfase_s": 34, "seg_video": 1054, "tiempo_video": "00:17:34", "punto_gpx": 1021, "latitud": -32.949905, "longitud": -68.725626666666699, "elevacion": 704.5, "hora_gpx": "2026-07-13T19:23:06Z", "imagen": "frames/frame_001054.jpg" }, "geometry": { "type": "Point", "coordinates": [ -68.725626666666699, -32.949905 ] } },
{ "type": "Feature", "properties": { "seg_gpx_rel": 1021, "tiempo_gpx_rel": "00:17:01", "desfase_s": 34, "seg_video": 1055, "tiempo_video": "00:17:35", "punto_gpx": 1022, "latitud": -32.94999, "longitud": -68.725516666666707, "elevacion": 704.6, "hora_gpx": "2026-07-13T19:23:07Z", "imagen": "frames/frame_001055.jpg" }, "geometry": { "type": "Point", "coordinates": [ -68.725516666666707, -32.94999 ] } },
{ "type": "Feature", "properties": { "seg_gpx_rel": 1022, "tiempo_gpx_rel": "00:17:02", "desfase_s": 34, "seg_video": 1056, "tiempo_video": "00:17:36", "punto_gpx": 1023, "latitud": -32.9500733333333, "longitud": -68.7254066666667, "elevacion": 704.5, "hora_gpx": "2026-07-13T19:23:08Z", "imagen": "frames/frame_001056.jpg" }, "geometry": { "type": "Point", "coordinates": [ -68.7254066666667, -32.9500733333333 ] } },
{ "type": "Feature", "properties": { "seg_gpx_rel": 1023, "tiempo_gpx_rel": "00:17:03", "desfase_s": 34, "seg_video": 1057, "tiempo_video": "00:17:37", "punto_gpx": 1024, "latitud": -32.9501566666667, "longitud": -68.725295, "elevacion": 704.5, "hora_gpx": "2026-07-13T19:23:09Z", "imagen": "frames/frame_001057.jpg" }, "geometry": { "type": "Point", "coordinates": [ -68.725295, -32.9501566666667 ] } },
{ "type": "Feature", "properties": { "seg_gpx_rel": 1024, "tiempo_gpx_rel": "00:17:04", "desfase_s": 34, "seg_video": 1058, "tiempo_video": "00:17:38", "punto_gpx": 1025, "latitud": -32.950238333333303, "longitud": -68.7251816666667, "elevacion": 704.4, "hora_gpx": "2026-07-13T19:23:10Z", "imagen": "frames/frame_001058.jpg" }, "geometry": { "type": "Point", "coordinates": [ -68.7251816666667, -32.950238333333303 ] } },
{ "type": "Feature", "properties": { "seg_gpx_rel": 1025, "tiempo_gpx_rel": "00:17:05", "desfase_s": 34, "seg_video": 1059, "tiempo_video": "00:17:39", "punto_gpx": 1026, "latitud": -32.950316666666701, "longitud": -68.725068333333297, "elevacion": 704.2, "hora_gpx": "2026-07-13T19:23:11Z", "imagen": "frames/frame_001059.jpg" }, "geometry": { "type": "Point", "coordinates": [ -68.725068333333297, -32.950316666666701 ] } },
{ "type": "Feature", "properties": { "seg_gpx_rel": 1026, "tiempo_gpx_rel": "00:17:06", "desfase_s": 34, "seg_video": 1060, "tiempo_video": "00:17:40", "punto_gpx": 1027, "latitud": -32.950395, "longitud": -68.724955, "elevacion": 704.0, "hora_gpx": "2026-07-13T19:23:12Z", "imagen": "frames/frame_001060.jpg" }, "geometry": { "type": "Point", "coordinates": [ -68.724955, -32.950395 ] } },
{ "type": "Feature", "properties": { "seg_gpx_rel": 1027, "tiempo_gpx_rel": "00:17:07", "desfase_s": 34, "seg_video": 1061, "tiempo_video": "00:17:41", "punto_gpx": 1028, "latitud": -32.950473333333299, "longitud": -68.724845, "elevacion": 703.9, "hora_gpx": "2026-07-13T19:23:13Z", "imagen": "frames/frame_001061.jpg" }, "geometry": { "type": "Point", "coordinates": [ -68.724845, -32.950473333333299 ] } },
{ "type": "Feature", "properties": { "seg_gpx_rel": 1028, "tiempo_gpx_rel": "00:17:08", "desfase_s": 34, "seg_video": 1062, "tiempo_video": "00:17:42", "punto_gpx": 1029, "latitud": -32.950546666666703, "longitud": -68.724735, "elevacion": 703.7, "hora_gpx": "2026-07-13T19:23:14Z", "imagen": "frames/frame_001062.jpg" }, "geometry": { "type": "Point", "coordinates": [ -68.724735, -32.950546666666703 ] } },
{ "type": "Feature", "properties": { "seg_gpx_rel": 1029, "tiempo_gpx_rel": "00:17:09", "desfase_s": 34, "seg_video": 1063, "tiempo_video": "00:17:43", "punto_gpx": 1030, "latitud": -32.950616666666697, "longitud": -68.7246283333333, "elevacion": 704.0, "hora_gpx": "2026-07-13T19:23:15Z", "imagen": "frames/frame_001063.jpg" }, "geometry": { "type": "Point", "coordinates": [ -68.7246283333333, -32.950616666666697 ] } },
{ "type": "Feature", "properties": { "seg_gpx_rel": 1030, "tiempo_gpx_rel": "00:17:10", "desfase_s": 34, "seg_video": 1064, "tiempo_video": "00:17:44", "punto_gpx": 1031, "latitud": -32.950685, "longitud": -68.724528333333296, "elevacion": 704.1, "hora_gpx": "2026-07-13T19:23:16Z", "imagen": "frames/frame_001064.jpg" }, "geometry": { "type": "Point", "coordinates": [ -68.724528333333296, -32.950685 ] } },
{ "type": "Feature", "properties": { "seg_gpx_rel": 1031, "tiempo_gpx_rel": "00:17:11", "desfase_s": 34, "seg_video": 1065, "tiempo_video": "00:17:45", "punto_gpx": 1032, "latitud": -32.95075, "longitud": -68.724441666666706, "elevacion": 704.3, "hora_gpx": "2026-07-13T19:23:17Z", "imagen": "frames/frame_001065.jpg" }, "geometry": { "type": "Point", "coordinates": [ -68.724441666666706, -32.95075 ] } },
{ "type": "Feature", "properties": { "seg_gpx_rel": 1032, "tiempo_gpx_rel": "00:17:12", "desfase_s": 34, "seg_video": 1066, "tiempo_video": "00:17:46", "punto_gpx": 1033, "latitud": -32.950811666666702, "longitud": -68.724368333333302, "elevacion": 704.4, "hora_gpx": "2026-07-13T19:23:18Z", "imagen": "frames/frame_001066.jpg" }, "geometry": { "type": "Point", "coordinates": [ -68.724368333333302, -32.950811666666702 ] } },
{ "type": "Feature", "properties": { "seg_gpx_rel": 1033, "tiempo_gpx_rel": "00:17:13", "desfase_s": 34, "seg_video": 1067, "tiempo_video": "00:17:47", "punto_gpx": 1034, "latitud": -32.950868333333297, "longitud": -68.7243, "elevacion": 703.9, "hora_gpx": "2026-07-13T19:23:19Z", "imagen": "frames/frame_001067.jpg" }, "geometry": { "type": "Point", "coordinates": [ -68.7243, -32.950868333333297 ] } },
{ "type": "Feature", "properties": { "seg_gpx_rel": 1034, "tiempo_gpx_rel": "00:17:14", "desfase_s": 34, "seg_video": 1068, "tiempo_video": "00:17:48", "punto_gpx": 1035, "latitud": -32.9509233333333, "longitud": -68.724231666666697, "elevacion": 703.9, "hora_gpx": "2026-07-13T19:23:20Z", "imagen": "frames/frame_001068.jpg" }, "geometry": { "type": "Point", "coordinates": [ -68.724231666666697, -32.9509233333333 ] } },
{ "type": "Feature", "properties": { "seg_gpx_rel": 1035, "tiempo_gpx_rel": "00:17:15", "desfase_s": 34, "seg_video": 1069, "tiempo_video": "00:17:49", "punto_gpx": 1036, "latitud": -32.950975, "longitud": -68.724165, "elevacion": 704.1, "hora_gpx": "2026-07-13T19:23:21Z", "imagen": "frames/frame_001069.jpg" }, "geometry": { "type": "Point", "coordinates": [ -68.724165, -32.950975 ] } },
{ "type": "Feature", "properties": { "seg_gpx_rel": 1036, "tiempo_gpx_rel": "00:17:16", "desfase_s": 34, "seg_video": 1070, "tiempo_video": "00:17:50", "punto_gpx": 1037, "latitud": -32.951021666666698, "longitud": -68.724095, "elevacion": 704.3, "hora_gpx": "2026-07-13T19:23:22Z", "imagen": "frames/frame_001070.jpg" }, "geometry": { "type": "Point", "coordinates": [ -68.724095, -32.951021666666698 ] } },
{ "type": "Feature", "properties": { "seg_gpx_rel": 1037, "tiempo_gpx_rel": "00:17:17", "desfase_s": 34, "seg_video": 1071, "tiempo_video": "00:17:51", "punto_gpx": 1038, "latitud": -32.951065, "longitud": -68.724025, "elevacion": 704.3, "hora_gpx": "2026-07-13T19:23:23Z", "imagen": "frames/frame_001071.jpg" }, "geometry": { "type": "Point", "coordinates": [ -68.724025, -32.951065 ] } },
{ "type": "Feature", "properties": { "seg_gpx_rel": 1038, "tiempo_gpx_rel": "00:17:18", "desfase_s": 34, "seg_video": 1072, "tiempo_video": "00:17:52", "punto_gpx": 1039, "latitud": -32.951115, "longitud": -68.723955, "elevacion": 704.4, "hora_gpx": "2026-07-13T19:23:24Z", "imagen": "frames/frame_001072.jpg" }, "geometry": { "type": "Point", "coordinates": [ -68.723955, -32.951115 ] } },
{ "type": "Feature", "properties": { "seg_gpx_rel": 1039, "tiempo_gpx_rel": "00:17:19", "desfase_s": 34, "seg_video": 1073, "tiempo_video": "00:17:53", "punto_gpx": 1040, "latitud": -32.951163333333298, "longitud": -68.723885, "elevacion": 704.4, "hora_gpx": "2026-07-13T19:23:25Z", "imagen": "frames/frame_001073.jpg" }, "geometry": { "type": "Point", "coordinates": [ -68.723885, -32.951163333333298 ] } },
{ "type": "Feature", "properties": { "seg_gpx_rel": 1040, "tiempo_gpx_rel": "00:17:20", "desfase_s": 34, "seg_video": 1074, "tiempo_video": "00:17:54", "punto_gpx": 1041, "latitud": -32.951211666666701, "longitud": -68.723818333333298, "elevacion": 704.5, "hora_gpx": "2026-07-13T19:23:26Z", "imagen": "frames/frame_001074.jpg" }, "geometry": { "type": "Point", "coordinates": [ -68.723818333333298, -32.951211666666701 ] } },
{ "type": "Feature", "properties": { "seg_gpx_rel": 1041, "tiempo_gpx_rel": "00:17:21", "desfase_s": 34, "seg_video": 1075, "tiempo_video": "00:17:55", "punto_gpx": 1042, "latitud": -32.9512583333333, "longitud": -68.723756666666702, "elevacion": 704.5, "hora_gpx": "2026-07-13T19:23:27Z", "imagen": "frames/frame_001075.jpg" }, "geometry": { "type": "Point", "coordinates": [ -68.723756666666702, -32.9512583333333 ] } },
{ "type": "Feature", "properties": { "seg_gpx_rel": 1042, "tiempo_gpx_rel": "00:17:22", "desfase_s": 34, "seg_video": 1076, "tiempo_video": "00:17:56", "punto_gpx": 1043, "latitud": -32.951305, "longitud": -68.723695, "elevacion": 704.6, "hora_gpx": "2026-07-13T19:23:28Z", "imagen": "frames/frame_001076.jpg" }, "geometry": { "type": "Point", "coordinates": [ -68.723695, -32.951305 ] } },
{ "type": "Feature", "properties": { "seg_gpx_rel": 1043, "tiempo_gpx_rel": "00:17:23", "desfase_s": 34, "seg_video": 1077, "tiempo_video": "00:17:57", "punto_gpx": 1044, "latitud": -32.9513483333333, "longitud": -68.723633333333296, "elevacion": 704.8, "hora_gpx": "2026-07-13T19:23:29Z", "imagen": "frames/frame_001077.jpg" }, "geometry": { "type": "Point", "coordinates": [ -68.723633333333296, -32.9513483333333 ] } },
{ "type": "Feature", "properties": { "seg_gpx_rel": 1044, "tiempo_gpx_rel": "00:17:24", "desfase_s": 34, "seg_video": 1078, "tiempo_video": "00:17:58", "punto_gpx": 1045, "latitud": -32.951391666666701, "longitud": -68.7235716666667, "elevacion": 704.9, "hora_gpx": "2026-07-13T19:23:30Z", "imagen": "frames/frame_001078.jpg" }, "geometry": { "type": "Point", "coordinates": [ -68.7235716666667, -32.951391666666701 ] } },
{ "type": "Feature", "properties": { "seg_gpx_rel": 1045, "tiempo_gpx_rel": "00:17:25", "desfase_s": 34, "seg_video": 1079, "tiempo_video": "00:17:59", "punto_gpx": 1046, "latitud": -32.951435, "longitud": -68.723511666666695, "elevacion": 704.9, "hora_gpx": "2026-07-13T19:23:31Z", "imagen": "frames/frame_001079.jpg" }, "geometry": { "type": "Point", "coordinates": [ -68.723511666666695, -32.951435 ] } },
{ "type": "Feature", "properties": { "seg_gpx_rel": 1046, "tiempo_gpx_rel": "00:17:26", "desfase_s": 34, "seg_video": 1080, "tiempo_video": "00:18:00", "punto_gpx": 1047, "latitud": -32.951475, "longitud": -68.723455, "elevacion": 704.5, "hora_gpx": "2026-07-13T19:23:32Z", "imagen": "frames/frame_001080.jpg" }, "geometry": { "type": "Point", "coordinates": [ -68.723455, -32.951475 ] } },
{ "type": "Feature", "properties": { "seg_gpx_rel": 1047, "tiempo_gpx_rel": "00:17:27", "desfase_s": 34, "seg_video": 1081, "tiempo_video": "00:18:01", "punto_gpx": 1048, "latitud": -32.951518333333297, "longitud": -68.723396666666702, "elevacion": 704.5, "hora_gpx": "2026-07-13T19:23:33Z", "imagen": "frames/frame_001081.jpg" }, "geometry": { "type": "Point", "coordinates": [ -68.723396666666702, -32.951518333333297 ] } },
{ "type": "Feature", "properties": { "seg_gpx_rel": 1048, "tiempo_gpx_rel": "00:17:28", "desfase_s": 34, "seg_video": 1082, "tiempo_video": "00:18:02", "punto_gpx": 1049, "latitud": -32.951561666666699, "longitud": -68.723338333333302, "elevacion": 704.2, "hora_gpx": "2026-07-13T19:23:34Z", "imagen": "frames/frame_001082.jpg" }, "geometry": { "type": "Point", "coordinates": [ -68.723338333333302, -32.951561666666699 ] } },
{ "type": "Feature", "properties": { "seg_gpx_rel": 1049, "tiempo_gpx_rel": "00:17:29", "desfase_s": 34, "seg_video": 1083, "tiempo_video": "00:18:03", "punto_gpx": 1050, "latitud": -32.951605, "longitud": -68.723278333333297, "elevacion": 703.8, "hora_gpx": "2026-07-13T19:23:35Z", "imagen": "frames/frame_001083.jpg" }, "geometry": { "type": "Point", "coordinates": [ -68.723278333333297, -32.951605 ] } },
{ "type": "Feature", "properties": { "seg_gpx_rel": 1050, "tiempo_gpx_rel": "00:17:30", "desfase_s": 34, "seg_video": 1084, "tiempo_video": "00:18:04", "punto_gpx": 1051, "latitud": -32.951648333333303, "longitud": -68.723218333333307, "elevacion": 703.7, "hora_gpx": "2026-07-13T19:23:36Z", "imagen": "frames/frame_001084.jpg" }, "geometry": { "type": "Point", "coordinates": [ -68.723218333333307, -32.951648333333303 ] } },
{ "type": "Feature", "properties": { "seg_gpx_rel": 1051, "tiempo_gpx_rel": "00:17:31", "desfase_s": 34, "seg_video": 1085, "tiempo_video": "00:18:05", "punto_gpx": 1052, "latitud": -32.951691666666697, "longitud": -68.723158333333302, "elevacion": 703.5, "hora_gpx": "2026-07-13T19:23:37Z", "imagen": "frames/frame_001085.jpg" }, "geometry": { "type": "Point", "coordinates": [ -68.723158333333302, -32.951691666666697 ] } },
{ "type": "Feature", "properties": { "seg_gpx_rel": 1052, "tiempo_gpx_rel": "00:17:32", "desfase_s": 34, "seg_video": 1086, "tiempo_video": "00:18:06", "punto_gpx": 1053, "latitud": -32.951735, "longitud": -68.723098333333297, "elevacion": 703.5, "hora_gpx": "2026-07-13T19:23:38Z", "imagen": "frames/frame_001086.jpg" }, "geometry": { "type": "Point", "coordinates": [ -68.723098333333297, -32.951735 ] } },
{ "type": "Feature", "properties": { "seg_gpx_rel": 1053, "tiempo_gpx_rel": "00:17:33", "desfase_s": 34, "seg_video": 1087, "tiempo_video": "00:18:07", "punto_gpx": 1054, "latitud": -32.951778333333301, "longitud": -68.723036666666701, "elevacion": 703.2, "hora_gpx": "2026-07-13T19:23:39Z", "imagen": "frames/frame_001087.jpg" }, "geometry": { "type": "Point", "coordinates": [ -68.723036666666701, -32.951778333333301 ] } },
{ "type": "Feature", "properties": { "seg_gpx_rel": 1054, "tiempo_gpx_rel": "00:17:34", "desfase_s": 34, "seg_video": 1088, "tiempo_video": "00:18:08", "punto_gpx": 1055, "latitud": -32.951823333333301, "longitud": -68.722976666666696, "elevacion": 703.2, "hora_gpx": "2026-07-13T19:23:40Z", "imagen": "frames/frame_001088.jpg" }, "geometry": { "type": "Point", "coordinates": [ -68.722976666666696, -32.951823333333301 ] } },
{ "type": "Feature", "properties": { "seg_gpx_rel": 1055, "tiempo_gpx_rel": "00:17:35", "desfase_s": 34, "seg_video": 1089, "tiempo_video": "00:18:09", "punto_gpx": 1056, "latitud": -32.951871666666698, "longitud": -68.722915, "elevacion": 703.1, "hora_gpx": "2026-07-13T19:23:41Z", "imagen": "frames/frame_001089.jpg" }, "geometry": { "type": "Point", "coordinates": [ -68.722915, -32.951871666666698 ] } },
{ "type": "Feature", "properties": { "seg_gpx_rel": 1056, "tiempo_gpx_rel": "00:17:36", "desfase_s": 34, "seg_video": 1090, "tiempo_video": "00:18:10", "punto_gpx": 1057, "latitud": -32.951916666666698, "longitud": -68.722853333333305, "elevacion": 703.0, "hora_gpx": "2026-07-13T19:23:42Z", "imagen": "frames/frame_001090.jpg" }, "geometry": { "type": "Point", "coordinates": [ -68.722853333333305, -32.951916666666698 ] } },
{ "type": "Feature", "properties": { "seg_gpx_rel": 1057, "tiempo_gpx_rel": "00:17:37", "desfase_s": 34, "seg_video": 1091, "tiempo_video": "00:18:11", "punto_gpx": 1058, "latitud": -32.951955, "longitud": -68.7227933333333, "elevacion": 702.8, "hora_gpx": "2026-07-13T19:23:43Z", "imagen": "frames/frame_001091.jpg" }, "geometry": { "type": "Point", "coordinates": [ -68.7227933333333, -32.951955 ] } },
{ "type": "Feature", "properties": { "seg_gpx_rel": 1058, "tiempo_gpx_rel": "00:17:38", "desfase_s": 34, "seg_video": 1092, "tiempo_video": "00:18:12", "punto_gpx": 1059, "latitud": -32.951996666666702, "longitud": -68.722731666666704, "elevacion": 702.8, "hora_gpx": "2026-07-13T19:23:44Z", "imagen": "frames/frame_001092.jpg" }, "geometry": { "type": "Point", "coordinates": [ -68.722731666666704, -32.951996666666702 ] } },
{ "type": "Feature", "properties": { "seg_gpx_rel": 1059, "tiempo_gpx_rel": "00:17:39", "desfase_s": 34, "seg_video": 1093, "tiempo_video": "00:18:13", "punto_gpx": 1060, "latitud": -32.952038333333299, "longitud": -68.72267, "elevacion": 702.5, "hora_gpx": "2026-07-13T19:23:45Z", "imagen": "frames/frame_001093.jpg" }, "geometry": { "type": "Point", "coordinates": [ -68.72267, -32.952038333333299 ] } },
{ "type": "Feature", "properties": { "seg_gpx_rel": 1060, "tiempo_gpx_rel": "00:17:40", "desfase_s": 34, "seg_video": 1094, "tiempo_video": "00:18:14", "punto_gpx": 1061, "latitud": -32.9520816666667, "longitud": -68.72261, "elevacion": 702.2, "hora_gpx": "2026-07-13T19:23:46Z", "imagen": "frames/frame_001094.jpg" }, "geometry": { "type": "Point", "coordinates": [ -68.72261, -32.9520816666667 ] } },
{ "type": "Feature", "properties": { "seg_gpx_rel": 1061, "tiempo_gpx_rel": "00:17:41", "desfase_s": 34, "seg_video": 1095, "tiempo_video": "00:18:15", "punto_gpx": 1062, "latitud": -32.952128333333299, "longitud": -68.722548333333293, "elevacion": 702.0, "hora_gpx": "2026-07-13T19:23:47Z", "imagen": "frames/frame_001095.jpg" }, "geometry": { "type": "Point", "coordinates": [ -68.722548333333293, -32.952128333333299 ] } },
{ "type": "Feature", "properties": { "seg_gpx_rel": 1062, "tiempo_gpx_rel": "00:17:42", "desfase_s": 34, "seg_video": 1096, "tiempo_video": "00:18:16", "punto_gpx": 1063, "latitud": -32.9521716666667, "longitud": -68.722488333333303, "elevacion": 701.8, "hora_gpx": "2026-07-13T19:23:48Z", "imagen": "frames/frame_001096.jpg" }, "geometry": { "type": "Point", "coordinates": [ -68.722488333333303, -32.9521716666667 ] } },
{ "type": "Feature", "properties": { "seg_gpx_rel": 1063, "tiempo_gpx_rel": "00:17:43", "desfase_s": 34, "seg_video": 1097, "tiempo_video": "00:18:17", "punto_gpx": 1064, "latitud": -32.952213333333297, "longitud": -68.72243, "elevacion": 701.8, "hora_gpx": "2026-07-13T19:23:49Z", "imagen": "frames/frame_001097.jpg" }, "geometry": { "type": "Point", "coordinates": [ -68.72243, -32.952213333333297 ] } },
{ "type": "Feature", "properties": { "seg_gpx_rel": 1064, "tiempo_gpx_rel": "00:17:44", "desfase_s": 34, "seg_video": 1098, "tiempo_video": "00:18:18", "punto_gpx": 1065, "latitud": -32.952255, "longitud": -68.722373333333294, "elevacion": 701.6, "hora_gpx": "2026-07-13T19:23:50Z", "imagen": "frames/frame_001098.jpg" }, "geometry": { "type": "Point", "coordinates": [ -68.722373333333294, -32.952255 ] } },
{ "type": "Feature", "properties": { "seg_gpx_rel": 1065, "tiempo_gpx_rel": "00:17:45", "desfase_s": 34, "seg_video": 1099, "tiempo_video": "00:18:19", "punto_gpx": 1066, "latitud": -32.952298333333303, "longitud": -68.7223166666667, "elevacion": 701.4, "hora_gpx": "2026-07-13T19:23:51Z", "imagen": "frames/frame_001099.jpg" }, "geometry": { "type": "Point", "coordinates": [ -68.7223166666667, -32.952298333333303 ] } },
{ "type": "Feature", "properties": { "seg_gpx_rel": 1066, "tiempo_gpx_rel": "00:17:46", "desfase_s": 34, "seg_video": 1100, "tiempo_video": "00:18:20", "punto_gpx": 1067, "latitud": -32.95234, "longitud": -68.72226, "elevacion": 701.3, "hora_gpx": "2026-07-13T19:23:52Z", "imagen": "frames/frame_001100.jpg" }, "geometry": { "type": "Point", "coordinates": [ -68.72226, -32.95234 ] } },
{ "type": "Feature", "properties": { "seg_gpx_rel": 1067, "tiempo_gpx_rel": "00:17:47", "desfase_s": 34, "seg_video": 1101, "tiempo_video": "00:18:21", "punto_gpx": 1068, "latitud": -32.95238, "longitud": -68.7222, "elevacion": 701.5, "hora_gpx": "2026-07-13T19:23:53Z", "imagen": "frames/frame_001101.jpg" }, "geometry": { "type": "Point", "coordinates": [ -68.7222, -32.95238 ] } },
{ "type": "Feature", "properties": { "seg_gpx_rel": 1068, "tiempo_gpx_rel": "00:17:48", "desfase_s": 34, "seg_video": 1102, "tiempo_video": "00:18:22", "punto_gpx": 1069, "latitud": -32.9524233333333, "longitud": -68.722141666666701, "elevacion": 701.4, "hora_gpx": "2026-07-13T19:23:54Z", "imagen": "frames/frame_001102.jpg" }, "geometry": { "type": "Point", "coordinates": [ -68.722141666666701, -32.9524233333333 ] } },
{ "type": "Feature", "properties": { "seg_gpx_rel": 1069, "tiempo_gpx_rel": "00:17:49", "desfase_s": 34, "seg_video": 1103, "tiempo_video": "00:18:23", "punto_gpx": 1070, "latitud": -32.952465, "longitud": -68.722081666666696, "elevacion": 701.6, "hora_gpx": "2026-07-13T19:23:55Z", "imagen": "frames/frame_001103.jpg" }, "geometry": { "type": "Point", "coordinates": [ -68.722081666666696, -32.952465 ] } },
{ "type": "Feature", "properties": { "seg_gpx_rel": 1070, "tiempo_gpx_rel": "00:17:50", "desfase_s": 34, "seg_video": 1104, "tiempo_video": "00:18:24", "punto_gpx": 1071, "latitud": -32.952508333333299, "longitud": -68.722023333333297, "elevacion": 701.5, "hora_gpx": "2026-07-13T19:23:56Z", "imagen": "frames/frame_001104.jpg" }, "geometry": { "type": "Point", "coordinates": [ -68.722023333333297, -32.952508333333299 ] } },
{ "type": "Feature", "properties": { "seg_gpx_rel": 1071, "tiempo_gpx_rel": "00:17:51", "desfase_s": 34, "seg_video": 1105, "tiempo_video": "00:18:25", "punto_gpx": 1072, "latitud": -32.9525516666667, "longitud": -68.721965, "elevacion": 701.5, "hora_gpx": "2026-07-13T19:23:57Z", "imagen": "frames/frame_001105.jpg" }, "geometry": { "type": "Point", "coordinates": [ -68.721965, -32.9525516666667 ] } },
{ "type": "Feature", "properties": { "seg_gpx_rel": 1072, "tiempo_gpx_rel": "00:17:52", "desfase_s": 34, "seg_video": 1106, "tiempo_video": "00:18:26", "punto_gpx": 1073, "latitud": -32.952593333333297, "longitud": -68.721905, "elevacion": 701.5, "hora_gpx": "2026-07-13T19:23:58Z", "imagen": "frames/frame_001106.jpg" }, "geometry": { "type": "Point", "coordinates": [ -68.721905, -32.952593333333297 ] } },
{ "type": "Feature", "properties": { "seg_gpx_rel": 1073, "tiempo_gpx_rel": "00:17:53", "desfase_s": 34, "seg_video": 1107, "tiempo_video": "00:18:27", "punto_gpx": 1074, "latitud": -32.952633333333303, "longitud": -68.721845, "elevacion": 701.5, "hora_gpx": "2026-07-13T19:23:59Z", "imagen": "frames/frame_001107.jpg" }, "geometry": { "type": "Point", "coordinates": [ -68.721845, -32.952633333333303 ] } },
{ "type": "Feature", "properties": { "seg_gpx_rel": 1074, "tiempo_gpx_rel": "00:17:54", "desfase_s": 34, "seg_video": 1108, "tiempo_video": "00:18:28", "punto_gpx": 1075, "latitud": -32.952673333333301, "longitud": -68.721786666666702, "elevacion": 701.4, "hora_gpx": "2026-07-13T19:24:00Z", "imagen": "frames/frame_001108.jpg" }, "geometry": { "type": "Point", "coordinates": [ -68.721786666666702, -32.952673333333301 ] } },
{ "type": "Feature", "properties": { "seg_gpx_rel": 1075, "tiempo_gpx_rel": "00:17:55", "desfase_s": 34, "seg_video": 1109, "tiempo_video": "00:18:29", "punto_gpx": 1076, "latitud": -32.952715, "longitud": -68.72173, "elevacion": 701.4, "hora_gpx": "2026-07-13T19:24:01Z", "imagen": "frames/frame_001109.jpg" }, "geometry": { "type": "Point", "coordinates": [ -68.72173, -32.952715 ] } },
{ "type": "Feature", "properties": { "seg_gpx_rel": 1076, "tiempo_gpx_rel": "00:17:56", "desfase_s": 34, "seg_video": 1110, "tiempo_video": "00:18:30", "punto_gpx": 1077, "latitud": -32.9527516666667, "longitud": -68.721675, "elevacion": 701.4, "hora_gpx": "2026-07-13T19:24:02Z", "imagen": "frames/frame_001110.jpg" }, "geometry": { "type": "Point", "coordinates": [ -68.721675, -32.9527516666667 ] } },
{ "type": "Feature", "properties": { "seg_gpx_rel": 1077, "tiempo_gpx_rel": "00:17:57", "desfase_s": 34, "seg_video": 1111, "tiempo_video": "00:18:31", "punto_gpx": 1078, "latitud": -32.952793333333297, "longitud": -68.721618333333296, "elevacion": 701.5, "hora_gpx": "2026-07-13T19:24:03Z", "imagen": "frames/frame_001111.jpg" }, "geometry": { "type": "Point", "coordinates": [ -68.721618333333296, -32.952793333333297 ] } },
{ "type": "Feature", "properties": { "seg_gpx_rel": 1078, "tiempo_gpx_rel": "00:17:58", "desfase_s": 34, "seg_video": 1112, "tiempo_video": "00:18:32", "punto_gpx": 1079, "latitud": -32.952831666666697, "longitud": -68.721561666666702, "elevacion": 701.6, "hora_gpx": "2026-07-13T19:24:04Z", "imagen": "frames/frame_001112.jpg" }, "geometry": { "type": "Point", "coordinates": [ -68.721561666666702, -32.952831666666697 ] } },
{ "type": "Feature", "properties": { "seg_gpx_rel": 1079, "tiempo_gpx_rel": "00:17:59", "desfase_s": 34, "seg_video": 1113, "tiempo_video": "00:18:33", "punto_gpx": 1080, "latitud": -32.952871666666702, "longitud": -68.721506666666698, "elevacion": 701.8, "hora_gpx": "2026-07-13T19:24:05Z", "imagen": "frames/frame_001113.jpg" }, "geometry": { "type": "Point", "coordinates": [ -68.721506666666698, -32.952871666666702 ] } },
{ "type": "Feature", "properties": { "seg_gpx_rel": 1080, "tiempo_gpx_rel": "00:18:00", "desfase_s": 34, "seg_video": 1114, "tiempo_video": "00:18:34", "punto_gpx": 1081, "latitud": -32.952911666666701, "longitud": -68.721451666666695, "elevacion": 701.7, "hora_gpx": "2026-07-13T19:24:06Z", "imagen": "frames/frame_001114.jpg" }, "geometry": { "type": "Point", "coordinates": [ -68.721451666666695, -32.952911666666701 ] } },
{ "type": "Feature", "properties": { "seg_gpx_rel": 1081, "tiempo_gpx_rel": "00:18:01", "desfase_s": 34, "seg_video": 1115, "tiempo_video": "00:18:35", "punto_gpx": 1082, "latitud": -32.952953333333298, "longitud": -68.721398333333298, "elevacion": 702.1, "hora_gpx": "2026-07-13T19:24:07Z", "imagen": "frames/frame_001115.jpg" }, "geometry": { "type": "Point", "coordinates": [ -68.721398333333298, -32.952953333333298 ] } },
{ "type": "Feature", "properties": { "seg_gpx_rel": 1082, "tiempo_gpx_rel": "00:18:02", "desfase_s": 34, "seg_video": 1116, "tiempo_video": "00:18:36", "punto_gpx": 1083, "latitud": -32.952993333333303, "longitud": -68.721341666666703, "elevacion": 702.2, "hora_gpx": "2026-07-13T19:24:08Z", "imagen": "frames/frame_001116.jpg" }, "geometry": { "type": "Point", "coordinates": [ -68.721341666666703, -32.952993333333303 ] } },
{ "type": "Feature", "properties": { "seg_gpx_rel": 1083, "tiempo_gpx_rel": "00:18:03", "desfase_s": 34, "seg_video": 1117, "tiempo_video": "00:18:37", "punto_gpx": 1084, "latitud": -32.953033333333302, "longitud": -68.721283333333304, "elevacion": 702.1, "hora_gpx": "2026-07-13T19:24:09Z", "imagen": "frames/frame_001117.jpg" }, "geometry": { "type": "Point", "coordinates": [ -68.721283333333304, -32.953033333333302 ] } },
{ "type": "Feature", "properties": { "seg_gpx_rel": 1084, "tiempo_gpx_rel": "00:18:04", "desfase_s": 34, "seg_video": 1118, "tiempo_video": "00:18:38", "punto_gpx": 1085, "latitud": -32.953075, "longitud": -68.721223333333299, "elevacion": 702.1, "hora_gpx": "2026-07-13T19:24:10Z", "imagen": "frames/frame_001118.jpg" }, "geometry": { "type": "Point", "coordinates": [ -68.721223333333299, -32.953075 ] } },
{ "type": "Feature", "properties": { "seg_gpx_rel": 1085, "tiempo_gpx_rel": "00:18:05", "desfase_s": 34, "seg_video": 1119, "tiempo_video": "00:18:39", "punto_gpx": 1086, "latitud": -32.9531183333333, "longitud": -68.721161666666703, "elevacion": 702.2, "hora_gpx": "2026-07-13T19:24:11Z", "imagen": "frames/frame_001119.jpg" }, "geometry": { "type": "Point", "coordinates": [ -68.721161666666703, -32.9531183333333 ] } },
{ "type": "Feature", "properties": { "seg_gpx_rel": 1086, "tiempo_gpx_rel": "00:18:06", "desfase_s": 34, "seg_video": 1120, "tiempo_video": "00:18:40", "punto_gpx": 1087, "latitud": -32.953161666666702, "longitud": -68.721096666666696, "elevacion": 702.5, "hora_gpx": "2026-07-13T19:24:12Z", "imagen": "frames/frame_001120.jpg" }, "geometry": { "type": "Point", "coordinates": [ -68.721096666666696, -32.953161666666702 ] } },
{ "type": "Feature", "properties": { "seg_gpx_rel": 1087, "tiempo_gpx_rel": "00:18:07", "desfase_s": 34, "seg_video": 1121, "tiempo_video": "00:18:41", "punto_gpx": 1088, "latitud": -32.953205, "longitud": -68.721031666666704, "elevacion": 702.7, "hora_gpx": "2026-07-13T19:24:13Z", "imagen": "frames/frame_001121.jpg" }, "geometry": { "type": "Point", "coordinates": [ -68.721031666666704, -32.953205 ] } },
{ "type": "Feature", "properties": { "seg_gpx_rel": 1088, "tiempo_gpx_rel": "00:18:08", "desfase_s": 34, "seg_video": 1122, "tiempo_video": "00:18:42", "punto_gpx": 1089, "latitud": -32.953255, "longitud": -68.72097, "elevacion": 703.4, "hora_gpx": "2026-07-13T19:24:14Z", "imagen": "frames/frame_001122.jpg" }, "geometry": { "type": "Point", "coordinates": [ -68.72097, -32.953255 ] } },
{ "type": "Feature", "properties": { "seg_gpx_rel": 1089, "tiempo_gpx_rel": "00:18:09", "desfase_s": 34, "seg_video": 1123, "tiempo_video": "00:18:43", "punto_gpx": 1090, "latitud": -32.953303333333302, "longitud": -68.72091, "elevacion": 702.9, "hora_gpx": "2026-07-13T19:24:15Z", "imagen": "frames/frame_001123.jpg" }, "geometry": { "type": "Point", "coordinates": [ -68.72091, -32.953303333333302 ] } },
{ "type": "Feature", "properties": { "seg_gpx_rel": 1090, "tiempo_gpx_rel": "00:18:10", "desfase_s": 34, "seg_video": 1124, "tiempo_video": "00:18:44", "punto_gpx": 1091, "latitud": -32.953346666666697, "longitud": -68.720853333333295, "elevacion": 702.4, "hora_gpx": "2026-07-13T19:24:16Z", "imagen": "frames/frame_001124.jpg" }, "geometry": { "type": "Point", "coordinates": [ -68.720853333333295, -32.953346666666697 ] } },
{ "type": "Feature", "properties": { "seg_gpx_rel": 1091, "tiempo_gpx_rel": "00:18:11", "desfase_s": 34, "seg_video": 1125, "tiempo_video": "00:18:45", "punto_gpx": 1092, "latitud": -32.953388333333301, "longitud": -68.7208, "elevacion": 702.2, "hora_gpx": "2026-07-13T19:24:17Z", "imagen": "frames/frame_001125.jpg" }, "geometry": { "type": "Point", "coordinates": [ -68.7208, -32.953388333333301 ] } },
{ "type": "Feature", "properties": { "seg_gpx_rel": 1092, "tiempo_gpx_rel": "00:18:12", "desfase_s": 34, "seg_video": 1126, "tiempo_video": "00:18:46", "punto_gpx": 1093, "latitud": -32.953428333333299, "longitud": -68.7207516666667, "elevacion": 702.1, "hora_gpx": "2026-07-13T19:24:18Z", "imagen": "frames/frame_001126.jpg" }, "geometry": { "type": "Point", "coordinates": [ -68.7207516666667, -32.953428333333299 ] } },
{ "type": "Feature", "properties": { "seg_gpx_rel": 1093, "tiempo_gpx_rel": "00:18:13", "desfase_s": 34, "seg_video": 1127, "tiempo_video": "00:18:47", "punto_gpx": 1094, "latitud": -32.953466666666699, "longitud": -68.7207066666667, "elevacion": 701.9, "hora_gpx": "2026-07-13T19:24:19Z", "imagen": "frames/frame_001127.jpg" }, "geometry": { "type": "Point", "coordinates": [ -68.7207066666667, -32.953466666666699 ] } },
{ "type": "Feature", "properties": { "seg_gpx_rel": 1094, "tiempo_gpx_rel": "00:18:14", "desfase_s": 34, "seg_video": 1128, "tiempo_video": "00:18:48", "punto_gpx": 1095, "latitud": -32.9535, "longitud": -68.720663333333306, "elevacion": 701.6, "hora_gpx": "2026-07-13T19:24:20Z", "imagen": "frames/frame_001128.jpg" }, "geometry": { "type": "Point", "coordinates": [ -68.720663333333306, -32.9535 ] } },
{ "type": "Feature", "properties": { "seg_gpx_rel": 1095, "tiempo_gpx_rel": "00:18:15", "desfase_s": 34, "seg_video": 1129, "tiempo_video": "00:18:49", "punto_gpx": 1096, "latitud": -32.953533333333297, "longitud": -68.72062, "elevacion": 701.5, "hora_gpx": "2026-07-13T19:24:21Z", "imagen": "frames/frame_001129.jpg" }, "geometry": { "type": "Point", "coordinates": [ -68.72062, -32.953533333333297 ] } },
{ "type": "Feature", "properties": { "seg_gpx_rel": 1096, "tiempo_gpx_rel": "00:18:16", "desfase_s": 34, "seg_video": 1130, "tiempo_video": "00:18:50", "punto_gpx": 1097, "latitud": -32.95357, "longitud": -68.72058, "elevacion": 701.4, "hora_gpx": "2026-07-13T19:24:22Z", "imagen": "frames/frame_001130.jpg" }, "geometry": { "type": "Point", "coordinates": [ -68.72058, -32.95357 ] } },
{ "type": "Feature", "properties": { "seg_gpx_rel": 1097, "tiempo_gpx_rel": "00:18:17", "desfase_s": 34, "seg_video": 1131, "tiempo_video": "00:18:51", "punto_gpx": 1098, "latitud": -32.953603333333298, "longitud": -68.720535, "elevacion": 701.1, "hora_gpx": "2026-07-13T19:24:23Z", "imagen": "frames/frame_001131.jpg" }, "geometry": { "type": "Point", "coordinates": [ -68.720535, -32.953603333333298 ] } },
{ "type": "Feature", "properties": { "seg_gpx_rel": 1098, "tiempo_gpx_rel": "00:18:18", "desfase_s": 34, "seg_video": 1132, "tiempo_video": "00:18:52", "punto_gpx": 1099, "latitud": -32.95364, "longitud": -68.720483333333306, "elevacion": 701.2, "hora_gpx": "2026-07-13T19:24:24Z", "imagen": "frames/frame_001132.jpg" }, "geometry": { "type": "Point", "coordinates": [ -68.720483333333306, -32.95364 ] } },
{ "type": "Feature", "properties": { "seg_gpx_rel": 1099, "tiempo_gpx_rel": "00:18:19", "desfase_s": 34, "seg_video": 1133, "tiempo_video": "00:18:53", "punto_gpx": 1100, "latitud": -32.953676666666702, "longitud": -68.72043, "elevacion": 701.6, "hora_gpx": "2026-07-13T19:24:25Z", "imagen": "frames/frame_001133.jpg" }, "geometry": { "type": "Point", "coordinates": [ -68.72043, -32.953676666666702 ] } },
{ "type": "Feature", "properties": { "seg_gpx_rel": 1100, "tiempo_gpx_rel": "00:18:20", "desfase_s": 34, "seg_video": 1134, "tiempo_video": "00:18:54", "punto_gpx": 1101, "latitud": -32.953713333333297, "longitud": -68.720376666666695, "elevacion": 701.7, "hora_gpx": "2026-07-13T19:24:26Z", "imagen": "frames/frame_001134.jpg" }, "geometry": { "type": "Point", "coordinates": [ -68.720376666666695, -32.953713333333297 ] } },
{ "type": "Feature", "properties": { "seg_gpx_rel": 1101, "tiempo_gpx_rel": "00:18:21", "desfase_s": 34, "seg_video": 1135, "tiempo_video": "00:18:55", "punto_gpx": 1102, "latitud": -32.953748333333301, "longitud": -68.720325, "elevacion": 701.3, "hora_gpx": "2026-07-13T19:24:27Z", "imagen": "frames/frame_001135.jpg" }, "geometry": { "type": "Point", "coordinates": [ -68.720325, -32.953748333333301 ] } },
{ "type": "Feature", "properties": { "seg_gpx_rel": 1102, "tiempo_gpx_rel": "00:18:22", "desfase_s": 34, "seg_video": 1136, "tiempo_video": "00:18:56", "punto_gpx": 1103, "latitud": -32.953785, "longitud": -68.720275, "elevacion": 701.4, "hora_gpx": "2026-07-13T19:24:28Z", "imagen": "frames/frame_001136.jpg" }, "geometry": { "type": "Point", "coordinates": [ -68.720275, -32.953785 ] } },
{ "type": "Feature", "properties": { "seg_gpx_rel": 1103, "tiempo_gpx_rel": "00:18:23", "desfase_s": 34, "seg_video": 1137, "tiempo_video": "00:18:57", "punto_gpx": 1104, "latitud": -32.953821666666698, "longitud": -68.720228333333296, "elevacion": 701.5, "hora_gpx": "2026-07-13T19:24:29Z", "imagen": "frames/frame_001137.jpg" }, "geometry": { "type": "Point", "coordinates": [ -68.720228333333296, -32.953821666666698 ] } },
{ "type": "Feature", "properties": { "seg_gpx_rel": 1104, "tiempo_gpx_rel": "00:18:24", "desfase_s": 34, "seg_video": 1138, "tiempo_video": "00:18:58", "punto_gpx": 1105, "latitud": -32.953856666666702, "longitud": -68.72018, "elevacion": 701.7, "hora_gpx": "2026-07-13T19:24:30Z", "imagen": "frames/frame_001138.jpg" }, "geometry": { "type": "Point", "coordinates": [ -68.72018, -32.953856666666702 ] } },
{ "type": "Feature", "properties": { "seg_gpx_rel": 1105, "tiempo_gpx_rel": "00:18:25", "desfase_s": 34, "seg_video": 1139, "tiempo_video": "00:18:59", "punto_gpx": 1106, "latitud": -32.95389, "longitud": -68.720133333333294, "elevacion": 701.7, "hora_gpx": "2026-07-13T19:24:31Z", "imagen": "frames/frame_001139.jpg" }, "geometry": { "type": "Point", "coordinates": [ -68.720133333333294, -32.95389 ] } },
{ "type": "Feature", "properties": { "seg_gpx_rel": 1106, "tiempo_gpx_rel": "00:18:26", "desfase_s": 34, "seg_video": 1140, "tiempo_video": "00:19:00", "punto_gpx": 1107, "latitud": -32.95392, "longitud": -68.720088333333294, "elevacion": 701.5, "hora_gpx": "2026-07-13T19:24:32Z", "imagen": "frames/frame_001140.jpg" }, "geometry": { "type": "Point", "coordinates": [ -68.720088333333294, -32.95392 ] } },
{ "type": "Feature", "properties": { "seg_gpx_rel": 1107, "tiempo_gpx_rel": "00:18:27", "desfase_s": 34, "seg_video": 1141, "tiempo_video": "00:19:01", "punto_gpx": 1108, "latitud": -32.953951666666697, "longitud": -68.720045, "elevacion": 701.5, "hora_gpx": "2026-07-13T19:24:33Z", "imagen": "frames/frame_001141.jpg" }, "geometry": { "type": "Point", "coordinates": [ -68.720045, -32.953951666666697 ] } },
{ "type": "Feature", "properties": { "seg_gpx_rel": 1108, "tiempo_gpx_rel": "00:18:28", "desfase_s": 34, "seg_video": 1142, "tiempo_video": "00:19:02", "punto_gpx": 1109, "latitud": -32.953981666666699, "longitud": -68.720005, "elevacion": 701.5, "hora_gpx": "2026-07-13T19:24:34Z", "imagen": "frames/frame_001142.jpg" }, "geometry": { "type": "Point", "coordinates": [ -68.720005, -32.953981666666699 ] } },
{ "type": "Feature", "properties": { "seg_gpx_rel": 1109, "tiempo_gpx_rel": "00:18:29", "desfase_s": 34, "seg_video": 1143, "tiempo_video": "00:19:03", "punto_gpx": 1110, "latitud": -32.95401, "longitud": -68.719963333333297, "elevacion": 701.8, "hora_gpx": "2026-07-13T19:24:35Z", "imagen": "frames/frame_001143.jpg" }, "geometry": { "type": "Point", "coordinates": [ -68.719963333333297, -32.95401 ] } },
{ "type": "Feature", "properties": { "seg_gpx_rel": 1110, "tiempo_gpx_rel": "00:18:30", "desfase_s": 34, "seg_video": 1144, "tiempo_video": "00:19:04", "punto_gpx": 1111, "latitud": -32.954036666666703, "longitud": -68.719925, "elevacion": 701.9, "hora_gpx": "2026-07-13T19:24:36Z", "imagen": "frames/frame_001144.jpg" }, "geometry": { "type": "Point", "coordinates": [ -68.719925, -32.954036666666703 ] } },
{ "type": "Feature", "properties": { "seg_gpx_rel": 1111, "tiempo_gpx_rel": "00:18:31", "desfase_s": 34, "seg_video": 1145, "tiempo_video": "00:19:05", "punto_gpx": 1112, "latitud": -32.954063333333302, "longitud": -68.71989, "elevacion": 701.8, "hora_gpx": "2026-07-13T19:24:37Z", "imagen": "frames/frame_001145.jpg" }, "geometry": { "type": "Point", "coordinates": [ -68.71989, -32.954063333333302 ] } },
{ "type": "Feature", "properties": { "seg_gpx_rel": 1112, "tiempo_gpx_rel": "00:18:32", "desfase_s": 34, "seg_video": 1146, "tiempo_video": "00:19:06", "punto_gpx": 1113, "latitud": -32.954088333333303, "longitud": -68.719856666666701, "elevacion": 701.7, "hora_gpx": "2026-07-13T19:24:38Z", "imagen": "frames/frame_001146.jpg" }, "geometry": { "type": "Point", "coordinates": [ -68.719856666666701, -32.954088333333303 ] } },
{ "type": "Feature", "properties": { "seg_gpx_rel": 1113, "tiempo_gpx_rel": "00:18:33", "desfase_s": 34, "seg_video": 1147, "tiempo_video": "00:19:07", "punto_gpx": 1114, "latitud": -32.954113333333297, "longitud": -68.71982, "elevacion": 701.4, "hora_gpx": "2026-07-13T19:24:39Z", "imagen": "frames/frame_001147.jpg" }, "geometry": { "type": "Point", "coordinates": [ -68.71982, -32.954113333333297 ] } },
{ "type": "Feature", "properties": { "seg_gpx_rel": 1114, "tiempo_gpx_rel": "00:18:34", "desfase_s": 34, "seg_video": 1148, "tiempo_video": "00:19:08", "punto_gpx": 1115, "latitud": -32.9541416666667, "longitud": -68.719781666666606, "elevacion": 701.3, "hora_gpx": "2026-07-13T19:24:40Z", "imagen": "frames/frame_001148.jpg" }, "geometry": { "type": "Point", "coordinates": [ -68.719781666666606, -32.9541416666667 ] } },
{ "type": "Feature", "properties": { "seg_gpx_rel": 1115, "tiempo_gpx_rel": "00:18:35", "desfase_s": 34, "seg_video": 1149, "tiempo_video": "00:19:09", "punto_gpx": 1116, "latitud": -32.954171666666703, "longitud": -68.71974, "elevacion": 701.3, "hora_gpx": "2026-07-13T19:24:41Z", "imagen": "frames/frame_001149.jpg" }, "geometry": { "type": "Point", "coordinates": [ -68.71974, -32.954171666666703 ] } },
{ "type": "Feature", "properties": { "seg_gpx_rel": 1116, "tiempo_gpx_rel": "00:18:36", "desfase_s": 34, "seg_video": 1150, "tiempo_video": "00:19:10", "punto_gpx": 1117, "latitud": -32.9542, "longitud": -68.719695, "elevacion": 701.5, "hora_gpx": "2026-07-13T19:24:42Z", "imagen": "frames/frame_001150.jpg" }, "geometry": { "type": "Point", "coordinates": [ -68.719695, -32.9542 ] } },
{ "type": "Feature", "properties": { "seg_gpx_rel": 1117, "tiempo_gpx_rel": "00:18:37", "desfase_s": 34, "seg_video": 1151, "tiempo_video": "00:19:11", "punto_gpx": 1118, "latitud": -32.954228333333297, "longitud": -68.719653333333298, "elevacion": 701.9, "hora_gpx": "2026-07-13T19:24:43Z", "imagen": "frames/frame_001151.jpg" }, "geometry": { "type": "Point", "coordinates": [ -68.719653333333298, -32.954228333333297 ] } },
{ "type": "Feature", "properties": { "seg_gpx_rel": 1118, "tiempo_gpx_rel": "00:18:38", "desfase_s": 34, "seg_video": 1152, "tiempo_video": "00:19:12", "punto_gpx": 1119, "latitud": -32.954256666666701, "longitud": -68.719613333333299, "elevacion": 701.5, "hora_gpx": "2026-07-13T19:24:44Z", "imagen": "frames/frame_001152.jpg" }, "geometry": { "type": "Point", "coordinates": [ -68.719613333333299, -32.954256666666701 ] } },
{ "type": "Feature", "properties": { "seg_gpx_rel": 1119, "tiempo_gpx_rel": "00:18:39", "desfase_s": 34, "seg_video": 1153, "tiempo_video": "00:19:13", "punto_gpx": 1120, "latitud": -32.954285, "longitud": -68.71957, "elevacion": 701.3, "hora_gpx": "2026-07-13T19:24:45Z", "imagen": "frames/frame_001153.jpg" }, "geometry": { "type": "Point", "coordinates": [ -68.71957, -32.954285 ] } },
{ "type": "Feature", "properties": { "seg_gpx_rel": 1120, "tiempo_gpx_rel": "00:18:40", "desfase_s": 34, "seg_video": 1154, "tiempo_video": "00:19:14", "punto_gpx": 1121, "latitud": -32.954315, "longitud": -68.719526666666695, "elevacion": 701.4, "hora_gpx": "2026-07-13T19:24:46Z", "imagen": "frames/frame_001154.jpg" }, "geometry": { "type": "Point", "coordinates": [ -68.719526666666695, -32.954315 ] } },
{ "type": "Feature", "properties": { "seg_gpx_rel": 1121, "tiempo_gpx_rel": "00:18:41", "desfase_s": 34, "seg_video": 1155, "tiempo_video": "00:19:15", "punto_gpx": 1122, "latitud": -32.954346666666702, "longitud": -68.71948, "elevacion": 701.5, "hora_gpx": "2026-07-13T19:24:47Z", "imagen": "frames/frame_001155.jpg" }, "geometry": { "type": "Point", "coordinates": [ -68.71948, -32.954346666666702 ] } },
{ "type": "Feature", "properties": { "seg_gpx_rel": 1122, "tiempo_gpx_rel": "00:18:42", "desfase_s": 34, "seg_video": 1156, "tiempo_video": "00:19:16", "punto_gpx": 1123, "latitud": -32.95438, "longitud": -68.719431666666694, "elevacion": 701.6, "hora_gpx": "2026-07-13T19:24:48Z", "imagen": "frames/frame_001156.jpg" }, "geometry": { "type": "Point", "coordinates": [ -68.719431666666694, -32.95438 ] } },
{ "type": "Feature", "properties": { "seg_gpx_rel": 1123, "tiempo_gpx_rel": "00:18:43", "desfase_s": 34, "seg_video": 1157, "tiempo_video": "00:19:17", "punto_gpx": 1124, "latitud": -32.954413333333299, "longitud": -68.719383333333298, "elevacion": 701.5, "hora_gpx": "2026-07-13T19:24:49Z", "imagen": "frames/frame_001157.jpg" }, "geometry": { "type": "Point", "coordinates": [ -68.719383333333298, -32.954413333333299 ] } },
{ "type": "Feature", "properties": { "seg_gpx_rel": 1124, "tiempo_gpx_rel": "00:18:44", "desfase_s": 34, "seg_video": 1158, "tiempo_video": "00:19:18", "punto_gpx": 1125, "latitud": -32.954448333333303, "longitud": -68.719336666666706, "elevacion": 701.2, "hora_gpx": "2026-07-13T19:24:50Z", "imagen": "frames/frame_001158.jpg" }, "geometry": { "type": "Point", "coordinates": [ -68.719336666666706, -32.954448333333303 ] } },
{ "type": "Feature", "properties": { "seg_gpx_rel": 1125, "tiempo_gpx_rel": "00:18:45", "desfase_s": 34, "seg_video": 1159, "tiempo_video": "00:19:19", "punto_gpx": 1126, "latitud": -32.954481666666702, "longitud": -68.71929, "elevacion": 701.2, "hora_gpx": "2026-07-13T19:24:51Z", "imagen": "frames/frame_001159.jpg" }, "geometry": { "type": "Point", "coordinates": [ -68.71929, -32.954481666666702 ] } },
{ "type": "Feature", "properties": { "seg_gpx_rel": 1126, "tiempo_gpx_rel": "00:18:46", "desfase_s": 34, "seg_video": 1160, "tiempo_video": "00:19:20", "punto_gpx": 1127, "latitud": -32.954513333333303, "longitud": -68.719245, "elevacion": 701.3, "hora_gpx": "2026-07-13T19:24:52Z", "imagen": "frames/frame_001160.jpg" }, "geometry": { "type": "Point", "coordinates": [ -68.719245, -32.954513333333303 ] } },
{ "type": "Feature", "properties": { "seg_gpx_rel": 1127, "tiempo_gpx_rel": "00:18:47", "desfase_s": 34, "seg_video": 1161, "tiempo_video": "00:19:21", "punto_gpx": 1128, "latitud": -32.954543333333298, "longitud": -68.719203333333297, "elevacion": 700.8, "hora_gpx": "2026-07-13T19:24:53Z", "imagen": "frames/frame_001161.jpg" }, "geometry": { "type": "Point", "coordinates": [ -68.719203333333297, -32.954543333333298 ] } },
{ "type": "Feature", "properties": { "seg_gpx_rel": 1128, "tiempo_gpx_rel": "00:18:48", "desfase_s": 34, "seg_video": 1162, "tiempo_video": "00:19:22", "punto_gpx": 1129, "latitud": -32.9545733333333, "longitud": -68.719163333333299, "elevacion": 700.8, "hora_gpx": "2026-07-13T19:24:54Z", "imagen": "frames/frame_001162.jpg" }, "geometry": { "type": "Point", "coordinates": [ -68.719163333333299, -32.9545733333333 ] } },
{ "type": "Feature", "properties": { "seg_gpx_rel": 1129, "tiempo_gpx_rel": "00:18:49", "desfase_s": 34, "seg_video": 1163, "tiempo_video": "00:19:23", "punto_gpx": 1130, "latitud": -32.9546, "longitud": -68.719125, "elevacion": 700.8, "hora_gpx": "2026-07-13T19:24:55Z", "imagen": "frames/frame_001163.jpg" }, "geometry": { "type": "Point", "coordinates": [ -68.719125, -32.9546 ] } },
{ "type": "Feature", "properties": { "seg_gpx_rel": 1130, "tiempo_gpx_rel": "00:18:50", "desfase_s": 34, "seg_video": 1164, "tiempo_video": "00:19:24", "punto_gpx": 1131, "latitud": -32.954626666666698, "longitud": -68.719088333333303, "elevacion": 700.9, "hora_gpx": "2026-07-13T19:24:56Z", "imagen": "frames/frame_001164.jpg" }, "geometry": { "type": "Point", "coordinates": [ -68.719088333333303, -32.954626666666698 ] } },
{ "type": "Feature", "properties": { "seg_gpx_rel": 1131, "tiempo_gpx_rel": "00:18:51", "desfase_s": 34, "seg_video": 1165, "tiempo_video": "00:19:25", "punto_gpx": 1132, "latitud": -32.95465, "longitud": -68.719053333333306, "elevacion": 701.2, "hora_gpx": "2026-07-13T19:24:57Z", "imagen": "frames/frame_001165.jpg" }, "geometry": { "type": "Point", "coordinates": [ -68.719053333333306, -32.95465 ] } },
{ "type": "Feature", "properties": { "seg_gpx_rel": 1132, "tiempo_gpx_rel": "00:18:52", "desfase_s": 34, "seg_video": 1166, "tiempo_video": "00:19:26", "punto_gpx": 1133, "latitud": -32.954668333333302, "longitud": -68.719025, "elevacion": 701.4, "hora_gpx": "2026-07-13T19:24:58Z", "imagen": "frames/frame_001166.jpg" }, "geometry": { "type": "Point", "coordinates": [ -68.719025, -32.954668333333302 ] } }
]
}
