{
"type": "FeatureCollection",
"name": "Tramo 2",
"crs": { "type": "name", "properties": { "name": "urn:ogc:def:crs:OGC:1.3:CRS84" } },
"features": [
{"type":"Feature","properties":{"seg_gpx_rel":0,"tiempo_gpx_rel":"00:00:00","desfase_s":false,"seg_video":0,"tiempo_video":"00:00:00","punto_gpx":1,"latitud":-32.95483,"longitud":-68.718761666666694,"elevacion":701.6,"hora_gpx":"2026-07-13T19:25:07Z","imagen":"frames/frame_000000.jpg"},"geometry":{"type":"Point","coordinates":[-68.718761666666694,-32.95483]}},
{"type":"Feature","properties":{"seg_gpx_rel":1,"tiempo_gpx_rel":"00:00:01","desfase_s":false,"seg_video":1,"tiempo_video":"00:00:01","punto_gpx":2,"latitud":-32.954865,"longitud":-68.718713333333298,"elevacion":701.6,"hora_gpx":"2026-07-13T19:25:08Z","imagen":"frames/frame_000001.jpg"},"geometry":{"type":"Point","coordinates":[-68.718713333333298,-32.954865]}},
{"type":"Feature","properties":{"seg_gpx_rel":2,"tiempo_gpx_rel":"00:00:02","desfase_s":false,"seg_video":2,"tiempo_video":"00:00:02","punto_gpx":3,"latitud":-32.9549016666667,"longitud":-68.718665,"elevacion":701.3,"hora_gpx":"2026-07-13T19:25:09Z","imagen":"frames/frame_000002.jpg"},"geometry":{"type":"Point","coordinates":[-68.718665,-32.9549016666667]}},
{"type":"Feature","properties":{"seg_gpx_rel":3,"tiempo_gpx_rel":"00:00:03","desfase_s":false,"seg_video":3,"tiempo_video":"00:00:03","punto_gpx":4,"latitud":-32.954943333333297,"longitud":-68.718618333333296,"elevacion":701.3,"hora_gpx":"2026-07-13T19:25:10Z","imagen":"frames/frame_000003.jpg"},"geometry":{"type":"Point","coordinates":[-68.718618333333296,-32.954943333333297]}},
{"type":"Feature","properties":{"seg_gpx_rel":4,"tiempo_gpx_rel":"00:00:04","desfase_s":false,"seg_video":4,"tiempo_video":"00:00:04","punto_gpx":5,"latitud":-32.954983333333303,"longitud":-68.718573333333296,"elevacion":701.1,"hora_gpx":"2026-07-13T19:25:11Z","imagen":"frames/frame_000004.jpg"},"geometry":{"type":"Point","coordinates":[-68.718573333333296,-32.954983333333303]}},
{"type":"Feature","properties":{"seg_gpx_rel":5,"tiempo_gpx_rel":"00:00:05","desfase_s":false,"seg_video":5,"tiempo_video":"00:00:05","punto_gpx":6,"latitud":-32.955021666666703,"longitud":-68.718528333333296,"elevacion":700.9,"hora_gpx":"2026-07-13T19:25:12Z","imagen":"frames/frame_000005.jpg"},"geometry":{"type":"Point","coordinates":[-68.718528333333296,-32.955021666666703]}},
{"type":"Feature","properties":{"seg_gpx_rel":6,"tiempo_gpx_rel":"00:00:06","desfase_s":false,"seg_video":6,"tiempo_video":"00:00:06","punto_gpx":7,"latitud":-32.955058333333298,"longitud":-68.718481666666705,"elevacion":700.9,"hora_gpx":"2026-07-13T19:25:13Z","imagen":"frames/frame_000006.jpg"},"geometry":{"type":"Point","coordinates":[-68.718481666666705,-32.955058333333298]}},
{"type":"Feature","properties":{"seg_gpx_rel":7,"tiempo_gpx_rel":"00:00:07","desfase_s":false,"seg_video":7,"tiempo_video":"00:00:07","punto_gpx":8,"latitud":-32.955095,"longitud":-68.71843,"elevacion":700.9,"hora_gpx":"2026-07-13T19:25:14Z","imagen":"frames/frame_000007.jpg"},"geometry":{"type":"Point","coordinates":[-68.71843,-32.955095]}},
{"type":"Feature","properties":{"seg_gpx_rel":8,"tiempo_gpx_rel":"00:00:08","desfase_s":false,"seg_video":8,"tiempo_video":"00:00:08","punto_gpx":9,"latitud":-32.955133333333301,"longitud":-68.718378333333305,"elevacion":700.9,"hora_gpx":"2026-07-13T19:25:15Z","imagen":"frames/frame_000008.jpg"},"geometry":{"type":"Point","coordinates":[-68.718378333333305,-32.955133333333301]}},
{"type":"Feature","properties":{"seg_gpx_rel":9,"tiempo_gpx_rel":"00:00:09","desfase_s":false,"seg_video":9,"tiempo_video":"00:00:09","punto_gpx":10,"latitud":-32.95517,"longitud":-68.718325,"elevacion":701.2,"hora_gpx":"2026-07-13T19:25:16Z","imagen":"frames/frame_000009.jpg"},"geometry":{"type":"Point","coordinates":[-68.718325,-32.95517]}},
{"type":"Feature","properties":{"seg_gpx_rel":10,"tiempo_gpx_rel":"00:00:10","desfase_s":false,"seg_video":10,"tiempo_video":"00:00:10","punto_gpx":11,"latitud":-32.955208333333303,"longitud":-68.7182733333333,"elevacion":701.5,"hora_gpx":"2026-07-13T19:25:17Z","imagen":"frames/frame_000010.jpg"},"geometry":{"type":"Point","coordinates":[-68.7182733333333,-32.955208333333303]}},
{"type":"Feature","properties":{"seg_gpx_rel":11,"tiempo_gpx_rel":"00:00:11","desfase_s":false,"seg_video":11,"tiempo_video":"00:00:11","punto_gpx":12,"latitud":-32.955246666666703,"longitud":-68.718221666666693,"elevacion":701.6,"hora_gpx":"2026-07-13T19:25:18Z","imagen":"frames/frame_000011.jpg"},"geometry":{"type":"Point","coordinates":[-68.718221666666693,-32.955246666666703]}},
{"type":"Feature","properties":{"seg_gpx_rel":12,"tiempo_gpx_rel":"00:00:12","desfase_s":false,"seg_video":12,"tiempo_video":"00:00:12","punto_gpx":13,"latitud":-32.955286666666701,"longitud":-68.718168333333296,"elevacion":701.9,"hora_gpx":"2026-07-13T19:25:19Z","imagen":"frames/frame_000012.jpg"},"geometry":{"type":"Point","coordinates":[-68.718168333333296,-32.955286666666701]}},
{"type":"Feature","properties":{"seg_gpx_rel":13,"tiempo_gpx_rel":"00:00:13","desfase_s":false,"seg_video":13,"tiempo_video":"00:00:13","punto_gpx":14,"latitud":-32.9553266666667,"longitud":-68.718115,"elevacion":702.1,"hora_gpx":"2026-07-13T19:25:20Z","imagen":"frames/frame_000013.jpg"},"geometry":{"type":"Point","coordinates":[-68.718115,-32.9553266666667]}},
{"type":"Feature","properties":{"seg_gpx_rel":14,"tiempo_gpx_rel":"00:00:14","desfase_s":false,"seg_video":14,"tiempo_video":"00:00:14","punto_gpx":15,"latitud":-32.955366666666698,"longitud":-68.718061666666699,"elevacion":702.3,"hora_gpx":"2026-07-13T19:25:21Z","imagen":"frames/frame_000014.jpg"},"geometry":{"type":"Point","coordinates":[-68.718061666666699,-32.955366666666698]}},
{"type":"Feature","properties":{"seg_gpx_rel":15,"tiempo_gpx_rel":"00:00:15","desfase_s":false,"seg_video":15,"tiempo_video":"00:00:15","punto_gpx":16,"latitud":-32.955405,"longitud":-68.71801,"elevacion":702.3,"hora_gpx":"2026-07-13T19:25:22Z","imagen":"frames/frame_000015.jpg"},"geometry":{"type":"Point","coordinates":[-68.71801,-32.955405]}},
{"type":"Feature","properties":{"seg_gpx_rel":16,"tiempo_gpx_rel":"00:00:16","desfase_s":false,"seg_video":16,"tiempo_video":"00:00:16","punto_gpx":17,"latitud":-32.955441666666701,"longitud":-68.71796,"elevacion":702.2,"hora_gpx":"2026-07-13T19:25:23Z","imagen":"frames/frame_000016.jpg"},"geometry":{"type":"Point","coordinates":[-68.71796,-32.955441666666701]}},
{"type":"Feature","properties":{"seg_gpx_rel":17,"tiempo_gpx_rel":"00:00:17","desfase_s":false,"seg_video":17,"tiempo_video":"00:00:17","punto_gpx":18,"latitud":-32.955475,"longitud":-68.717911666666694,"elevacion":702.2,"hora_gpx":"2026-07-13T19:25:24Z","imagen":"frames/frame_000017.jpg"},"geometry":{"type":"Point","coordinates":[-68.717911666666694,-32.955475]}},
{"type":"Feature","properties":{"seg_gpx_rel":18,"tiempo_gpx_rel":"00:00:18","desfase_s":false,"seg_video":18,"tiempo_video":"00:00:18","punto_gpx":19,"latitud":-32.955508333333299,"longitud":-68.717865,"elevacion":702.1,"hora_gpx":"2026-07-13T19:25:25Z","imagen":"frames/frame_000018.jpg"},"geometry":{"type":"Point","coordinates":[-68.717865,-32.955508333333299]}},
{"type":"Feature","properties":{"seg_gpx_rel":19,"tiempo_gpx_rel":"00:00:19","desfase_s":false,"seg_video":19,"tiempo_video":"00:00:19","punto_gpx":20,"latitud":-32.955541666666697,"longitud":-68.71782,"elevacion":702.1,"hora_gpx":"2026-07-13T19:25:26Z","imagen":"frames/frame_000019.jpg"},"geometry":{"type":"Point","coordinates":[-68.71782,-32.955541666666697]}},
{"type":"Feature","properties":{"seg_gpx_rel":20,"tiempo_gpx_rel":"00:00:20","desfase_s":false,"seg_video":20,"tiempo_video":"00:00:20","punto_gpx":21,"latitud":-32.955575,"longitud":-68.717773333333298,"elevacion":702.2,"hora_gpx":"2026-07-13T19:25:27Z","imagen":"frames/frame_000020.jpg"},"geometry":{"type":"Point","coordinates":[-68.717773333333298,-32.955575]}},
{"type":"Feature","properties":{"seg_gpx_rel":21,"tiempo_gpx_rel":"00:00:21","desfase_s":false,"seg_video":21,"tiempo_video":"00:00:21","punto_gpx":22,"latitud":-32.95561,"longitud":-68.717728333333298,"elevacion":702.1,"hora_gpx":"2026-07-13T19:25:28Z","imagen":"frames/frame_000021.jpg"},"geometry":{"type":"Point","coordinates":[-68.717728333333298,-32.95561]}},
{"type":"Feature","properties":{"seg_gpx_rel":22,"tiempo_gpx_rel":"00:00:22","desfase_s":false,"seg_video":22,"tiempo_video":"00:00:22","punto_gpx":23,"latitud":-32.955645,"longitud":-68.717681666666707,"elevacion":702.1,"hora_gpx":"2026-07-13T19:25:29Z","imagen":"frames/frame_000022.jpg"},"geometry":{"type":"Point","coordinates":[-68.717681666666707,-32.955645]}},
{"type":"Feature","properties":{"seg_gpx_rel":23,"tiempo_gpx_rel":"00:00:23","desfase_s":false,"seg_video":23,"tiempo_video":"00:00:23","punto_gpx":24,"latitud":-32.955676666666697,"longitud":-68.717636666666706,"elevacion":702.3,"hora_gpx":"2026-07-13T19:25:30Z","imagen":"frames/frame_000023.jpg"},"geometry":{"type":"Point","coordinates":[-68.717636666666706,-32.955676666666697]}},
{"type":"Feature","properties":{"seg_gpx_rel":24,"tiempo_gpx_rel":"00:00:24","desfase_s":false,"seg_video":24,"tiempo_video":"00:00:24","punto_gpx":25,"latitud":-32.955708333333298,"longitud":-68.717596666666694,"elevacion":702.2,"hora_gpx":"2026-07-13T19:25:31Z","imagen":"frames/frame_000024.jpg"},"geometry":{"type":"Point","coordinates":[-68.717596666666694,-32.955708333333298]}},
{"type":"Feature","properties":{"seg_gpx_rel":25,"tiempo_gpx_rel":"00:00:25","desfase_s":false,"seg_video":25,"tiempo_video":"00:00:25","punto_gpx":26,"latitud":-32.955733333333299,"longitud":-68.717556666666695,"elevacion":702.2,"hora_gpx":"2026-07-13T19:25:32Z","imagen":"frames/frame_000025.jpg"},"geometry":{"type":"Point","coordinates":[-68.717556666666695,-32.955733333333299]}},
{"type":"Feature","properties":{"seg_gpx_rel":26,"tiempo_gpx_rel":"00:00:26","desfase_s":false,"seg_video":26,"tiempo_video":"00:00:26","punto_gpx":27,"latitud":-32.95576,"longitud":-68.717518333333302,"elevacion":702.4,"hora_gpx":"2026-07-13T19:25:33Z","imagen":"frames/frame_000026.jpg"},"geometry":{"type":"Point","coordinates":[-68.717518333333302,-32.95576]}},
{"type":"Feature","properties":{"seg_gpx_rel":27,"tiempo_gpx_rel":"00:00:27","desfase_s":false,"seg_video":27,"tiempo_video":"00:00:27","punto_gpx":28,"latitud":-32.955786666666697,"longitud":-68.7174816666667,"elevacion":702.8,"hora_gpx":"2026-07-13T19:25:34Z","imagen":"frames/frame_000027.jpg"},"geometry":{"type":"Point","coordinates":[-68.7174816666667,-32.955786666666697]}},
{"type":"Feature","properties":{"seg_gpx_rel":28,"tiempo_gpx_rel":"00:00:28","desfase_s":false,"seg_video":28,"tiempo_video":"00:00:28","punto_gpx":29,"latitud":-32.955813333333303,"longitud":-68.717443333333307,"elevacion":703.1,"hora_gpx":"2026-07-13T19:25:35Z","imagen":"frames/frame_000028.jpg"},"geometry":{"type":"Point","coordinates":[-68.717443333333307,-32.955813333333303]}},
{"type":"Feature","properties":{"seg_gpx_rel":29,"tiempo_gpx_rel":"00:00:29","desfase_s":false,"seg_video":29,"tiempo_video":"00:00:29","punto_gpx":30,"latitud":-32.9558416666667,"longitud":-68.717403333333294,"elevacion":703.2,"hora_gpx":"2026-07-13T19:25:36Z","imagen":"frames/frame_000029.jpg"},"geometry":{"type":"Point","coordinates":[-68.717403333333294,-32.9558416666667]}},
{"type":"Feature","properties":{"seg_gpx_rel":30,"tiempo_gpx_rel":"00:00:30","desfase_s":false,"seg_video":30,"tiempo_video":"00:00:30","punto_gpx":31,"latitud":-32.95587,"longitud":-68.717361666666605,"elevacion":703.2,"hora_gpx":"2026-07-13T19:25:37Z","imagen":"frames/frame_000030.jpg"},"geometry":{"type":"Point","coordinates":[-68.717361666666605,-32.95587]}},
{"type":"Feature","properties":{"seg_gpx_rel":31,"tiempo_gpx_rel":"00:00:31","desfase_s":false,"seg_video":31,"tiempo_video":"00:00:31","punto_gpx":32,"latitud":-32.955901666666698,"longitud":-68.717313333333394,"elevacion":703.4,"hora_gpx":"2026-07-13T19:25:38Z","imagen":"frames/frame_000031.jpg"},"geometry":{"type":"Point","coordinates":[-68.717313333333394,-32.955901666666698]}},
{"type":"Feature","properties":{"seg_gpx_rel":32,"tiempo_gpx_rel":"00:00:32","desfase_s":false,"seg_video":32,"tiempo_video":"00:00:32","punto_gpx":33,"latitud":-32.9559316666667,"longitud":-68.717263333333307,"elevacion":703.4,"hora_gpx":"2026-07-13T19:25:39Z","imagen":"frames/frame_000032.jpg"},"geometry":{"type":"Point","coordinates":[-68.717263333333307,-32.9559316666667]}},
{"type":"Feature","properties":{"seg_gpx_rel":33,"tiempo_gpx_rel":"00:00:33","desfase_s":false,"seg_video":33,"tiempo_video":"00:00:33","punto_gpx":34,"latitud":-32.955961666666703,"longitud":-68.717206666666698,"elevacion":703.4,"hora_gpx":"2026-07-13T19:25:40Z","imagen":"frames/frame_000033.jpg"},"geometry":{"type":"Point","coordinates":[-68.717206666666698,-32.955961666666703]}},
{"type":"Feature","properties":{"seg_gpx_rel":34,"tiempo_gpx_rel":"00:00:34","desfase_s":false,"seg_video":34,"tiempo_video":"00:00:34","punto_gpx":35,"latitud":-32.955995,"longitud":-68.717145,"elevacion":703.6,"hora_gpx":"2026-07-13T19:25:41Z","imagen":"frames/frame_000034.jpg"},"geometry":{"type":"Point","coordinates":[-68.717145,-32.955995]}},
{"type":"Feature","properties":{"seg_gpx_rel":35,"tiempo_gpx_rel":"00:00:35","desfase_s":false,"seg_video":35,"tiempo_video":"00:00:35","punto_gpx":36,"latitud":-32.956036666666698,"longitud":-68.71708,"elevacion":703.7,"hora_gpx":"2026-07-13T19:25:42Z","imagen":"frames/frame_000035.jpg"},"geometry":{"type":"Point","coordinates":[-68.71708,-32.956036666666698]}},
{"type":"Feature","properties":{"seg_gpx_rel":36,"tiempo_gpx_rel":"00:00:36","desfase_s":false,"seg_video":36,"tiempo_video":"00:00:36","punto_gpx":37,"latitud":-32.9560866666667,"longitud":-68.717008333333297,"elevacion":703.8,"hora_gpx":"2026-07-13T19:25:43Z","imagen":"frames/frame_000036.jpg"},"geometry":{"type":"Point","coordinates":[-68.717008333333297,-32.9560866666667]}},
{"type":"Feature","properties":{"seg_gpx_rel":37,"tiempo_gpx_rel":"00:00:37","desfase_s":false,"seg_video":37,"tiempo_video":"00:00:37","punto_gpx":38,"latitud":-32.956145,"longitud":-68.716925,"elevacion":703.6,"hora_gpx":"2026-07-13T19:25:44Z","imagen":"frames/frame_000037.jpg"},"geometry":{"type":"Point","coordinates":[-68.716925,-32.956145]}},
{"type":"Feature","properties":{"seg_gpx_rel":38,"tiempo_gpx_rel":"00:00:38","desfase_s":false,"seg_video":38,"tiempo_video":"00:00:38","punto_gpx":39,"latitud":-32.956211666666697,"longitud":-68.716833333333298,"elevacion":703.5,"hora_gpx":"2026-07-13T19:25:45Z","imagen":"frames/frame_000038.jpg"},"geometry":{"type":"Point","coordinates":[-68.716833333333298,-32.956211666666697]}},
{"type":"Feature","properties":{"seg_gpx_rel":39,"tiempo_gpx_rel":"00:00:39","desfase_s":false,"seg_video":39,"tiempo_video":"00:00:39","punto_gpx":40,"latitud":-32.956281666666698,"longitud":-68.716733333333295,"elevacion":703.4,"hora_gpx":"2026-07-13T19:25:46Z","imagen":"frames/frame_000039.jpg"},"geometry":{"type":"Point","coordinates":[-68.716733333333295,-32.956281666666698]}},
{"type":"Feature","properties":{"seg_gpx_rel":40,"tiempo_gpx_rel":"00:00:40","desfase_s":false,"seg_video":40,"tiempo_video":"00:00:40","punto_gpx":41,"latitud":-32.956358333333299,"longitud":-68.71663,"elevacion":703.4,"hora_gpx":"2026-07-13T19:25:47Z","imagen":"frames/frame_000040.jpg"},"geometry":{"type":"Point","coordinates":[-68.71663,-32.956358333333299]}},
{"type":"Feature","properties":{"seg_gpx_rel":41,"tiempo_gpx_rel":"00:00:41","desfase_s":false,"seg_video":41,"tiempo_video":"00:00:41","punto_gpx":42,"latitud":-32.956433333333301,"longitud":-68.716523333333299,"elevacion":703.3,"hora_gpx":"2026-07-13T19:25:48Z","imagen":"frames/frame_000041.jpg"},"geometry":{"type":"Point","coordinates":[-68.716523333333299,-32.956433333333301]}},
{"type":"Feature","properties":{"seg_gpx_rel":42,"tiempo_gpx_rel":"00:00:42","desfase_s":false,"seg_video":42,"tiempo_video":"00:00:42","punto_gpx":43,"latitud":-32.9565116666667,"longitud":-68.716411666666701,"elevacion":703.1,"hora_gpx":"2026-07-13T19:25:49Z","imagen":"frames/frame_000042.jpg"},"geometry":{"type":"Point","coordinates":[-68.716411666666701,-32.9565116666667]}},
{"type":"Feature","properties":{"seg_gpx_rel":43,"tiempo_gpx_rel":"00:00:43","desfase_s":false,"seg_video":43,"tiempo_video":"00:00:43","punto_gpx":44,"latitud":-32.956591666666696,"longitud":-68.716298333333299,"elevacion":703.0,"hora_gpx":"2026-07-13T19:25:50Z","imagen":"frames/frame_000043.jpg"},"geometry":{"type":"Point","coordinates":[-68.716298333333299,-32.956591666666696]}},
{"type":"Feature","properties":{"seg_gpx_rel":44,"tiempo_gpx_rel":"00:00:44","desfase_s":false,"seg_video":44,"tiempo_video":"00:00:44","punto_gpx":45,"latitud":-32.956671666666701,"longitud":-68.716183333333305,"elevacion":702.9,"hora_gpx":"2026-07-13T19:25:51Z","imagen":"frames/frame_000044.jpg"},"geometry":{"type":"Point","coordinates":[-68.716183333333305,-32.956671666666701]}},
{"type":"Feature","properties":{"seg_gpx_rel":45,"tiempo_gpx_rel":"00:00:45","desfase_s":false,"seg_video":45,"tiempo_video":"00:00:45","punto_gpx":46,"latitud":-32.956755,"longitud":-68.716068333333297,"elevacion":702.9,"hora_gpx":"2026-07-13T19:25:52Z","imagen":"frames/frame_000045.jpg"},"geometry":{"type":"Point","coordinates":[-68.716068333333297,-32.956755]}},
{"type":"Feature","properties":{"seg_gpx_rel":46,"tiempo_gpx_rel":"00:00:46","desfase_s":false,"seg_video":46,"tiempo_video":"00:00:46","punto_gpx":47,"latitud":-32.956838333333302,"longitud":-68.71595,"elevacion":702.8,"hora_gpx":"2026-07-13T19:25:53Z","imagen":"frames/frame_000046.jpg"},"geometry":{"type":"Point","coordinates":[-68.71595,-32.956838333333302]}},
{"type":"Feature","properties":{"seg_gpx_rel":47,"tiempo_gpx_rel":"00:00:47","desfase_s":false,"seg_video":47,"tiempo_video":"00:00:47","punto_gpx":48,"latitud":-32.956921666666702,"longitud":-68.71583,"elevacion":702.7,"hora_gpx":"2026-07-13T19:25:54Z","imagen":"frames/frame_000047.jpg"},"geometry":{"type":"Point","coordinates":[-68.71583,-32.956921666666702]}},
{"type":"Feature","properties":{"seg_gpx_rel":48,"tiempo_gpx_rel":"00:00:48","desfase_s":false,"seg_video":48,"tiempo_video":"00:00:48","punto_gpx":49,"latitud":-32.957005,"longitud":-68.715706666666705,"elevacion":702.8,"hora_gpx":"2026-07-13T19:25:55Z","imagen":"frames/frame_000048.jpg"},"geometry":{"type":"Point","coordinates":[-68.715706666666705,-32.957005]}},
{"type":"Feature","properties":{"seg_gpx_rel":49,"tiempo_gpx_rel":"00:00:49","desfase_s":false,"seg_video":49,"tiempo_video":"00:00:49","punto_gpx":50,"latitud":-32.95709,"longitud":-68.715583333333299,"elevacion":703.0,"hora_gpx":"2026-07-13T19:25:56Z","imagen":"frames/frame_000049.jpg"},"geometry":{"type":"Point","coordinates":[-68.715583333333299,-32.95709]}},
{"type":"Feature","properties":{"seg_gpx_rel":50,"tiempo_gpx_rel":"00:00:50","desfase_s":false,"seg_video":50,"tiempo_video":"00:00:50","punto_gpx":51,"latitud":-32.957175,"longitud":-68.715458333333302,"elevacion":703.1,"hora_gpx":"2026-07-13T19:25:57Z","imagen":"frames/frame_000050.jpg"},"geometry":{"type":"Point","coordinates":[-68.715458333333302,-32.957175]}},
{"type":"Feature","properties":{"seg_gpx_rel":51,"tiempo_gpx_rel":"00:00:51","desfase_s":false,"seg_video":51,"tiempo_video":"00:00:51","punto_gpx":52,"latitud":-32.9572583333333,"longitud":-68.715328333333304,"elevacion":703.2,"hora_gpx":"2026-07-13T19:25:58Z","imagen":"frames/frame_000051.jpg"},"geometry":{"type":"Point","coordinates":[-68.715328333333304,-32.9572583333333]}},
{"type":"Feature","properties":{"seg_gpx_rel":52,"tiempo_gpx_rel":"00:00:52","desfase_s":false,"seg_video":52,"tiempo_video":"00:00:52","punto_gpx":53,"latitud":-32.95734,"longitud":-68.715196666666699,"elevacion":703.2,"hora_gpx":"2026-07-13T19:25:59Z","imagen":"frames/frame_000052.jpg"},"geometry":{"type":"Point","coordinates":[-68.715196666666699,-32.95734]}},
{"type":"Feature","properties":{"seg_gpx_rel":53,"tiempo_gpx_rel":"00:00:53","desfase_s":false,"seg_video":53,"tiempo_video":"00:00:53","punto_gpx":54,"latitud":-32.957418333333301,"longitud":-68.715063333333305,"elevacion":703.1,"hora_gpx":"2026-07-13T19:26:00Z","imagen":"frames/frame_000053.jpg"},"geometry":{"type":"Point","coordinates":[-68.715063333333305,-32.957418333333301]}},
{"type":"Feature","properties":{"seg_gpx_rel":54,"tiempo_gpx_rel":"00:00:54","desfase_s":false,"seg_video":54,"tiempo_video":"00:00:54","punto_gpx":55,"latitud":-32.957498333333298,"longitud":-68.714925,"elevacion":703.2,"hora_gpx":"2026-07-13T19:26:01Z","imagen":"frames/frame_000054.jpg"},"geometry":{"type":"Point","coordinates":[-68.714925,-32.957498333333298]}},
{"type":"Feature","properties":{"seg_gpx_rel":55,"tiempo_gpx_rel":"00:00:55","desfase_s":false,"seg_video":55,"tiempo_video":"00:00:55","punto_gpx":56,"latitud":-32.957576666666696,"longitud":-68.714785,"elevacion":703.1,"hora_gpx":"2026-07-13T19:26:02Z","imagen":"frames/frame_000055.jpg"},"geometry":{"type":"Point","coordinates":[-68.714785,-32.957576666666696]}},
{"type":"Feature","properties":{"seg_gpx_rel":56,"tiempo_gpx_rel":"00:00:56","desfase_s":false,"seg_video":56,"tiempo_video":"00:00:56","punto_gpx":57,"latitud":-32.957651666666699,"longitud":-68.714643333333299,"elevacion":703.1,"hora_gpx":"2026-07-13T19:26:03Z","imagen":"frames/frame_000056.jpg"},"geometry":{"type":"Point","coordinates":[-68.714643333333299,-32.957651666666699]}},
{"type":"Feature","properties":{"seg_gpx_rel":57,"tiempo_gpx_rel":"00:00:57","desfase_s":false,"seg_video":57,"tiempo_video":"00:00:57","punto_gpx":58,"latitud":-32.957725,"longitud":-68.714498333333296,"elevacion":703.0,"hora_gpx":"2026-07-13T19:26:04Z","imagen":"frames/frame_000057.jpg"},"geometry":{"type":"Point","coordinates":[-68.714498333333296,-32.957725]}},
{"type":"Feature","properties":{"seg_gpx_rel":58,"tiempo_gpx_rel":"00:00:58","desfase_s":false,"seg_video":58,"tiempo_video":"00:00:58","punto_gpx":59,"latitud":-32.957796666666702,"longitud":-68.71435,"elevacion":702.8,"hora_gpx":"2026-07-13T19:26:05Z","imagen":"frames/frame_000058.jpg"},"geometry":{"type":"Point","coordinates":[-68.71435,-32.957796666666702]}},
{"type":"Feature","properties":{"seg_gpx_rel":59,"tiempo_gpx_rel":"00:00:59","desfase_s":false,"seg_video":59,"tiempo_video":"00:00:59","punto_gpx":60,"latitud":-32.957868333333302,"longitud":-68.714196666666695,"elevacion":702.7,"hora_gpx":"2026-07-13T19:26:06Z","imagen":"frames/frame_000059.jpg"},"geometry":{"type":"Point","coordinates":[-68.714196666666695,-32.957868333333302]}},
{"type":"Feature","properties":{"seg_gpx_rel":60,"tiempo_gpx_rel":"00:01:00","desfase_s":false,"seg_video":60,"tiempo_video":"00:01:00","punto_gpx":61,"latitud":-32.957938333333303,"longitud":-68.714041666666702,"elevacion":702.6,"hora_gpx":"2026-07-13T19:26:07Z","imagen":"frames/frame_000060.jpg"},"geometry":{"type":"Point","coordinates":[-68.714041666666702,-32.957938333333303]}},
{"type":"Feature","properties":{"seg_gpx_rel":61,"tiempo_gpx_rel":"00:01:01","desfase_s":false,"seg_video":61,"tiempo_video":"00:01:01","punto_gpx":62,"latitud":-32.958005,"longitud":-68.713885,"elevacion":702.5,"hora_gpx":"2026-07-13T19:26:08Z","imagen":"frames/frame_000061.jpg"},"geometry":{"type":"Point","coordinates":[-68.713885,-32.958005]}},
{"type":"Feature","properties":{"seg_gpx_rel":62,"tiempo_gpx_rel":"00:01:02","desfase_s":false,"seg_video":62,"tiempo_video":"00:01:02","punto_gpx":63,"latitud":-32.958068333333301,"longitud":-68.713728333333293,"elevacion":702.5,"hora_gpx":"2026-07-13T19:26:09Z","imagen":"frames/frame_000062.jpg"},"geometry":{"type":"Point","coordinates":[-68.713728333333293,-32.958068333333301]}},
{"type":"Feature","properties":{"seg_gpx_rel":63,"tiempo_gpx_rel":"00:01:03","desfase_s":false,"seg_video":63,"tiempo_video":"00:01:03","punto_gpx":64,"latitud":-32.958128333333299,"longitud":-68.71357,"elevacion":702.3,"hora_gpx":"2026-07-13T19:26:10Z","imagen":"frames/frame_000063.jpg"},"geometry":{"type":"Point","coordinates":[-68.71357,-32.958128333333299]}},
{"type":"Feature","properties":{"seg_gpx_rel":64,"tiempo_gpx_rel":"00:01:04","desfase_s":false,"seg_video":64,"tiempo_video":"00:01:04","punto_gpx":65,"latitud":-32.958186666666698,"longitud":-68.713411666666701,"elevacion":702.2,"hora_gpx":"2026-07-13T19:26:11Z","imagen":"frames/frame_000064.jpg"},"geometry":{"type":"Point","coordinates":[-68.713411666666701,-32.958186666666698]}},
{"type":"Feature","properties":{"seg_gpx_rel":65,"tiempo_gpx_rel":"00:01:05","desfase_s":false,"seg_video":65,"tiempo_video":"00:01:05","punto_gpx":66,"latitud":-32.958238333333298,"longitud":-68.713253333333299,"elevacion":701.9,"hora_gpx":"2026-07-13T19:26:12Z","imagen":"frames/frame_000065.jpg"},"geometry":{"type":"Point","coordinates":[-68.713253333333299,-32.958238333333298]}},
{"type":"Feature","properties":{"seg_gpx_rel":66,"tiempo_gpx_rel":"00:01:06","desfase_s":false,"seg_video":66,"tiempo_video":"00:01:06","punto_gpx":67,"latitud":-32.9582883333333,"longitud":-68.713091666666699,"elevacion":701.7,"hora_gpx":"2026-07-13T19:26:13Z","imagen":"frames/frame_000066.jpg"},"geometry":{"type":"Point","coordinates":[-68.713091666666699,-32.9582883333333]}},
{"type":"Feature","properties":{"seg_gpx_rel":67,"tiempo_gpx_rel":"00:01:07","desfase_s":false,"seg_video":67,"tiempo_video":"00:01:07","punto_gpx":68,"latitud":-32.958338333333302,"longitud":-68.712933333333297,"elevacion":701.5,"hora_gpx":"2026-07-13T19:26:14Z","imagen":"frames/frame_000067.jpg"},"geometry":{"type":"Point","coordinates":[-68.712933333333297,-32.958338333333302]}},
{"type":"Feature","properties":{"seg_gpx_rel":68,"tiempo_gpx_rel":"00:01:08","desfase_s":false,"seg_video":68,"tiempo_video":"00:01:08","punto_gpx":69,"latitud":-32.958386666666698,"longitud":-68.712773333333303,"elevacion":701.5,"hora_gpx":"2026-07-13T19:26:15Z","imagen":"frames/frame_000068.jpg"},"geometry":{"type":"Point","coordinates":[-68.712773333333303,-32.958386666666698]}},
{"type":"Feature","properties":{"seg_gpx_rel":69,"tiempo_gpx_rel":"00:01:09","desfase_s":false,"seg_video":69,"tiempo_video":"00:01:09","punto_gpx":70,"latitud":-32.958428333333302,"longitud":-68.712613333333394,"elevacion":701.3,"hora_gpx":"2026-07-13T19:26:16Z","imagen":"frames/frame_000069.jpg"},"geometry":{"type":"Point","coordinates":[-68.712613333333394,-32.958428333333302]}},
{"type":"Feature","properties":{"seg_gpx_rel":70,"tiempo_gpx_rel":"00:01:10","desfase_s":false,"seg_video":70,"tiempo_video":"00:01:10","punto_gpx":71,"latitud":-32.9584683333333,"longitud":-68.712453333333301,"elevacion":701.1,"hora_gpx":"2026-07-13T19:26:17Z","imagen":"frames/frame_000070.jpg"},"geometry":{"type":"Point","coordinates":[-68.712453333333301,-32.9584683333333]}},
{"type":"Feature","properties":{"seg_gpx_rel":71,"tiempo_gpx_rel":"00:01:11","desfase_s":false,"seg_video":71,"tiempo_video":"00:01:11","punto_gpx":72,"latitud":-32.9585066666667,"longitud":-68.712293333333307,"elevacion":700.9,"hora_gpx":"2026-07-13T19:26:18Z","imagen":"frames/frame_000071.jpg"},"geometry":{"type":"Point","coordinates":[-68.712293333333307,-32.9585066666667]}},
{"type":"Feature","properties":{"seg_gpx_rel":72,"tiempo_gpx_rel":"00:01:12","desfase_s":false,"seg_video":72,"tiempo_video":"00:01:12","punto_gpx":73,"latitud":-32.958541666666697,"longitud":-68.712131666666707,"elevacion":700.8,"hora_gpx":"2026-07-13T19:26:19Z","imagen":"frames/frame_000072.jpg"},"geometry":{"type":"Point","coordinates":[-68.712131666666707,-32.958541666666697]}},
{"type":"Feature","properties":{"seg_gpx_rel":73,"tiempo_gpx_rel":"00:01:13","desfase_s":false,"seg_video":73,"tiempo_video":"00:01:13","punto_gpx":74,"latitud":-32.9585716666667,"longitud":-68.71197,"elevacion":700.5,"hora_gpx":"2026-07-13T19:26:20Z","imagen":"frames/frame_000073.jpg"},"geometry":{"type":"Point","coordinates":[-68.71197,-32.9585716666667]}},
{"type":"Feature","properties":{"seg_gpx_rel":74,"tiempo_gpx_rel":"00:01:14","desfase_s":false,"seg_video":74,"tiempo_video":"00:01:14","punto_gpx":75,"latitud":-32.9586,"longitud":-68.71181,"elevacion":700.6,"hora_gpx":"2026-07-13T19:26:21Z","imagen":"frames/frame_000074.jpg"},"geometry":{"type":"Point","coordinates":[-68.71181,-32.9586]}},
{"type":"Feature","properties":{"seg_gpx_rel":75,"tiempo_gpx_rel":"00:01:15","desfase_s":false,"seg_video":75,"tiempo_video":"00:01:15","punto_gpx":76,"latitud":-32.958625,"longitud":-68.71165,"elevacion":700.4,"hora_gpx":"2026-07-13T19:26:22Z","imagen":"frames/frame_000075.jpg"},"geometry":{"type":"Point","coordinates":[-68.71165,-32.958625]}},
{"type":"Feature","properties":{"seg_gpx_rel":76,"tiempo_gpx_rel":"00:01:16","desfase_s":false,"seg_video":76,"tiempo_video":"00:01:16","punto_gpx":77,"latitud":-32.95865,"longitud":-68.711491666666703,"elevacion":700.2,"hora_gpx":"2026-07-13T19:26:23Z","imagen":"frames/frame_000076.jpg"},"geometry":{"type":"Point","coordinates":[-68.711491666666703,-32.95865]}},
{"type":"Feature","properties":{"seg_gpx_rel":77,"tiempo_gpx_rel":"00:01:17","desfase_s":false,"seg_video":77,"tiempo_video":"00:01:17","punto_gpx":78,"latitud":-32.958671666666703,"longitud":-68.711335,"elevacion":699.9,"hora_gpx":"2026-07-13T19:26:24Z","imagen":"frames/frame_000077.jpg"},"geometry":{"type":"Point","coordinates":[-68.711335,-32.958671666666703]}},
{"type":"Feature","properties":{"seg_gpx_rel":78,"tiempo_gpx_rel":"00:01:18","desfase_s":false,"seg_video":78,"tiempo_video":"00:01:18","punto_gpx":79,"latitud":-32.95869,"longitud":-68.711176666666702,"elevacion":699.9,"hora_gpx":"2026-07-13T19:26:25Z","imagen":"frames/frame_000078.jpg"},"geometry":{"type":"Point","coordinates":[-68.711176666666702,-32.95869]}},
{"type":"Feature","properties":{"seg_gpx_rel":79,"tiempo_gpx_rel":"00:01:19","desfase_s":false,"seg_video":79,"tiempo_video":"00:01:19","punto_gpx":80,"latitud":-32.958708333333298,"longitud":-68.7110183333333,"elevacion":699.8,"hora_gpx":"2026-07-13T19:26:26Z","imagen":"frames/frame_000079.jpg"},"geometry":{"type":"Point","coordinates":[-68.7110183333333,-32.958708333333298]}},
{"type":"Feature","properties":{"seg_gpx_rel":80,"tiempo_gpx_rel":"00:01:20","desfase_s":false,"seg_video":80,"tiempo_video":"00:01:20","punto_gpx":81,"latitud":-32.95872,"longitud":-68.71086,"elevacion":699.6,"hora_gpx":"2026-07-13T19:26:27Z","imagen":"frames/frame_000080.jpg"},"geometry":{"type":"Point","coordinates":[-68.71086,-32.95872]}},
{"type":"Feature","properties":{"seg_gpx_rel":81,"tiempo_gpx_rel":"00:01:21","desfase_s":false,"seg_video":81,"tiempo_video":"00:01:21","punto_gpx":82,"latitud":-32.958731666666701,"longitud":-68.710703333333299,"elevacion":699.6,"hora_gpx":"2026-07-13T19:26:28Z","imagen":"frames/frame_000081.jpg"},"geometry":{"type":"Point","coordinates":[-68.710703333333299,-32.958731666666701]}},
{"type":"Feature","properties":{"seg_gpx_rel":82,"tiempo_gpx_rel":"00:01:22","desfase_s":false,"seg_video":82,"tiempo_video":"00:01:22","punto_gpx":83,"latitud":-32.95874,"longitud":-68.710546666666701,"elevacion":699.2,"hora_gpx":"2026-07-13T19:26:29Z","imagen":"frames/frame_000082.jpg"},"geometry":{"type":"Point","coordinates":[-68.710546666666701,-32.95874]}},
{"type":"Feature","properties":{"seg_gpx_rel":83,"tiempo_gpx_rel":"00:01:23","desfase_s":false,"seg_video":83,"tiempo_video":"00:01:23","punto_gpx":84,"latitud":-32.958745,"longitud":-68.71039,"elevacion":699.0,"hora_gpx":"2026-07-13T19:26:30Z","imagen":"frames/frame_000083.jpg"},"geometry":{"type":"Point","coordinates":[-68.71039,-32.958745]}},
{"type":"Feature","properties":{"seg_gpx_rel":84,"tiempo_gpx_rel":"00:01:24","desfase_s":false,"seg_video":84,"tiempo_video":"00:01:24","punto_gpx":85,"latitud":-32.9587516666667,"longitud":-68.710233333333306,"elevacion":698.7,"hora_gpx":"2026-07-13T19:26:31Z","imagen":"frames/frame_000084.jpg"},"geometry":{"type":"Point","coordinates":[-68.710233333333306,-32.9587516666667]}},
{"type":"Feature","properties":{"seg_gpx_rel":85,"tiempo_gpx_rel":"00:01:25","desfase_s":false,"seg_video":85,"tiempo_video":"00:01:25","punto_gpx":86,"latitud":-32.958753333333298,"longitud":-68.710076666666694,"elevacion":698.5,"hora_gpx":"2026-07-13T19:26:32Z","imagen":"frames/frame_000085.jpg"},"geometry":{"type":"Point","coordinates":[-68.710076666666694,-32.958753333333298]}},
{"type":"Feature","properties":{"seg_gpx_rel":86,"tiempo_gpx_rel":"00:01:26","desfase_s":false,"seg_video":86,"tiempo_video":"00:01:26","punto_gpx":87,"latitud":-32.958755,"longitud":-68.709921666666702,"elevacion":698.1,"hora_gpx":"2026-07-13T19:26:33Z","imagen":"frames/frame_000086.jpg"},"geometry":{"type":"Point","coordinates":[-68.709921666666702,-32.958755]}},
{"type":"Feature","properties":{"seg_gpx_rel":87,"tiempo_gpx_rel":"00:01:27","desfase_s":false,"seg_video":87,"tiempo_video":"00:01:27","punto_gpx":88,"latitud":-32.958753333333298,"longitud":-68.709766666666695,"elevacion":697.9,"hora_gpx":"2026-07-13T19:26:34Z","imagen":"frames/frame_000087.jpg"},"geometry":{"type":"Point","coordinates":[-68.709766666666695,-32.958753333333298]}},
{"type":"Feature","properties":{"seg_gpx_rel":88,"tiempo_gpx_rel":"00:01:28","desfase_s":false,"seg_video":88,"tiempo_video":"00:01:28","punto_gpx":89,"latitud":-32.958753333333298,"longitud":-68.70961,"elevacion":697.5,"hora_gpx":"2026-07-13T19:26:35Z","imagen":"frames/frame_000088.jpg"},"geometry":{"type":"Point","coordinates":[-68.70961,-32.958753333333298]}},
{"type":"Feature","properties":{"seg_gpx_rel":89,"tiempo_gpx_rel":"00:01:29","desfase_s":false,"seg_video":89,"tiempo_video":"00:01:29","punto_gpx":90,"latitud":-32.9587516666667,"longitud":-68.709455,"elevacion":697.1,"hora_gpx":"2026-07-13T19:26:36Z","imagen":"frames/frame_000089.jpg"},"geometry":{"type":"Point","coordinates":[-68.709455,-32.9587516666667]}},
{"type":"Feature","properties":{"seg_gpx_rel":90,"tiempo_gpx_rel":"00:01:30","desfase_s":false,"seg_video":90,"tiempo_video":"00:01:30","punto_gpx":91,"latitud":-32.95875,"longitud":-68.7093,"elevacion":696.7,"hora_gpx":"2026-07-13T19:26:37Z","imagen":"frames/frame_000090.jpg"},"geometry":{"type":"Point","coordinates":[-68.7093,-32.95875]}},
{"type":"Feature","properties":{"seg_gpx_rel":91,"tiempo_gpx_rel":"00:01:31","desfase_s":false,"seg_video":91,"tiempo_video":"00:01:31","punto_gpx":92,"latitud":-32.958748333333297,"longitud":-68.709145,"elevacion":696.1,"hora_gpx":"2026-07-13T19:26:38Z","imagen":"frames/frame_000091.jpg"},"geometry":{"type":"Point","coordinates":[-68.709145,-32.958748333333297]}},
{"type":"Feature","properties":{"seg_gpx_rel":92,"tiempo_gpx_rel":"00:01:32","desfase_s":false,"seg_video":92,"tiempo_video":"00:01:32","punto_gpx":93,"latitud":-32.958746666666698,"longitud":-68.708988333333295,"elevacion":695.6,"hora_gpx":"2026-07-13T19:26:39Z","imagen":"frames/frame_000092.jpg"},"geometry":{"type":"Point","coordinates":[-68.708988333333295,-32.958746666666698]}},
{"type":"Feature","properties":{"seg_gpx_rel":93,"tiempo_gpx_rel":"00:01:33","desfase_s":false,"seg_video":93,"tiempo_video":"00:01:33","punto_gpx":94,"latitud":-32.958746666666698,"longitud":-68.708826666666695,"elevacion":695.0,"hora_gpx":"2026-07-13T19:26:40Z","imagen":"frames/frame_000093.jpg"},"geometry":{"type":"Point","coordinates":[-68.708826666666695,-32.958746666666698]}},
{"type":"Feature","properties":{"seg_gpx_rel":94,"tiempo_gpx_rel":"00:01:34","desfase_s":false,"seg_video":94,"tiempo_video":"00:01:34","punto_gpx":95,"latitud":-32.958746666666698,"longitud":-68.7086616666667,"elevacion":694.7,"hora_gpx":"2026-07-13T19:26:41Z","imagen":"frames/frame_000094.jpg"},"geometry":{"type":"Point","coordinates":[-68.7086616666667,-32.958746666666698]}},
{"type":"Feature","properties":{"seg_gpx_rel":95,"tiempo_gpx_rel":"00:01:35","desfase_s":false,"seg_video":95,"tiempo_video":"00:01:35","punto_gpx":96,"latitud":-32.958746666666698,"longitud":-68.7085,"elevacion":694.6,"hora_gpx":"2026-07-13T19:26:42Z","imagen":"frames/frame_000095.jpg"},"geometry":{"type":"Point","coordinates":[-68.7085,-32.958746666666698]}},
{"type":"Feature","properties":{"seg_gpx_rel":96,"tiempo_gpx_rel":"00:01:36","desfase_s":false,"seg_video":96,"tiempo_video":"00:01:36","punto_gpx":97,"latitud":-32.958746666666698,"longitud":-68.708335,"elevacion":694.7,"hora_gpx":"2026-07-13T19:26:43Z","imagen":"frames/frame_000096.jpg"},"geometry":{"type":"Point","coordinates":[-68.708335,-32.958746666666698]}},
{"type":"Feature","properties":{"seg_gpx_rel":97,"tiempo_gpx_rel":"00:01:37","desfase_s":false,"seg_video":97,"tiempo_video":"00:01:37","punto_gpx":98,"latitud":-32.958746666666698,"longitud":-68.708168333333305,"elevacion":694.7,"hora_gpx":"2026-07-13T19:26:44Z","imagen":"frames/frame_000097.jpg"},"geometry":{"type":"Point","coordinates":[-68.708168333333305,-32.958746666666698]}},
{"type":"Feature","properties":{"seg_gpx_rel":98,"tiempo_gpx_rel":"00:01:38","desfase_s":false,"seg_video":98,"tiempo_video":"00:01:38","punto_gpx":99,"latitud":-32.958746666666698,"longitud":-68.708,"elevacion":694.8,"hora_gpx":"2026-07-13T19:26:45Z","imagen":"frames/frame_000098.jpg"},"geometry":{"type":"Point","coordinates":[-68.708,-32.958746666666698]}},
{"type":"Feature","properties":{"seg_gpx_rel":99,"tiempo_gpx_rel":"00:01:39","desfase_s":false,"seg_video":99,"tiempo_video":"00:01:39","punto_gpx":100,"latitud":-32.958746666666698,"longitud":-68.707831666666706,"elevacion":695.1,"hora_gpx":"2026-07-13T19:26:46Z","imagen":"frames/frame_000099.jpg"},"geometry":{"type":"Point","coordinates":[-68.707831666666706,-32.958746666666698]}},
{"type":"Feature","properties":{"seg_gpx_rel":100,"tiempo_gpx_rel":"00:01:40","desfase_s":false,"seg_video":100,"tiempo_video":"00:01:40","punto_gpx":101,"latitud":-32.958746666666698,"longitud":-68.707663333333301,"elevacion":695.5,"hora_gpx":"2026-07-13T19:26:47Z","imagen":"frames/frame_000100.jpg"},"geometry":{"type":"Point","coordinates":[-68.707663333333301,-32.958746666666698]}},
{"type":"Feature","properties":{"seg_gpx_rel":101,"tiempo_gpx_rel":"00:01:41","desfase_s":false,"seg_video":101,"tiempo_video":"00:01:41","punto_gpx":102,"latitud":-32.958745,"longitud":-68.7074966666667,"elevacion":695.3,"hora_gpx":"2026-07-13T19:26:48Z","imagen":"frames/frame_000101.jpg"},"geometry":{"type":"Point","coordinates":[-68.7074966666667,-32.958745]}},
{"type":"Feature","properties":{"seg_gpx_rel":102,"tiempo_gpx_rel":"00:01:42","desfase_s":false,"seg_video":102,"tiempo_video":"00:01:42","punto_gpx":103,"latitud":-32.958746666666698,"longitud":-68.70733,"elevacion":695.7,"hora_gpx":"2026-07-13T19:26:49Z","imagen":"frames/frame_000102.jpg"},"geometry":{"type":"Point","coordinates":[-68.70733,-32.958746666666698]}},
{"type":"Feature","properties":{"seg_gpx_rel":103,"tiempo_gpx_rel":"00:01:43","desfase_s":false,"seg_video":103,"tiempo_video":"00:01:43","punto_gpx":104,"latitud":-32.958745,"longitud":-68.707163333333298,"elevacion":696.3,"hora_gpx":"2026-07-13T19:26:50Z","imagen":"frames/frame_000103.jpg"},"geometry":{"type":"Point","coordinates":[-68.707163333333298,-32.958745]}},
{"type":"Feature","properties":{"seg_gpx_rel":104,"tiempo_gpx_rel":"00:01:44","desfase_s":false,"seg_video":104,"tiempo_video":"00:01:44","punto_gpx":105,"latitud":-32.958746666666698,"longitud":-68.707,"elevacion":696.7,"hora_gpx":"2026-07-13T19:26:51Z","imagen":"frames/frame_000104.jpg"},"geometry":{"type":"Point","coordinates":[-68.707,-32.958746666666698]}},
{"type":"Feature","properties":{"seg_gpx_rel":105,"tiempo_gpx_rel":"00:01:45","desfase_s":false,"seg_video":105,"tiempo_video":"00:01:45","punto_gpx":106,"latitud":-32.958746666666698,"longitud":-68.706838333333295,"elevacion":696.9,"hora_gpx":"2026-07-13T19:26:52Z","imagen":"frames/frame_000105.jpg"},"geometry":{"type":"Point","coordinates":[-68.706838333333295,-32.958746666666698]}},
{"type":"Feature","properties":{"seg_gpx_rel":106,"tiempo_gpx_rel":"00:01:46","desfase_s":false,"seg_video":106,"tiempo_video":"00:01:46","punto_gpx":107,"latitud":-32.958745,"longitud":-68.706676666666695,"elevacion":696.9,"hora_gpx":"2026-07-13T19:26:53Z","imagen":"frames/frame_000106.jpg"},"geometry":{"type":"Point","coordinates":[-68.706676666666695,-32.958745]}},
{"type":"Feature","properties":{"seg_gpx_rel":107,"tiempo_gpx_rel":"00:01:47","desfase_s":false,"seg_video":107,"tiempo_video":"00:01:47","punto_gpx":108,"latitud":-32.958745,"longitud":-68.706515,"elevacion":697.1,"hora_gpx":"2026-07-13T19:26:54Z","imagen":"frames/frame_000107.jpg"},"geometry":{"type":"Point","coordinates":[-68.706515,-32.958745]}},
{"type":"Feature","properties":{"seg_gpx_rel":108,"tiempo_gpx_rel":"00:01:48","desfase_s":false,"seg_video":108,"tiempo_video":"00:01:48","punto_gpx":109,"latitud":-32.958743333333302,"longitud":-68.706355,"elevacion":697.2,"hora_gpx":"2026-07-13T19:26:55Z","imagen":"frames/frame_000108.jpg"},"geometry":{"type":"Point","coordinates":[-68.706355,-32.958743333333302]}},
{"type":"Feature","properties":{"seg_gpx_rel":109,"tiempo_gpx_rel":"00:01:49","desfase_s":false,"seg_video":109,"tiempo_video":"00:01:49","punto_gpx":110,"latitud":-32.95874,"longitud":-68.706195,"elevacion":697.2,"hora_gpx":"2026-07-13T19:26:56Z","imagen":"frames/frame_000109.jpg"},"geometry":{"type":"Point","coordinates":[-68.706195,-32.95874]}},
{"type":"Feature","properties":{"seg_gpx_rel":110,"tiempo_gpx_rel":"00:01:50","desfase_s":false,"seg_video":110,"tiempo_video":"00:01:50","punto_gpx":111,"latitud":-32.958736666666702,"longitud":-68.706036666666705,"elevacion":697.3,"hora_gpx":"2026-07-13T19:26:57Z","imagen":"frames/frame_000110.jpg"},"geometry":{"type":"Point","coordinates":[-68.706036666666705,-32.958736666666702]}},
{"type":"Feature","properties":{"seg_gpx_rel":111,"tiempo_gpx_rel":"00:01:51","desfase_s":false,"seg_video":111,"tiempo_video":"00:01:51","punto_gpx":112,"latitud":-32.958735,"longitud":-68.705876666666697,"elevacion":697.5,"hora_gpx":"2026-07-13T19:26:58Z","imagen":"frames/frame_000111.jpg"},"geometry":{"type":"Point","coordinates":[-68.705876666666697,-32.958735]}},
{"type":"Feature","properties":{"seg_gpx_rel":112,"tiempo_gpx_rel":"00:01:52","desfase_s":false,"seg_video":112,"tiempo_video":"00:01:52","punto_gpx":113,"latitud":-32.958733333333299,"longitud":-68.705718333333294,"elevacion":697.7,"hora_gpx":"2026-07-13T19:26:59Z","imagen":"frames/frame_000112.jpg"},"geometry":{"type":"Point","coordinates":[-68.705718333333294,-32.958733333333299]}},
{"type":"Feature","properties":{"seg_gpx_rel":113,"tiempo_gpx_rel":"00:01:53","desfase_s":false,"seg_video":113,"tiempo_video":"00:01:53","punto_gpx":114,"latitud":-32.95873,"longitud":-68.70556,"elevacion":697.6,"hora_gpx":"2026-07-13T19:27:00Z","imagen":"frames/frame_000113.jpg"},"geometry":{"type":"Point","coordinates":[-68.70556,-32.95873]}},
{"type":"Feature","properties":{"seg_gpx_rel":114,"tiempo_gpx_rel":"00:01:54","desfase_s":false,"seg_video":114,"tiempo_video":"00:01:54","punto_gpx":115,"latitud":-32.958728333333298,"longitud":-68.705401666666702,"elevacion":697.4,"hora_gpx":"2026-07-13T19:27:01Z","imagen":"frames/frame_000114.jpg"},"geometry":{"type":"Point","coordinates":[-68.705401666666702,-32.958728333333298]}},
{"type":"Feature","properties":{"seg_gpx_rel":115,"tiempo_gpx_rel":"00:01:55","desfase_s":false,"seg_video":115,"tiempo_video":"00:01:55","punto_gpx":116,"latitud":-32.958726666666699,"longitud":-68.7052433333333,"elevacion":697.3,"hora_gpx":"2026-07-13T19:27:02Z","imagen":"frames/frame_000115.jpg"},"geometry":{"type":"Point","coordinates":[-68.7052433333333,-32.958726666666699]}},
{"type":"Feature","properties":{"seg_gpx_rel":116,"tiempo_gpx_rel":"00:01:56","desfase_s":false,"seg_video":116,"tiempo_video":"00:01:56","punto_gpx":117,"latitud":-32.958726666666699,"longitud":-68.705086666666702,"elevacion":697.1,"hora_gpx":"2026-07-13T19:27:03Z","imagen":"frames/frame_000116.jpg"},"geometry":{"type":"Point","coordinates":[-68.705086666666702,-32.958726666666699]}},
{"type":"Feature","properties":{"seg_gpx_rel":117,"tiempo_gpx_rel":"00:01:57","desfase_s":false,"seg_video":117,"tiempo_video":"00:01:57","punto_gpx":118,"latitud":-32.958725,"longitud":-68.704928333333299,"elevacion":697.0,"hora_gpx":"2026-07-13T19:27:04Z","imagen":"frames/frame_000117.jpg"},"geometry":{"type":"Point","coordinates":[-68.704928333333299,-32.958725]}},
{"type":"Feature","properties":{"seg_gpx_rel":118,"tiempo_gpx_rel":"00:01:58","desfase_s":false,"seg_video":118,"tiempo_video":"00:01:58","punto_gpx":119,"latitud":-32.958723333333303,"longitud":-68.704771666666701,"elevacion":696.8,"hora_gpx":"2026-07-13T19:27:05Z","imagen":"frames/frame_000118.jpg"},"geometry":{"type":"Point","coordinates":[-68.704771666666701,-32.958723333333303]}},
{"type":"Feature","properties":{"seg_gpx_rel":119,"tiempo_gpx_rel":"00:01:59","desfase_s":false,"seg_video":119,"tiempo_video":"00:01:59","punto_gpx":120,"latitud":-32.958723333333303,"longitud":-68.704613333333299,"elevacion":696.6,"hora_gpx":"2026-07-13T19:27:06Z","imagen":"frames/frame_000119.jpg"},"geometry":{"type":"Point","coordinates":[-68.704613333333299,-32.958723333333303]}},
{"type":"Feature","properties":{"seg_gpx_rel":120,"tiempo_gpx_rel":"00:02:00","desfase_s":false,"seg_video":120,"tiempo_video":"00:02:00","punto_gpx":121,"latitud":-32.958721666666698,"longitud":-68.704455,"elevacion":696.3,"hora_gpx":"2026-07-13T19:27:07Z","imagen":"frames/frame_000120.jpg"},"geometry":{"type":"Point","coordinates":[-68.704455,-32.958721666666698]}},
{"type":"Feature","properties":{"seg_gpx_rel":121,"tiempo_gpx_rel":"00:02:01","desfase_s":false,"seg_video":121,"tiempo_video":"00:02:01","punto_gpx":122,"latitud":-32.95872,"longitud":-68.704298333333298,"elevacion":696.2,"hora_gpx":"2026-07-13T19:27:08Z","imagen":"frames/frame_000121.jpg"},"geometry":{"type":"Point","coordinates":[-68.704298333333298,-32.95872]}},
{"type":"Feature","properties":{"seg_gpx_rel":122,"tiempo_gpx_rel":"00:02:02","desfase_s":false,"seg_video":122,"tiempo_video":"00:02:02","punto_gpx":123,"latitud":-32.95872,"longitud":-68.7041416666667,"elevacion":695.9,"hora_gpx":"2026-07-13T19:27:09Z","imagen":"frames/frame_000122.jpg"},"geometry":{"type":"Point","coordinates":[-68.7041416666667,-32.95872]}},
{"type":"Feature","properties":{"seg_gpx_rel":123,"tiempo_gpx_rel":"00:02:03","desfase_s":false,"seg_video":123,"tiempo_video":"00:02:03","punto_gpx":124,"latitud":-32.958716666666703,"longitud":-68.70399,"elevacion":695.9,"hora_gpx":"2026-07-13T19:27:10Z","imagen":"frames/frame_000123.jpg"},"geometry":{"type":"Point","coordinates":[-68.70399,-32.958716666666703]}},
{"type":"Feature","properties":{"seg_gpx_rel":124,"tiempo_gpx_rel":"00:02:04","desfase_s":false,"seg_video":124,"tiempo_video":"00:02:04","punto_gpx":125,"latitud":-32.958715,"longitud":-68.70384,"elevacion":695.5,"hora_gpx":"2026-07-13T19:27:11Z","imagen":"frames/frame_000124.jpg"},"geometry":{"type":"Point","coordinates":[-68.70384,-32.958715]}},
{"type":"Feature","properties":{"seg_gpx_rel":125,"tiempo_gpx_rel":"00:02:05","desfase_s":false,"seg_video":125,"tiempo_video":"00:02:05","punto_gpx":126,"latitud":-32.958711666666701,"longitud":-68.70369,"elevacion":695.4,"hora_gpx":"2026-07-13T19:27:12Z","imagen":"frames/frame_000125.jpg"},"geometry":{"type":"Point","coordinates":[-68.70369,-32.958711666666701]}},
{"type":"Feature","properties":{"seg_gpx_rel":126,"tiempo_gpx_rel":"00:02:06","desfase_s":false,"seg_video":126,"tiempo_video":"00:02:06","punto_gpx":127,"latitud":-32.95871,"longitud":-68.7035433333333,"elevacion":695.2,"hora_gpx":"2026-07-13T19:27:13Z","imagen":"frames/frame_000126.jpg"},"geometry":{"type":"Point","coordinates":[-68.7035433333333,-32.95871]}},
{"type":"Feature","properties":{"seg_gpx_rel":127,"tiempo_gpx_rel":"00:02:07","desfase_s":false,"seg_video":127,"tiempo_video":"00:02:07","punto_gpx":128,"latitud":-32.95871,"longitud":-68.703395,"elevacion":694.9,"hora_gpx":"2026-07-13T19:27:14Z","imagen":"frames/frame_000127.jpg"},"geometry":{"type":"Point","coordinates":[-68.703395,-32.95871]}},
{"type":"Feature","properties":{"seg_gpx_rel":128,"tiempo_gpx_rel":"00:02:08","desfase_s":false,"seg_video":128,"tiempo_video":"00:02:08","punto_gpx":129,"latitud":-32.958711666666701,"longitud":-68.703246666666701,"elevacion":694.9,"hora_gpx":"2026-07-13T19:27:15Z","imagen":"frames/frame_000128.jpg"},"geometry":{"type":"Point","coordinates":[-68.703246666666701,-32.958711666666701]}},
{"type":"Feature","properties":{"seg_gpx_rel":129,"tiempo_gpx_rel":"00:02:09","desfase_s":false,"seg_video":129,"tiempo_video":"00:02:09","punto_gpx":130,"latitud":-32.958718333333302,"longitud":-68.703096666666696,"elevacion":694.8,"hora_gpx":"2026-07-13T19:27:16Z","imagen":"frames/frame_000129.jpg"},"geometry":{"type":"Point","coordinates":[-68.703096666666696,-32.958718333333302]}},
{"type":"Feature","properties":{"seg_gpx_rel":130,"tiempo_gpx_rel":"00:02:10","desfase_s":false,"seg_video":130,"tiempo_video":"00:02:10","punto_gpx":131,"latitud":-32.958726666666699,"longitud":-68.702941666666703,"elevacion":694.7,"hora_gpx":"2026-07-13T19:27:17Z","imagen":"frames/frame_000130.jpg"},"geometry":{"type":"Point","coordinates":[-68.702941666666703,-32.958726666666699]}},
{"type":"Feature","properties":{"seg_gpx_rel":131,"tiempo_gpx_rel":"00:02:11","desfase_s":false,"seg_video":131,"tiempo_video":"00:02:11","punto_gpx":132,"latitud":-32.958736666666702,"longitud":-68.702786666666697,"elevacion":694.3,"hora_gpx":"2026-07-13T19:27:18Z","imagen":"frames/frame_000131.jpg"},"geometry":{"type":"Point","coordinates":[-68.702786666666697,-32.958736666666702]}},
{"type":"Feature","properties":{"seg_gpx_rel":132,"tiempo_gpx_rel":"00:02:12","desfase_s":false,"seg_video":132,"tiempo_video":"00:02:12","punto_gpx":133,"latitud":-32.958748333333297,"longitud":-68.70263,"elevacion":694.1,"hora_gpx":"2026-07-13T19:27:19Z","imagen":"frames/frame_000132.jpg"},"geometry":{"type":"Point","coordinates":[-68.70263,-32.958748333333297]}},
{"type":"Feature","properties":{"seg_gpx_rel":133,"tiempo_gpx_rel":"00:02:13","desfase_s":false,"seg_video":133,"tiempo_video":"00:02:13","punto_gpx":134,"latitud":-32.958761666666703,"longitud":-68.702471666666696,"elevacion":693.8,"hora_gpx":"2026-07-13T19:27:20Z","imagen":"frames/frame_000133.jpg"},"geometry":{"type":"Point","coordinates":[-68.702471666666696,-32.958761666666703]}},
{"type":"Feature","properties":{"seg_gpx_rel":134,"tiempo_gpx_rel":"00:02:14","desfase_s":false,"seg_video":134,"tiempo_video":"00:02:14","punto_gpx":135,"latitud":-32.958778333333299,"longitud":-68.702315,"elevacion":693.3,"hora_gpx":"2026-07-13T19:27:21Z","imagen":"frames/frame_000134.jpg"},"geometry":{"type":"Point","coordinates":[-68.702315,-32.958778333333299]}},
{"type":"Feature","properties":{"seg_gpx_rel":135,"tiempo_gpx_rel":"00:02:15","desfase_s":false,"seg_video":135,"tiempo_video":"00:02:15","punto_gpx":136,"latitud":-32.9587966666667,"longitud":-68.702156666666696,"elevacion":692.9,"hora_gpx":"2026-07-13T19:27:22Z","imagen":"frames/frame_000135.jpg"},"geometry":{"type":"Point","coordinates":[-68.702156666666696,-32.9587966666667]}},
{"type":"Feature","properties":{"seg_gpx_rel":136,"tiempo_gpx_rel":"00:02:16","desfase_s":false,"seg_video":136,"tiempo_video":"00:02:16","punto_gpx":137,"latitud":-32.958815,"longitud":-68.702003333333394,"elevacion":692.4,"hora_gpx":"2026-07-13T19:27:23Z","imagen":"frames/frame_000136.jpg"},"geometry":{"type":"Point","coordinates":[-68.702003333333394,-32.958815]}},
{"type":"Feature","properties":{"seg_gpx_rel":137,"tiempo_gpx_rel":"00:02:17","desfase_s":false,"seg_video":137,"tiempo_video":"00:02:17","punto_gpx":138,"latitud":-32.958836666666699,"longitud":-68.70185,"elevacion":692.1,"hora_gpx":"2026-07-13T19:27:24Z","imagen":"frames/frame_000137.jpg"},"geometry":{"type":"Point","coordinates":[-68.70185,-32.958836666666699]}},
{"type":"Feature","properties":{"seg_gpx_rel":138,"tiempo_gpx_rel":"00:02:18","desfase_s":false,"seg_video":138,"tiempo_video":"00:02:18","punto_gpx":139,"latitud":-32.958861666666699,"longitud":-68.701698333333297,"elevacion":691.7,"hora_gpx":"2026-07-13T19:27:25Z","imagen":"frames/frame_000138.jpg"},"geometry":{"type":"Point","coordinates":[-68.701698333333297,-32.958861666666699]}},
{"type":"Feature","properties":{"seg_gpx_rel":139,"tiempo_gpx_rel":"00:02:19","desfase_s":false,"seg_video":139,"tiempo_video":"00:02:19","punto_gpx":140,"latitud":-32.958888333333299,"longitud":-68.701548333333307,"elevacion":691.7,"hora_gpx":"2026-07-13T19:27:26Z","imagen":"frames/frame_000139.jpg"},"geometry":{"type":"Point","coordinates":[-68.701548333333307,-32.958888333333299]}},
{"type":"Feature","properties":{"seg_gpx_rel":140,"tiempo_gpx_rel":"00:02:20","desfase_s":false,"seg_video":140,"tiempo_video":"00:02:20","punto_gpx":141,"latitud":-32.95892,"longitud":-68.701396666666696,"elevacion":691.8,"hora_gpx":"2026-07-13T19:27:27Z","imagen":"frames/frame_000140.jpg"},"geometry":{"type":"Point","coordinates":[-68.701396666666696,-32.95892]}},
{"type":"Feature","properties":{"seg_gpx_rel":141,"tiempo_gpx_rel":"00:02:21","desfase_s":false,"seg_video":141,"tiempo_video":"00:02:21","punto_gpx":142,"latitud":-32.9589516666667,"longitud":-68.701248333333297,"elevacion":691.8,"hora_gpx":"2026-07-13T19:27:28Z","imagen":"frames/frame_000141.jpg"},"geometry":{"type":"Point","coordinates":[-68.701248333333297,-32.9589516666667]}},
{"type":"Feature","properties":{"seg_gpx_rel":142,"tiempo_gpx_rel":"00:02:22","desfase_s":false,"seg_video":142,"tiempo_video":"00:02:22","punto_gpx":143,"latitud":-32.958986666666704,"longitud":-68.7011,"elevacion":691.5,"hora_gpx":"2026-07-13T19:27:29Z","imagen":"frames/frame_000142.jpg"},"geometry":{"type":"Point","coordinates":[-68.7011,-32.958986666666704]}},
{"type":"Feature","properties":{"seg_gpx_rel":143,"tiempo_gpx_rel":"00:02:23","desfase_s":false,"seg_video":143,"tiempo_video":"00:02:23","punto_gpx":144,"latitud":-32.959025,"longitud":-68.700953333333302,"elevacion":691.2,"hora_gpx":"2026-07-13T19:27:30Z","imagen":"frames/frame_000143.jpg"},"geometry":{"type":"Point","coordinates":[-68.700953333333302,-32.959025]}},
{"type":"Feature","properties":{"seg_gpx_rel":144,"tiempo_gpx_rel":"00:02:24","desfase_s":false,"seg_video":144,"tiempo_video":"00:02:24","punto_gpx":145,"latitud":-32.959065,"longitud":-68.700805,"elevacion":691.2,"hora_gpx":"2026-07-13T19:27:31Z","imagen":"frames/frame_000144.jpg"},"geometry":{"type":"Point","coordinates":[-68.700805,-32.959065]}},
{"type":"Feature","properties":{"seg_gpx_rel":145,"tiempo_gpx_rel":"00:02:25","desfase_s":false,"seg_video":145,"tiempo_video":"00:02:25","punto_gpx":146,"latitud":-32.959106666666699,"longitud":-68.700658333333294,"elevacion":690.9,"hora_gpx":"2026-07-13T19:27:32Z","imagen":"frames/frame_000145.jpg"},"geometry":{"type":"Point","coordinates":[-68.700658333333294,-32.959106666666699]}},
{"type":"Feature","properties":{"seg_gpx_rel":146,"tiempo_gpx_rel":"00:02:26","desfase_s":false,"seg_video":146,"tiempo_video":"00:02:26","punto_gpx":147,"latitud":-32.95915,"longitud":-68.700513333333305,"elevacion":690.7,"hora_gpx":"2026-07-13T19:27:33Z","imagen":"frames/frame_000146.jpg"},"geometry":{"type":"Point","coordinates":[-68.700513333333305,-32.95915]}},
{"type":"Feature","properties":{"seg_gpx_rel":147,"tiempo_gpx_rel":"00:02:27","desfase_s":false,"seg_video":147,"tiempo_video":"00:02:27","punto_gpx":148,"latitud":-32.959195,"longitud":-68.70037,"elevacion":690.4,"hora_gpx":"2026-07-13T19:27:34Z","imagen":"frames/frame_000147.jpg"},"geometry":{"type":"Point","coordinates":[-68.70037,-32.959195]}},
{"type":"Feature","properties":{"seg_gpx_rel":148,"tiempo_gpx_rel":"00:02:28","desfase_s":false,"seg_video":148,"tiempo_video":"00:02:28","punto_gpx":149,"latitud":-32.959243333333298,"longitud":-68.700228333333399,"elevacion":690.1,"hora_gpx":"2026-07-13T19:27:35Z","imagen":"frames/frame_000148.jpg"},"geometry":{"type":"Point","coordinates":[-68.700228333333399,-32.959243333333298]}},
{"type":"Feature","properties":{"seg_gpx_rel":149,"tiempo_gpx_rel":"00:02:29","desfase_s":false,"seg_video":149,"tiempo_video":"00:02:29","punto_gpx":150,"latitud":-32.959293333333299,"longitud":-68.700086666666706,"elevacion":690.0,"hora_gpx":"2026-07-13T19:27:36Z","imagen":"frames/frame_000149.jpg"},"geometry":{"type":"Point","coordinates":[-68.700086666666706,-32.959293333333299]}},
{"type":"Feature","properties":{"seg_gpx_rel":150,"tiempo_gpx_rel":"00:02:30","desfase_s":false,"seg_video":150,"tiempo_video":"00:02:30","punto_gpx":151,"latitud":-32.959345,"longitud":-68.699948333333296,"elevacion":689.8,"hora_gpx":"2026-07-13T19:27:37Z","imagen":"frames/frame_000150.jpg"},"geometry":{"type":"Point","coordinates":[-68.699948333333296,-32.959345]}},
{"type":"Feature","properties":{"seg_gpx_rel":151,"tiempo_gpx_rel":"00:02:31","desfase_s":false,"seg_video":151,"tiempo_video":"00:02:31","punto_gpx":152,"latitud":-32.9594,"longitud":-68.69981,"elevacion":689.6,"hora_gpx":"2026-07-13T19:27:38Z","imagen":"frames/frame_000151.jpg"},"geometry":{"type":"Point","coordinates":[-68.69981,-32.9594]}},
{"type":"Feature","properties":{"seg_gpx_rel":152,"tiempo_gpx_rel":"00:02:32","desfase_s":false,"seg_video":152,"tiempo_video":"00:02:32","punto_gpx":153,"latitud":-32.959455,"longitud":-68.699675,"elevacion":689.6,"hora_gpx":"2026-07-13T19:27:39Z","imagen":"frames/frame_000152.jpg"},"geometry":{"type":"Point","coordinates":[-68.699675,-32.959455]}},
{"type":"Feature","properties":{"seg_gpx_rel":153,"tiempo_gpx_rel":"00:02:33","desfase_s":false,"seg_video":153,"tiempo_video":"00:02:33","punto_gpx":154,"latitud":-32.95951,"longitud":-68.699541666666704,"elevacion":689.5,"hora_gpx":"2026-07-13T19:27:40Z","imagen":"frames/frame_000153.jpg"},"geometry":{"type":"Point","coordinates":[-68.699541666666704,-32.95951]}},
{"type":"Feature","properties":{"seg_gpx_rel":154,"tiempo_gpx_rel":"00:02:34","desfase_s":false,"seg_video":154,"tiempo_video":"00:02:34","punto_gpx":155,"latitud":-32.959568333333301,"longitud":-68.699408333333295,"elevacion":689.5,"hora_gpx":"2026-07-13T19:27:41Z","imagen":"frames/frame_000154.jpg"},"geometry":{"type":"Point","coordinates":[-68.699408333333295,-32.959568333333301]}},
{"type":"Feature","properties":{"seg_gpx_rel":155,"tiempo_gpx_rel":"00:02:35","desfase_s":false,"seg_video":155,"tiempo_video":"00:02:35","punto_gpx":156,"latitud":-32.959628333333299,"longitud":-68.699278333333297,"elevacion":689.6,"hora_gpx":"2026-07-13T19:27:42Z","imagen":"frames/frame_000155.jpg"},"geometry":{"type":"Point","coordinates":[-68.699278333333297,-32.959628333333299]}},
{"type":"Feature","properties":{"seg_gpx_rel":156,"tiempo_gpx_rel":"00:02:36","desfase_s":false,"seg_video":156,"tiempo_video":"00:02:36","punto_gpx":157,"latitud":-32.959688333333297,"longitud":-68.69915,"elevacion":689.7,"hora_gpx":"2026-07-13T19:27:43Z","imagen":"frames/frame_000156.jpg"},"geometry":{"type":"Point","coordinates":[-68.69915,-32.959688333333297]}},
{"type":"Feature","properties":{"seg_gpx_rel":157,"tiempo_gpx_rel":"00:02:37","desfase_s":false,"seg_video":157,"tiempo_video":"00:02:37","punto_gpx":158,"latitud":-32.95975,"longitud":-68.699025,"elevacion":689.7,"hora_gpx":"2026-07-13T19:27:44Z","imagen":"frames/frame_000157.jpg"},"geometry":{"type":"Point","coordinates":[-68.699025,-32.95975]}},
{"type":"Feature","properties":{"seg_gpx_rel":158,"tiempo_gpx_rel":"00:02:38","desfase_s":false,"seg_video":158,"tiempo_video":"00:02:38","punto_gpx":159,"latitud":-32.959813333333301,"longitud":-68.6989016666667,"elevacion":689.9,"hora_gpx":"2026-07-13T19:27:45Z","imagen":"frames/frame_000158.jpg"},"geometry":{"type":"Point","coordinates":[-68.6989016666667,-32.959813333333301]}},
{"type":"Feature","properties":{"seg_gpx_rel":159,"tiempo_gpx_rel":"00:02:39","desfase_s":false,"seg_video":159,"tiempo_video":"00:02:39","punto_gpx":160,"latitud":-32.9598783333333,"longitud":-68.698778333333294,"elevacion":689.8,"hora_gpx":"2026-07-13T19:27:46Z","imagen":"frames/frame_000159.jpg"},"geometry":{"type":"Point","coordinates":[-68.698778333333294,-32.9598783333333]}},
{"type":"Feature","properties":{"seg_gpx_rel":160,"tiempo_gpx_rel":"00:02:40","desfase_s":false,"seg_video":160,"tiempo_video":"00:02:40","punto_gpx":161,"latitud":-32.959946666666703,"longitud":-68.698658333333299,"elevacion":689.6,"hora_gpx":"2026-07-13T19:27:47Z","imagen":"frames/frame_000160.jpg"},"geometry":{"type":"Point","coordinates":[-68.698658333333299,-32.959946666666703]}},
{"type":"Feature","properties":{"seg_gpx_rel":161,"tiempo_gpx_rel":"00:02:41","desfase_s":false,"seg_video":161,"tiempo_video":"00:02:41","punto_gpx":162,"latitud":-32.960016666666696,"longitud":-68.69854,"elevacion":689.7,"hora_gpx":"2026-07-13T19:27:48Z","imagen":"frames/frame_000161.jpg"},"geometry":{"type":"Point","coordinates":[-68.69854,-32.960016666666696]}},
{"type":"Feature","properties":{"seg_gpx_rel":162,"tiempo_gpx_rel":"00:02:42","desfase_s":false,"seg_video":162,"tiempo_video":"00:02:42","punto_gpx":163,"latitud":-32.960088333333303,"longitud":-68.698423333333295,"elevacion":689.8,"hora_gpx":"2026-07-13T19:27:49Z","imagen":"frames/frame_000162.jpg"},"geometry":{"type":"Point","coordinates":[-68.698423333333295,-32.960088333333303]}},
{"type":"Feature","properties":{"seg_gpx_rel":163,"tiempo_gpx_rel":"00:02:43","desfase_s":false,"seg_video":163,"tiempo_video":"00:02:43","punto_gpx":164,"latitud":-32.9601616666667,"longitud":-68.698306666666696,"elevacion":689.8,"hora_gpx":"2026-07-13T19:27:50Z","imagen":"frames/frame_000163.jpg"},"geometry":{"type":"Point","coordinates":[-68.698306666666696,-32.9601616666667]}},
{"type":"Feature","properties":{"seg_gpx_rel":164,"tiempo_gpx_rel":"00:02:44","desfase_s":false,"seg_video":164,"tiempo_video":"00:02:44","punto_gpx":165,"latitud":-32.960235,"longitud":-68.69819,"elevacion":689.6,"hora_gpx":"2026-07-13T19:27:51Z","imagen":"frames/frame_000164.jpg"},"geometry":{"type":"Point","coordinates":[-68.69819,-32.960235]}},
{"type":"Feature","properties":{"seg_gpx_rel":165,"tiempo_gpx_rel":"00:02:45","desfase_s":false,"seg_video":165,"tiempo_video":"00:02:45","punto_gpx":166,"latitud":-32.96031,"longitud":-68.698076666666694,"elevacion":689.5,"hora_gpx":"2026-07-13T19:27:52Z","imagen":"frames/frame_000165.jpg"},"geometry":{"type":"Point","coordinates":[-68.698076666666694,-32.96031]}},
{"type":"Feature","properties":{"seg_gpx_rel":166,"tiempo_gpx_rel":"00:02:46","desfase_s":false,"seg_video":166,"tiempo_video":"00:02:46","punto_gpx":167,"latitud":-32.96039,"longitud":-68.697963333333306,"elevacion":689.4,"hora_gpx":"2026-07-13T19:27:53Z","imagen":"frames/frame_000166.jpg"},"geometry":{"type":"Point","coordinates":[-68.697963333333306,-32.96039]}},
{"type":"Feature","properties":{"seg_gpx_rel":167,"tiempo_gpx_rel":"00:02:47","desfase_s":false,"seg_video":167,"tiempo_video":"00:02:47","punto_gpx":168,"latitud":-32.960471666666699,"longitud":-68.697853333333299,"elevacion":689.3,"hora_gpx":"2026-07-13T19:27:54Z","imagen":"frames/frame_000167.jpg"},"geometry":{"type":"Point","coordinates":[-68.697853333333299,-32.960471666666699]}},
{"type":"Feature","properties":{"seg_gpx_rel":168,"tiempo_gpx_rel":"00:02:48","desfase_s":false,"seg_video":168,"tiempo_video":"00:02:48","punto_gpx":169,"latitud":-32.960556666666697,"longitud":-68.697743333333307,"elevacion":689.2,"hora_gpx":"2026-07-13T19:27:55Z","imagen":"frames/frame_000168.jpg"},"geometry":{"type":"Point","coordinates":[-68.697743333333307,-32.960556666666697]}},
{"type":"Feature","properties":{"seg_gpx_rel":169,"tiempo_gpx_rel":"00:02:49","desfase_s":false,"seg_video":169,"tiempo_video":"00:02:49","punto_gpx":170,"latitud":-32.960643333333302,"longitud":-68.697635,"elevacion":689.1,"hora_gpx":"2026-07-13T19:27:56Z","imagen":"frames/frame_000169.jpg"},"geometry":{"type":"Point","coordinates":[-68.697635,-32.960643333333302]}},
{"type":"Feature","properties":{"seg_gpx_rel":170,"tiempo_gpx_rel":"00:02:50","desfase_s":false,"seg_video":170,"tiempo_video":"00:02:50","punto_gpx":171,"latitud":-32.960731666666703,"longitud":-68.697526666666704,"elevacion":689.1,"hora_gpx":"2026-07-13T19:27:57Z","imagen":"frames/frame_000170.jpg"},"geometry":{"type":"Point","coordinates":[-68.697526666666704,-32.960731666666703]}},
{"type":"Feature","properties":{"seg_gpx_rel":171,"tiempo_gpx_rel":"00:02:51","desfase_s":false,"seg_video":171,"tiempo_video":"00:02:51","punto_gpx":172,"latitud":-32.96082,"longitud":-68.69742,"elevacion":688.9,"hora_gpx":"2026-07-13T19:27:58Z","imagen":"frames/frame_000171.jpg"},"geometry":{"type":"Point","coordinates":[-68.69742,-32.96082]}},
{"type":"Feature","properties":{"seg_gpx_rel":172,"tiempo_gpx_rel":"00:02:52","desfase_s":false,"seg_video":172,"tiempo_video":"00:02:52","punto_gpx":173,"latitud":-32.960911666666703,"longitud":-68.697315,"elevacion":688.9,"hora_gpx":"2026-07-13T19:27:59Z","imagen":"frames/frame_000172.jpg"},"geometry":{"type":"Point","coordinates":[-68.697315,-32.960911666666703]}},
{"type":"Feature","properties":{"seg_gpx_rel":173,"tiempo_gpx_rel":"00:02:53","desfase_s":false,"seg_video":173,"tiempo_video":"00:02:53","punto_gpx":174,"latitud":-32.961003333333302,"longitud":-68.69721,"elevacion":688.9,"hora_gpx":"2026-07-13T19:28:00Z","imagen":"frames/frame_000173.jpg"},"geometry":{"type":"Point","coordinates":[-68.69721,-32.961003333333302]}},
{"type":"Feature","properties":{"seg_gpx_rel":174,"tiempo_gpx_rel":"00:02:54","desfase_s":false,"seg_video":174,"tiempo_video":"00:02:54","punto_gpx":175,"latitud":-32.961096666666698,"longitud":-68.697108333333304,"elevacion":688.8,"hora_gpx":"2026-07-13T19:28:01Z","imagen":"frames/frame_000174.jpg"},"geometry":{"type":"Point","coordinates":[-68.697108333333304,-32.961096666666698]}},
{"type":"Feature","properties":{"seg_gpx_rel":175,"tiempo_gpx_rel":"00:02:55","desfase_s":false,"seg_video":175,"tiempo_video":"00:02:55","punto_gpx":176,"latitud":-32.9611916666667,"longitud":-68.697003333333299,"elevacion":688.6,"hora_gpx":"2026-07-13T19:28:02Z","imagen":"frames/frame_000175.jpg"},"geometry":{"type":"Point","coordinates":[-68.697003333333299,-32.9611916666667]}},
{"type":"Feature","properties":{"seg_gpx_rel":176,"tiempo_gpx_rel":"00:02:56","desfase_s":false,"seg_video":176,"tiempo_video":"00:02:56","punto_gpx":177,"latitud":-32.9612883333333,"longitud":-68.6969,"elevacion":688.8,"hora_gpx":"2026-07-13T19:28:03Z","imagen":"frames/frame_000176.jpg"},"geometry":{"type":"Point","coordinates":[-68.6969,-32.9612883333333]}},
{"type":"Feature","properties":{"seg_gpx_rel":177,"tiempo_gpx_rel":"00:02:57","desfase_s":false,"seg_video":177,"tiempo_video":"00:02:57","punto_gpx":178,"latitud":-32.961386666666698,"longitud":-68.6967966666667,"elevacion":688.7,"hora_gpx":"2026-07-13T19:28:04Z","imagen":"frames/frame_000177.jpg"},"geometry":{"type":"Point","coordinates":[-68.6967966666667,-32.961386666666698]}},
{"type":"Feature","properties":{"seg_gpx_rel":178,"tiempo_gpx_rel":"00:02:58","desfase_s":false,"seg_video":178,"tiempo_video":"00:02:58","punto_gpx":179,"latitud":-32.961483333333298,"longitud":-68.6966933333333,"elevacion":688.5,"hora_gpx":"2026-07-13T19:28:05Z","imagen":"frames/frame_000178.jpg"},"geometry":{"type":"Point","coordinates":[-68.6966933333333,-32.961483333333298]}},
{"type":"Feature","properties":{"seg_gpx_rel":179,"tiempo_gpx_rel":"00:02:59","desfase_s":false,"seg_video":179,"tiempo_video":"00:02:59","punto_gpx":180,"latitud":-32.96158,"longitud":-68.696588333333295,"elevacion":688.6,"hora_gpx":"2026-07-13T19:28:06Z","imagen":"frames/frame_000179.jpg"},"geometry":{"type":"Point","coordinates":[-68.696588333333295,-32.96158]}},
{"type":"Feature","properties":{"seg_gpx_rel":180,"tiempo_gpx_rel":"00:03:00","desfase_s":false,"seg_video":180,"tiempo_video":"00:03:00","punto_gpx":181,"latitud":-32.96168,"longitud":-68.696481666666699,"elevacion":688.6,"hora_gpx":"2026-07-13T19:28:07Z","imagen":"frames/frame_000180.jpg"},"geometry":{"type":"Point","coordinates":[-68.696481666666699,-32.96168]}},
{"type":"Feature","properties":{"seg_gpx_rel":181,"tiempo_gpx_rel":"00:03:01","desfase_s":false,"seg_video":181,"tiempo_video":"00:03:01","punto_gpx":182,"latitud":-32.96178,"longitud":-68.696373333333298,"elevacion":688.5,"hora_gpx":"2026-07-13T19:28:08Z","imagen":"frames/frame_000181.jpg"},"geometry":{"type":"Point","coordinates":[-68.696373333333298,-32.96178]}},
{"type":"Feature","properties":{"seg_gpx_rel":182,"tiempo_gpx_rel":"00:03:02","desfase_s":false,"seg_video":182,"tiempo_video":"00:03:02","punto_gpx":183,"latitud":-32.961881666666699,"longitud":-68.696266666666702,"elevacion":688.5,"hora_gpx":"2026-07-13T19:28:09Z","imagen":"frames/frame_000182.jpg"},"geometry":{"type":"Point","coordinates":[-68.696266666666702,-32.961881666666699]}},
{"type":"Feature","properties":{"seg_gpx_rel":183,"tiempo_gpx_rel":"00:03:03","desfase_s":false,"seg_video":183,"tiempo_video":"00:03:03","punto_gpx":184,"latitud":-32.961985,"longitud":-68.696158333333301,"elevacion":688.4,"hora_gpx":"2026-07-13T19:28:10Z","imagen":"frames/frame_000183.jpg"},"geometry":{"type":"Point","coordinates":[-68.696158333333301,-32.961985]}},
{"type":"Feature","properties":{"seg_gpx_rel":184,"tiempo_gpx_rel":"00:03:04","desfase_s":false,"seg_video":184,"tiempo_video":"00:03:04","punto_gpx":185,"latitud":-32.962088333333298,"longitud":-68.696051666666705,"elevacion":688.4,"hora_gpx":"2026-07-13T19:28:11Z","imagen":"frames/frame_000184.jpg"},"geometry":{"type":"Point","coordinates":[-68.696051666666705,-32.962088333333298]}},
{"type":"Feature","properties":{"seg_gpx_rel":185,"tiempo_gpx_rel":"00:03:05","desfase_s":false,"seg_video":185,"tiempo_video":"00:03:05","punto_gpx":186,"latitud":-32.96219,"longitud":-68.695945,"elevacion":688.4,"hora_gpx":"2026-07-13T19:28:12Z","imagen":"frames/frame_000185.jpg"},"geometry":{"type":"Point","coordinates":[-68.695945,-32.96219]}},
{"type":"Feature","properties":{"seg_gpx_rel":186,"tiempo_gpx_rel":"00:03:06","desfase_s":false,"seg_video":186,"tiempo_video":"00:03:06","punto_gpx":187,"latitud":-32.96229,"longitud":-68.695838333333299,"elevacion":688.2,"hora_gpx":"2026-07-13T19:28:13Z","imagen":"frames/frame_000186.jpg"},"geometry":{"type":"Point","coordinates":[-68.695838333333299,-32.96229]}},
{"type":"Feature","properties":{"seg_gpx_rel":187,"tiempo_gpx_rel":"00:03:07","desfase_s":false,"seg_video":187,"tiempo_video":"00:03:07","punto_gpx":188,"latitud":-32.962386666666703,"longitud":-68.695731666666703,"elevacion":688.0,"hora_gpx":"2026-07-13T19:28:14Z","imagen":"frames/frame_000187.jpg"},"geometry":{"type":"Point","coordinates":[-68.695731666666703,-32.962386666666703]}},
{"type":"Feature","properties":{"seg_gpx_rel":188,"tiempo_gpx_rel":"00:03:08","desfase_s":false,"seg_video":188,"tiempo_video":"00:03:08","punto_gpx":189,"latitud":-32.962486666666699,"longitud":-68.695625,"elevacion":688.1,"hora_gpx":"2026-07-13T19:28:15Z","imagen":"frames/frame_000188.jpg"},"geometry":{"type":"Point","coordinates":[-68.695625,-32.962486666666699]}},
{"type":"Feature","properties":{"seg_gpx_rel":189,"tiempo_gpx_rel":"00:03:09","desfase_s":false,"seg_video":189,"tiempo_video":"00:03:09","punto_gpx":190,"latitud":-32.962586666666702,"longitud":-68.695516666666705,"elevacion":688.0,"hora_gpx":"2026-07-13T19:28:16Z","imagen":"frames/frame_000189.jpg"},"geometry":{"type":"Point","coordinates":[-68.695516666666705,-32.962586666666702]}},
{"type":"Feature","properties":{"seg_gpx_rel":190,"tiempo_gpx_rel":"00:03:10","desfase_s":false,"seg_video":190,"tiempo_video":"00:03:10","punto_gpx":191,"latitud":-32.962686666666698,"longitud":-68.695408333333305,"elevacion":688.0,"hora_gpx":"2026-07-13T19:28:17Z","imagen":"frames/frame_000190.jpg"},"geometry":{"type":"Point","coordinates":[-68.695408333333305,-32.962686666666698]}},
{"type":"Feature","properties":{"seg_gpx_rel":191,"tiempo_gpx_rel":"00:03:11","desfase_s":false,"seg_video":191,"tiempo_video":"00:03:11","punto_gpx":192,"latitud":-32.9627883333333,"longitud":-68.6953,"elevacion":688.1,"hora_gpx":"2026-07-13T19:28:18Z","imagen":"frames/frame_000191.jpg"},"geometry":{"type":"Point","coordinates":[-68.6953,-32.9627883333333]}},
{"type":"Feature","properties":{"seg_gpx_rel":192,"tiempo_gpx_rel":"00:03:12","desfase_s":false,"seg_video":192,"tiempo_video":"00:03:12","punto_gpx":193,"latitud":-32.96289,"longitud":-68.695193333333293,"elevacion":688.0,"hora_gpx":"2026-07-13T19:28:19Z","imagen":"frames/frame_000192.jpg"},"geometry":{"type":"Point","coordinates":[-68.695193333333293,-32.96289]}},
{"type":"Feature","properties":{"seg_gpx_rel":193,"tiempo_gpx_rel":"00:03:13","desfase_s":false,"seg_video":193,"tiempo_video":"00:03:13","punto_gpx":194,"latitud":-32.96299,"longitud":-68.695085,"elevacion":688.2,"hora_gpx":"2026-07-13T19:28:20Z","imagen":"frames/frame_000193.jpg"},"geometry":{"type":"Point","coordinates":[-68.695085,-32.96299]}},
{"type":"Feature","properties":{"seg_gpx_rel":194,"tiempo_gpx_rel":"00:03:14","desfase_s":false,"seg_video":194,"tiempo_video":"00:03:14","punto_gpx":195,"latitud":-32.963091666666699,"longitud":-68.69498,"elevacion":688.2,"hora_gpx":"2026-07-13T19:28:21Z","imagen":"frames/frame_000194.jpg"},"geometry":{"type":"Point","coordinates":[-68.69498,-32.963091666666699]}},
{"type":"Feature","properties":{"seg_gpx_rel":195,"tiempo_gpx_rel":"00:03:15","desfase_s":false,"seg_video":195,"tiempo_video":"00:03:15","punto_gpx":196,"latitud":-32.963193333333301,"longitud":-68.694875,"elevacion":688.0,"hora_gpx":"2026-07-13T19:28:22Z","imagen":"frames/frame_000195.jpg"},"geometry":{"type":"Point","coordinates":[-68.694875,-32.963193333333301]}},
{"type":"Feature","properties":{"seg_gpx_rel":196,"tiempo_gpx_rel":"00:03:16","desfase_s":false,"seg_video":196,"tiempo_video":"00:03:16","punto_gpx":197,"latitud":-32.963295,"longitud":-68.6947683333333,"elevacion":688.1,"hora_gpx":"2026-07-13T19:28:23Z","imagen":"frames/frame_000196.jpg"},"geometry":{"type":"Point","coordinates":[-68.6947683333333,-32.963295]}},
{"type":"Feature","properties":{"seg_gpx_rel":197,"tiempo_gpx_rel":"00:03:17","desfase_s":false,"seg_video":197,"tiempo_video":"00:03:17","punto_gpx":198,"latitud":-32.963396666666704,"longitud":-68.694661666666704,"elevacion":688.1,"hora_gpx":"2026-07-13T19:28:24Z","imagen":"frames/frame_000197.jpg"},"geometry":{"type":"Point","coordinates":[-68.694661666666704,-32.963396666666704]}},
{"type":"Feature","properties":{"seg_gpx_rel":198,"tiempo_gpx_rel":"00:03:18","desfase_s":false,"seg_video":198,"tiempo_video":"00:03:18","punto_gpx":199,"latitud":-32.9634966666667,"longitud":-68.694555,"elevacion":688.0,"hora_gpx":"2026-07-13T19:28:25Z","imagen":"frames/frame_000198.jpg"},"geometry":{"type":"Point","coordinates":[-68.694555,-32.9634966666667]}},
{"type":"Feature","properties":{"seg_gpx_rel":199,"tiempo_gpx_rel":"00:03:19","desfase_s":false,"seg_video":199,"tiempo_video":"00:03:19","punto_gpx":200,"latitud":-32.963598333333302,"longitud":-68.694448333333298,"elevacion":688.0,"hora_gpx":"2026-07-13T19:28:26Z","imagen":"frames/frame_000199.jpg"},"geometry":{"type":"Point","coordinates":[-68.694448333333298,-32.963598333333302]}},
{"type":"Feature","properties":{"seg_gpx_rel":200,"tiempo_gpx_rel":"00:03:20","desfase_s":false,"seg_video":200,"tiempo_video":"00:03:20","punto_gpx":201,"latitud":-32.963698333333298,"longitud":-68.694341666666702,"elevacion":687.9,"hora_gpx":"2026-07-13T19:28:27Z","imagen":"frames/frame_000200.jpg"},"geometry":{"type":"Point","coordinates":[-68.694341666666702,-32.963698333333298]}},
{"type":"Feature","properties":{"seg_gpx_rel":201,"tiempo_gpx_rel":"00:03:21","desfase_s":false,"seg_video":201,"tiempo_video":"00:03:21","punto_gpx":202,"latitud":-32.9638,"longitud":-68.694233333333301,"elevacion":688.0,"hora_gpx":"2026-07-13T19:28:28Z","imagen":"frames/frame_000201.jpg"},"geometry":{"type":"Point","coordinates":[-68.694233333333301,-32.9638]}},
{"type":"Feature","properties":{"seg_gpx_rel":202,"tiempo_gpx_rel":"00:03:22","desfase_s":false,"seg_video":202,"tiempo_video":"00:03:22","punto_gpx":203,"latitud":-32.9639016666667,"longitud":-68.694125,"elevacion":688.0,"hora_gpx":"2026-07-13T19:28:29Z","imagen":"frames/frame_000202.jpg"},"geometry":{"type":"Point","coordinates":[-68.694125,-32.9639016666667]}},
{"type":"Feature","properties":{"seg_gpx_rel":203,"tiempo_gpx_rel":"00:03:23","desfase_s":false,"seg_video":203,"tiempo_video":"00:03:23","punto_gpx":204,"latitud":-32.964003333333302,"longitud":-68.694018333333304,"elevacion":688.0,"hora_gpx":"2026-07-13T19:28:30Z","imagen":"frames/frame_000203.jpg"},"geometry":{"type":"Point","coordinates":[-68.694018333333304,-32.964003333333302]}},
{"type":"Feature","properties":{"seg_gpx_rel":204,"tiempo_gpx_rel":"00:03:24","desfase_s":false,"seg_video":204,"tiempo_video":"00:03:24","punto_gpx":205,"latitud":-32.964105,"longitud":-68.69391,"elevacion":688.0,"hora_gpx":"2026-07-13T19:28:31Z","imagen":"frames/frame_000204.jpg"},"geometry":{"type":"Point","coordinates":[-68.69391,-32.964105]}},
{"type":"Feature","properties":{"seg_gpx_rel":205,"tiempo_gpx_rel":"00:03:25","desfase_s":false,"seg_video":205,"tiempo_video":"00:03:25","punto_gpx":206,"latitud":-32.964206666666698,"longitud":-68.693803333333307,"elevacion":687.9,"hora_gpx":"2026-07-13T19:28:32Z","imagen":"frames/frame_000205.jpg"},"geometry":{"type":"Point","coordinates":[-68.693803333333307,-32.964206666666698]}},
{"type":"Feature","properties":{"seg_gpx_rel":206,"tiempo_gpx_rel":"00:03:26","desfase_s":false,"seg_video":206,"tiempo_video":"00:03:26","punto_gpx":207,"latitud":-32.96431,"longitud":-68.693696666666696,"elevacion":688.0,"hora_gpx":"2026-07-13T19:28:33Z","imagen":"frames/frame_000206.jpg"},"geometry":{"type":"Point","coordinates":[-68.693696666666696,-32.96431]}},
{"type":"Feature","properties":{"seg_gpx_rel":207,"tiempo_gpx_rel":"00:03:27","desfase_s":false,"seg_video":207,"tiempo_video":"00:03:27","punto_gpx":208,"latitud":-32.96441,"longitud":-68.69359,"elevacion":688.0,"hora_gpx":"2026-07-13T19:28:34Z","imagen":"frames/frame_000207.jpg"},"geometry":{"type":"Point","coordinates":[-68.69359,-32.96441]}},
{"type":"Feature","properties":{"seg_gpx_rel":208,"tiempo_gpx_rel":"00:03:28","desfase_s":false,"seg_video":208,"tiempo_video":"00:03:28","punto_gpx":209,"latitud":-32.964511666666702,"longitud":-68.693483333333305,"elevacion":688.0,"hora_gpx":"2026-07-13T19:28:35Z","imagen":"frames/frame_000208.jpg"},"geometry":{"type":"Point","coordinates":[-68.693483333333305,-32.964511666666702]}},
{"type":"Feature","properties":{"seg_gpx_rel":209,"tiempo_gpx_rel":"00:03:29","desfase_s":false,"seg_video":209,"tiempo_video":"00:03:29","punto_gpx":210,"latitud":-32.96461,"longitud":-68.693375,"elevacion":688.1,"hora_gpx":"2026-07-13T19:28:36Z","imagen":"frames/frame_000209.jpg"},"geometry":{"type":"Point","coordinates":[-68.693375,-32.96461]}},
{"type":"Feature","properties":{"seg_gpx_rel":210,"tiempo_gpx_rel":"00:03:30","desfase_s":false,"seg_video":210,"tiempo_video":"00:03:30","punto_gpx":211,"latitud":-32.96471,"longitud":-68.693268333333293,"elevacion":688.2,"hora_gpx":"2026-07-13T19:28:37Z","imagen":"frames/frame_000210.jpg"},"geometry":{"type":"Point","coordinates":[-68.693268333333293,-32.96471]}},
{"type":"Feature","properties":{"seg_gpx_rel":211,"tiempo_gpx_rel":"00:03:31","desfase_s":false,"seg_video":211,"tiempo_video":"00:03:31","punto_gpx":212,"latitud":-32.96481,"longitud":-68.69316,"elevacion":688.0,"hora_gpx":"2026-07-13T19:28:38Z","imagen":"frames/frame_000211.jpg"},"geometry":{"type":"Point","coordinates":[-68.69316,-32.96481]}},
{"type":"Feature","properties":{"seg_gpx_rel":212,"tiempo_gpx_rel":"00:03:32","desfase_s":false,"seg_video":212,"tiempo_video":"00:03:32","punto_gpx":213,"latitud":-32.964908333333298,"longitud":-68.693051666666705,"elevacion":688.0,"hora_gpx":"2026-07-13T19:28:39Z","imagen":"frames/frame_000212.jpg"},"geometry":{"type":"Point","coordinates":[-68.693051666666705,-32.964908333333298]}},
{"type":"Feature","properties":{"seg_gpx_rel":213,"tiempo_gpx_rel":"00:03:33","desfase_s":false,"seg_video":213,"tiempo_video":"00:03:33","punto_gpx":214,"latitud":-32.965008333333301,"longitud":-68.692945,"elevacion":688.0,"hora_gpx":"2026-07-13T19:28:40Z","imagen":"frames/frame_000213.jpg"},"geometry":{"type":"Point","coordinates":[-68.692945,-32.965008333333301]}},
{"type":"Feature","properties":{"seg_gpx_rel":214,"tiempo_gpx_rel":"00:03:34","desfase_s":false,"seg_video":214,"tiempo_video":"00:03:34","punto_gpx":215,"latitud":-32.96511,"longitud":-68.692838333333299,"elevacion":688.0,"hora_gpx":"2026-07-13T19:28:41Z","imagen":"frames/frame_000214.jpg"},"geometry":{"type":"Point","coordinates":[-68.692838333333299,-32.96511]}},
{"type":"Feature","properties":{"seg_gpx_rel":215,"tiempo_gpx_rel":"00:03:35","desfase_s":false,"seg_video":215,"tiempo_video":"00:03:35","punto_gpx":216,"latitud":-32.96521,"longitud":-68.69273,"elevacion":688.1,"hora_gpx":"2026-07-13T19:28:42Z","imagen":"frames/frame_000215.jpg"},"geometry":{"type":"Point","coordinates":[-68.69273,-32.96521]}},
{"type":"Feature","properties":{"seg_gpx_rel":216,"tiempo_gpx_rel":"00:03:36","desfase_s":false,"seg_video":216,"tiempo_video":"00:03:36","punto_gpx":217,"latitud":-32.96531,"longitud":-68.692623333333302,"elevacion":688.1,"hora_gpx":"2026-07-13T19:28:43Z","imagen":"frames/frame_000216.jpg"},"geometry":{"type":"Point","coordinates":[-68.692623333333302,-32.96531]}},
{"type":"Feature","properties":{"seg_gpx_rel":217,"tiempo_gpx_rel":"00:03:37","desfase_s":false,"seg_video":217,"tiempo_video":"00:03:37","punto_gpx":218,"latitud":-32.965411666666697,"longitud":-68.692515,"elevacion":688.3,"hora_gpx":"2026-07-13T19:28:44Z","imagen":"frames/frame_000217.jpg"},"geometry":{"type":"Point","coordinates":[-68.692515,-32.965411666666697]}},
{"type":"Feature","properties":{"seg_gpx_rel":218,"tiempo_gpx_rel":"00:03:38","desfase_s":false,"seg_video":218,"tiempo_video":"00:03:38","punto_gpx":219,"latitud":-32.96551,"longitud":-68.692408333333304,"elevacion":688.4,"hora_gpx":"2026-07-13T19:28:45Z","imagen":"frames/frame_000218.jpg"},"geometry":{"type":"Point","coordinates":[-68.692408333333304,-32.96551]}},
{"type":"Feature","properties":{"seg_gpx_rel":219,"tiempo_gpx_rel":"00:03:39","desfase_s":false,"seg_video":219,"tiempo_video":"00:03:39","punto_gpx":220,"latitud":-32.96561,"longitud":-68.6923,"elevacion":688.5,"hora_gpx":"2026-07-13T19:28:46Z","imagen":"frames/frame_000219.jpg"},"geometry":{"type":"Point","coordinates":[-68.6923,-32.96561]}},
{"type":"Feature","properties":{"seg_gpx_rel":220,"tiempo_gpx_rel":"00:03:40","desfase_s":false,"seg_video":220,"tiempo_video":"00:03:40","punto_gpx":221,"latitud":-32.965711666666699,"longitud":-68.692191666666702,"elevacion":688.6,"hora_gpx":"2026-07-13T19:28:47Z","imagen":"frames/frame_000220.jpg"},"geometry":{"type":"Point","coordinates":[-68.692191666666702,-32.965711666666699]}},
{"type":"Feature","properties":{"seg_gpx_rel":221,"tiempo_gpx_rel":"00:03:41","desfase_s":false,"seg_video":221,"tiempo_video":"00:03:41","punto_gpx":222,"latitud":-32.965811666666703,"longitud":-68.692085,"elevacion":688.6,"hora_gpx":"2026-07-13T19:28:48Z","imagen":"frames/frame_000221.jpg"},"geometry":{"type":"Point","coordinates":[-68.692085,-32.965811666666703]}},
{"type":"Feature","properties":{"seg_gpx_rel":222,"tiempo_gpx_rel":"00:03:42","desfase_s":false,"seg_video":222,"tiempo_video":"00:03:42","punto_gpx":223,"latitud":-32.965913333333297,"longitud":-68.691976666666704,"elevacion":688.7,"hora_gpx":"2026-07-13T19:28:49Z","imagen":"frames/frame_000222.jpg"},"geometry":{"type":"Point","coordinates":[-68.691976666666704,-32.965913333333297]}},
{"type":"Feature","properties":{"seg_gpx_rel":223,"tiempo_gpx_rel":"00:03:43","desfase_s":false,"seg_video":223,"tiempo_video":"00:03:43","punto_gpx":224,"latitud":-32.966013333333301,"longitud":-68.69187,"elevacion":688.7,"hora_gpx":"2026-07-13T19:28:50Z","imagen":"frames/frame_000223.jpg"},"geometry":{"type":"Point","coordinates":[-68.69187,-32.966013333333301]}},
{"type":"Feature","properties":{"seg_gpx_rel":224,"tiempo_gpx_rel":"00:03:44","desfase_s":false,"seg_video":224,"tiempo_video":"00:03:44","punto_gpx":225,"latitud":-32.966115,"longitud":-68.691763333333299,"elevacion":688.7,"hora_gpx":"2026-07-13T19:28:51Z","imagen":"frames/frame_000224.jpg"},"geometry":{"type":"Point","coordinates":[-68.691763333333299,-32.966115]}},
{"type":"Feature","properties":{"seg_gpx_rel":225,"tiempo_gpx_rel":"00:03:45","desfase_s":false,"seg_video":225,"tiempo_video":"00:03:45","punto_gpx":226,"latitud":-32.966216666666703,"longitud":-68.691655,"elevacion":688.6,"hora_gpx":"2026-07-13T19:28:52Z","imagen":"frames/frame_000225.jpg"},"geometry":{"type":"Point","coordinates":[-68.691655,-32.966216666666703]}},
{"type":"Feature","properties":{"seg_gpx_rel":226,"tiempo_gpx_rel":"00:03:46","desfase_s":false,"seg_video":226,"tiempo_video":"00:03:46","punto_gpx":227,"latitud":-32.966315,"longitud":-68.691551666666697,"elevacion":688.6,"hora_gpx":"2026-07-13T19:28:53Z","imagen":"frames/frame_000226.jpg"},"geometry":{"type":"Point","coordinates":[-68.691551666666697,-32.966315]}},
{"type":"Feature","properties":{"seg_gpx_rel":227,"tiempo_gpx_rel":"00:03:47","desfase_s":false,"seg_video":227,"tiempo_video":"00:03:47","punto_gpx":228,"latitud":-32.966405,"longitud":-68.691456666666696,"elevacion":688.7,"hora_gpx":"2026-07-13T19:28:54Z","imagen":"frames/frame_000227.jpg"},"geometry":{"type":"Point","coordinates":[-68.691456666666696,-32.966405]}},
{"type":"Feature","properties":{"seg_gpx_rel":228,"tiempo_gpx_rel":"00:03:48","desfase_s":false,"seg_video":228,"tiempo_video":"00:03:48","punto_gpx":229,"latitud":-32.966486666666697,"longitud":-68.691371666666697,"elevacion":688.7,"hora_gpx":"2026-07-13T19:28:55Z","imagen":"frames/frame_000228.jpg"},"geometry":{"type":"Point","coordinates":[-68.691371666666697,-32.966486666666697]}},
{"type":"Feature","properties":{"seg_gpx_rel":229,"tiempo_gpx_rel":"00:03:49","desfase_s":false,"seg_video":229,"tiempo_video":"00:03:49","punto_gpx":230,"latitud":-32.96656,"longitud":-68.691296666666702,"elevacion":688.8,"hora_gpx":"2026-07-13T19:28:56Z","imagen":"frames/frame_000229.jpg"},"geometry":{"type":"Point","coordinates":[-68.691296666666702,-32.96656]}},
{"type":"Feature","properties":{"seg_gpx_rel":230,"tiempo_gpx_rel":"00:03:50","desfase_s":false,"seg_video":230,"tiempo_video":"00:03:50","punto_gpx":231,"latitud":-32.96662,"longitud":-68.691235,"elevacion":688.8,"hora_gpx":"2026-07-13T19:28:57Z","imagen":"frames/frame_000230.jpg"},"geometry":{"type":"Point","coordinates":[-68.691235,-32.96662]}},
{"type":"Feature","properties":{"seg_gpx_rel":231,"tiempo_gpx_rel":"00:03:51","desfase_s":false,"seg_video":231,"tiempo_video":"00:03:51","punto_gpx":232,"latitud":-32.966666666666697,"longitud":-68.691185,"elevacion":689.0,"hora_gpx":"2026-07-13T19:28:58Z","imagen":"frames/frame_000231.jpg"},"geometry":{"type":"Point","coordinates":[-68.691185,-32.966666666666697]}},
{"type":"Feature","properties":{"seg_gpx_rel":232,"tiempo_gpx_rel":"00:03:52","desfase_s":false,"seg_video":232,"tiempo_video":"00:03:52","punto_gpx":233,"latitud":-32.9667,"longitud":-68.691145,"elevacion":689.2,"hora_gpx":"2026-07-13T19:28:59Z","imagen":"frames/frame_000232.jpg"},"geometry":{"type":"Point","coordinates":[-68.691145,-32.9667]}},
{"type":"Feature","properties":{"seg_gpx_rel":233,"tiempo_gpx_rel":"00:03:53","desfase_s":false,"seg_video":233,"tiempo_video":"00:03:53","punto_gpx":234,"latitud":-32.966726666666702,"longitud":-68.691116666666701,"elevacion":689.2,"hora_gpx":"2026-07-13T19:29:00Z","imagen":"frames/frame_000233.jpg"},"geometry":{"type":"Point","coordinates":[-68.691116666666701,-32.966726666666702]}},
{"type":"Feature","properties":{"seg_gpx_rel":234,"tiempo_gpx_rel":"00:03:54","desfase_s":false,"seg_video":234,"tiempo_video":"00:03:54","punto_gpx":235,"latitud":-32.966745,"longitud":-68.6911,"elevacion":689.3,"hora_gpx":"2026-07-13T19:29:01Z","imagen":"frames/frame_000234.jpg"},"geometry":{"type":"Point","coordinates":[-68.6911,-32.966745]}},
{"type":"Feature","properties":{"seg_gpx_rel":235,"tiempo_gpx_rel":"00:03:55","desfase_s":false,"seg_video":235,"tiempo_video":"00:03:55","punto_gpx":236,"latitud":-32.966755,"longitud":-68.69109,"elevacion":689.0,"hora_gpx":"2026-07-13T19:29:02Z","imagen":"frames/frame_000235.jpg"},"geometry":{"type":"Point","coordinates":[-68.69109,-32.966755]}},
{"type":"Feature","properties":{"seg_gpx_rel":236,"tiempo_gpx_rel":"00:03:56","desfase_s":false,"seg_video":236,"tiempo_video":"00:03:56","punto_gpx":237,"latitud":-32.966763333333297,"longitud":-68.691083333333296,"elevacion":689.1,"hora_gpx":"2026-07-13T19:29:03Z","imagen":"frames/frame_000236.jpg"},"geometry":{"type":"Point","coordinates":[-68.691083333333296,-32.966763333333297]}},
{"type":"Feature","properties":{"seg_gpx_rel":237,"tiempo_gpx_rel":"00:03:57","desfase_s":false,"seg_video":237,"tiempo_video":"00:03:57","punto_gpx":238,"latitud":-32.966768333333299,"longitud":-68.691078333333294,"elevacion":689.1,"hora_gpx":"2026-07-13T19:29:04Z","imagen":"frames/frame_000237.jpg"},"geometry":{"type":"Point","coordinates":[-68.691078333333294,-32.966768333333299]}},
{"type":"Feature","properties":{"seg_gpx_rel":238,"tiempo_gpx_rel":"00:03:58","desfase_s":false,"seg_video":238,"tiempo_video":"00:03:58","punto_gpx":239,"latitud":-32.966771666666702,"longitud":-68.691075,"elevacion":689.2,"hora_gpx":"2026-07-13T19:29:05Z","imagen":"frames/frame_000238.jpg"},"geometry":{"type":"Point","coordinates":[-68.691075,-32.966771666666702]}},
{"type":"Feature","properties":{"seg_gpx_rel":239,"tiempo_gpx_rel":"00:03:59","desfase_s":false,"seg_video":239,"tiempo_video":"00:03:59","punto_gpx":240,"latitud":-32.9667733333333,"longitud":-68.691073333333307,"elevacion":689.3,"hora_gpx":"2026-07-13T19:29:06Z","imagen":"frames/frame_000239.jpg"},"geometry":{"type":"Point","coordinates":[-68.691073333333307,-32.9667733333333]}},
{"type":"Feature","properties":{"seg_gpx_rel":240,"tiempo_gpx_rel":"00:04:00","desfase_s":false,"seg_video":240,"tiempo_video":"00:04:00","punto_gpx":241,"latitud":-32.96677,"longitud":-68.691075,"elevacion":689.5,"hora_gpx":"2026-07-13T19:29:07Z","imagen":"frames/frame_000240.jpg"},"geometry":{"type":"Point","coordinates":[-68.691075,-32.96677]}},
{"type":"Feature","properties":{"seg_gpx_rel":241,"tiempo_gpx_rel":"00:04:01","desfase_s":false,"seg_video":241,"tiempo_video":"00:04:01","punto_gpx":242,"latitud":-32.9667666666667,"longitud":-68.691075,"elevacion":689.5,"hora_gpx":"2026-07-13T19:29:08Z","imagen":"frames/frame_000241.jpg"},"geometry":{"type":"Point","coordinates":[-68.691075,-32.9667666666667]}},
{"type":"Feature","properties":{"seg_gpx_rel":242,"tiempo_gpx_rel":"00:04:02","desfase_s":false,"seg_video":242,"tiempo_video":"00:04:02","punto_gpx":243,"latitud":-32.966765,"longitud":-68.691076666666703,"elevacion":689.7,"hora_gpx":"2026-07-13T19:29:09Z","imagen":"frames/frame_000242.jpg"},"geometry":{"type":"Point","coordinates":[-68.691076666666703,-32.966765]}},
{"type":"Feature","properties":{"seg_gpx_rel":243,"tiempo_gpx_rel":"00:04:03","desfase_s":false,"seg_video":243,"tiempo_video":"00:04:03","punto_gpx":244,"latitud":-32.966765,"longitud":-68.691076666666703,"elevacion":689.7,"hora_gpx":"2026-07-13T19:29:10Z","imagen":"frames/frame_000243.jpg"},"geometry":{"type":"Point","coordinates":[-68.691076666666703,-32.966765]}},
{"type":"Feature","properties":{"seg_gpx_rel":244,"tiempo_gpx_rel":"00:04:04","desfase_s":false,"seg_video":244,"tiempo_video":"00:04:04","punto_gpx":245,"latitud":-32.966765,"longitud":-68.691076666666703,"elevacion":689.7,"hora_gpx":"2026-07-13T19:29:11Z","imagen":"frames/frame_000244.jpg"},"geometry":{"type":"Point","coordinates":[-68.691076666666703,-32.966765]}}
]
}
